{"type":"FeatureCollection","name":"tl_2025_us_county","source_crs":"EPSG:4269","features":[{"type":"Feature","id":"36059","properties":{"STATEFP":"36","COUNTYFP":"059","COUNTYNS":"00974128","GEOID":"36059","GEOIDFQ":"0500000US36059","NAME":"Nassau","NAMELSAD":"Nassau County","LSAD":"06","CLASSFP":"H1","MTFCC":"G4020","CSAFP":"408","CBSAFP":"35620","METDIVFP":"35004","FUNCSTAT":"A","ALAND":736965431,"AWATER":437285877,"INTPTLAT":"+40.7296118","INTPTLON":"-073.5894144"},"geometry":{"type":"Polygon","coordinates":[[[-73.780193,40.8264],[-73.774977,40.830879],[-73.77452,40.831273],[-73.773429,40.832214],[-73.766501,40.838182],[-73.762174,40.841911],[-73.76164,40.842372],[-73.757967,40.845536],[-73.757801,40.845679],[-73.753787,40.856409],[-73.753732,40.856556],[-73.74806,40.871721],[-73.748004,40.871874],[-73.742499,40.875099],[-73.740597,40.876203],[-73.73139,40.881553],[-73.7185,40.889044],[-73.709674,40.894173],[-73.698972,40.900394],[-73.694448,40.90305],[-73.628149,40.941978],[-73.622955,40.945028],[-73.619446,40.947089],[-73.61309,40.950821],[-73.612996,40.950878],[-73.612901,40.950934],[-73.612885,40.950943],[-73.610427,40.95146],[-73.608337,40.951901],[-73.603063,40.953047],[-73.602512,40.953167],[-73.601561,40.953374],[-73.60061,40.95358],[-73.597976,40.954141],[-73.590669,40.955698],[-73.590073,40.955822],[-73.587438,40.956376],[-73.584002,40.957096],[-73.573697,40.959258],[-73.570262,40.959979],[-73.568659,40.960315],[-73.56385,40.961324],[-73.562248,40.961661],[-73.561971,40.961719],[-73.561139,40.961893],[-73.560863,40.961952],[-73.559425,40.962253],[-73.555112,40.963158],[-73.553675,40.96346],[-73.551778,40.963858],[-73.546088,40.965051],[-73.544192,40.96545],[-73.540906,40.966139],[-73.531051,40.968207],[-73.527766,40.968897],[-73.525626,40.96934],[-73.519206,40.970671],[-73.517067,40.971116],[-73.512865,40.971987],[-73.500259,40.974601],[-73.499565,40.974745],[-73.496061,40.975489],[-73.48814,40.977158],[-73.46438,40.982166],[-73.45646,40.983836],[-73.453633,40.984431],[-73.445155,40.986218],[-73.442329,40.986815],[-73.440801,40.987137],[-73.436217,40.988102],[-73.43469,40.988425],[-73.434135,40.988541],[-73.432473,40.988891],[-73.431919,40.989009],[-73.431806,40.986487],[-73.431306,40.975366],[-73.430808,40.964311],[-73.429615,40.937809],[-73.429549,40.936297],[-73.429448,40.933993],[-73.429249,40.928594],[-73.429388,40.928442],[-73.429648,40.928157],[-73.429878,40.928756],[-73.43015,40.929282],[-73.430693,40.929785],[-73.431478,40.930196],[-73.432051,40.930676],[-73.432595,40.931385],[-73.432957,40.931671],[-73.433319,40.931957],[-73.434285,40.932551],[-73.436398,40.93429],[-73.43673,40.934563],[-73.437575,40.93502],[-73.438239,40.93518],[-73.439385,40.935225],[-73.440803,40.935842],[-73.442161,40.936185],[-73.443247,40.936138],[-73.443941,40.935909],[-73.445298,40.935726],[-73.446202,40.935245],[-73.447258,40.934992],[-73.44817,40.93506],[-73.448797,40.935106],[-73.450335,40.935471],[-73.450794,40.935519],[-73.45121,40.935562],[-73.452251,40.935936],[-73.453051,40.936224],[-73.455676,40.936749],[-73.457095,40.937091],[-73.459237,40.937959],[-73.45984,40.937821],[-73.460624,40.937363],[-73.461107,40.937248],[-73.462525,40.937224],[-73.463776,40.937504],[-73.464365,40.937635],[-73.467746,40.938707],[-73.470915,40.93994],[-73.473601,40.94067],[-73.475172,40.941419],[-73.476378,40.941995],[-73.47834,40.942519],[-73.480665,40.94357],[-73.484137,40.945511],[-73.484983,40.94622],[-73.484622,40.946746],[-73.484622,40.946929],[-73.484954,40.946883],[-73.486214,40.946445],[-73.486733,40.946264],[-73.48818,40.945645],[-73.488482,40.945347],[-73.488602,40.945324],[-73.490017,40.943561],[-73.491042,40.942645],[-73.491674,40.942233],[-73.491831,40.94217],[-73.49282,40.941774],[-73.493182,40.941522],[-73.493693,40.940698],[-73.493693,40.940561],[-73.493783,40.940515],[-73.493932,40.940048],[-73.494024,40.93976],[-73.493963,40.939508],[-73.493445,40.937694],[-73.493356,40.937381],[-73.494406,40.934246],[-73.495036,40.931935],[-73.495786,40.929875],[-73.496027,40.929555],[-73.496387,40.928548],[-73.496599,40.927802],[-73.496777,40.927175],[-73.497017,40.926191],[-73.497134,40.924498],[-73.497333,40.92396],[-73.497405,40.923766],[-73.497399,40.923663],[-73.497386,40.923434],[-73.497374,40.923217],[-73.497132,40.922851],[-73.497035,40.922782],[-73.496052,40.92208],[-73.495501,40.921686],[-73.493313,40.920539],[-73.492844,40.920293],[-73.491868,40.919864],[-73.491787,40.919829],[-73.490973,40.919471],[-73.49075,40.919191],[-73.49061,40.919014],[-73.49061,40.918762],[-73.490308,40.918214],[-73.489702,40.91691],[-73.489007,40.91579],[-73.488463,40.915173],[-73.488101,40.915081],[-73.48798,40.91515],[-73.488132,40.915768],[-73.487861,40.915768],[-73.487718,40.915506],[-73.487437,40.914991],[-73.487043,40.913344],[-73.486952,40.913298],[-73.486419,40.911785],[-73.485865,40.910215],[-73.48571,40.909776],[-73.48447,40.907124],[-73.483714,40.905912],[-73.483563,40.905569],[-73.482686,40.904403],[-73.481871,40.903511],[-73.480239,40.901294],[-73.480179,40.901088],[-73.480028,40.900974],[-73.479876,40.901119],[-73.479668,40.900801],[-73.478559,40.89987],[-73.478468,40.899793],[-73.477307,40.89925],[-73.476079,40.877111],[-73.474066,40.875098],[-73.473466,40.874498],[-73.467366,40.868098],[-73.464368,40.867975],[-73.464036,40.867907],[-73.463855,40.867678],[-73.463855,40.867312],[-73.463155,40.86731],[-73.462557,40.867295],[-73.46253,40.867295],[-73.462259,40.86671],[-73.462976,40.863857],[-73.463755,40.860761],[-73.464067,40.859554],[-73.46404,40.859499],[-73.463319,40.858011],[-73.463281,40.857928],[-73.462956,40.857206],[-73.462797,40.856978],[-73.462617,40.85672],[-73.461439,40.855023],[-73.460706,40.853969],[-73.460598,40.853813],[-73.459635,40.851992],[-73.459578,40.851884],[-73.459542,40.85183],[-73.459505,40.851775],[-73.457709,40.849113],[-73.457688,40.849081],[-73.457494,40.848712],[-73.457325,40.848098],[-73.457172,40.847541],[-73.457158,40.847396],[-73.457141,40.847289],[-73.457123,40.84717],[-73.457099,40.847011],[-73.457008,40.846701],[-73.456899,40.846433],[-73.456605,40.845112],[-73.45586,40.843467],[-73.455363,40.842593],[-73.455261,40.840872],[-73.455489,40.840165],[-73.454903,40.837054],[-73.454681,40.835908],[-73.454578,40.835128],[-73.454625,40.835001],[-73.454439,40.83463],[-73.454358,40.83419],[-73.453996,40.832301],[-73.453921,40.831969],[-73.453795,40.831243],[-73.453529,40.829844],[-73.453242,40.828333],[-73.452543,40.824634],[-73.452166,40.822398],[-73.452127,40.822321],[-73.45177,40.820476],[-73.451679,40.820012],[-73.451623,40.81973],[-73.451454,40.818855],[-73.450633,40.814891],[-73.450384,40.813509],[-73.450252,40.812655],[-73.450005,40.8116],[-73.449766,40.810398],[-73.449635,40.809729],[-73.448768,40.805318],[-73.448763,40.804999],[-73.448747,40.804901],[-73.448706,40.80466],[-73.448666,40.804419],[-73.446931,40.795881],[-73.4467,40.794452],[-73.446455,40.792972],[-73.446102,40.79107],[-73.446057,40.790154],[-73.445411,40.786526],[-73.445306,40.78593],[-73.445113,40.785557],[-73.445025,40.785457],[-73.445022,40.785409],[-73.445022,40.785373],[-73.445019,40.785325],[-73.445003,40.785239],[-73.444942,40.784898],[-73.444888,40.784563],[-73.44488,40.78451],[-73.444867,40.784398],[-73.44482,40.783993],[-73.44481,40.783902],[-73.444684,40.783532],[-73.444372,40.78262],[-73.444166,40.782001],[-73.444096,40.781606],[-73.443515,40.778317],[-73.443264,40.776498],[-73.44315,40.775904],[-73.442549,40.772842],[-73.441967,40.769899],[-73.440967,40.764399],[-73.440609,40.762139],[-73.44055,40.761807],[-73.44052,40.761639],[-73.440222,40.760415],[-73.440146,40.759975],[-73.439669,40.757409],[-73.439529,40.756382],[-73.439393,40.755704],[-73.439434,40.75569],[-73.438617,40.751287],[-73.438239,40.74904],[-73.43818,40.748716],[-73.438025,40.747814],[-73.437852,40.746908],[-73.437645,40.745806],[-73.43699,40.742334],[-73.436966,40.7422],[-73.436945,40.742085],[-73.436817,40.741421],[-73.436683,40.740627],[-73.436498,40.739612],[-73.436287,40.738497],[-73.436192,40.737979],[-73.43601,40.737028],[-73.435878,40.736323],[-73.435712,40.735455],[-73.435647,40.735084],[-73.435582,40.734635],[-73.435581,40.734602],[-73.435535,40.73456],[-73.435493,40.734334],[-73.43528,40.733201],[-73.435208,40.732826],[-73.434976,40.731588],[-73.43477,40.730533],[-73.434631,40.72979],[-73.434521,40.729191],[-73.434383,40.728461],[-73.434167,40.727323],[-73.433923,40.726045],[-73.433877,40.725757],[-73.433748,40.725074],[-73.433724,40.724939],[-73.433624,40.724415],[-73.433471,40.723613],[-73.433438,40.723437],[-73.433112,40.72171],[-73.433018,40.721209],[-73.433003,40.721129],[-73.432804,40.720071],[-73.432588,40.7189],[-73.432524,40.718585],[-73.432405,40.717941],[-73.432228,40.717086],[-73.43202,40.715885],[-73.431982,40.71569],[-73.431823,40.714829],[-73.431635,40.713878],[-73.431548,40.713359],[-73.431441,40.712826],[-73.431326,40.712157],[-73.431187,40.711479],[-73.431081,40.710874],[-73.43098,40.710315],[-73.430825,40.709509],[-73.43057,40.708278],[-73.430296,40.706752],[-73.43029,40.706731],[-73.430287,40.706615],[-73.430244,40.706394],[-73.430238,40.706352],[-73.430236,40.70634],[-73.430072,40.705453],[-73.430014,40.705177],[-73.429836,40.704245],[-73.429701,40.703541],[-73.429587,40.702946],[-73.429389,40.701857],[-73.429201,40.700823],[-73.429102,40.700349],[-73.42877,40.698583],[-73.428648,40.697893],[-73.428561,40.69745],[-73.42832,40.696216],[-73.42801,40.694627],[-73.428007,40.694611],[-73.427727,40.69319],[-73.427324,40.691109],[-73.427087,40.689808],[-73.426843,40.6886],[-73.426723,40.687997],[-73.426617,40.687484],[-73.426525,40.687032],[-73.426494,40.686851],[-73.426393,40.686323],[-73.426353,40.686113],[-73.426191,40.685245],[-73.426031,40.684443],[-73.425799,40.683206],[-73.425597,40.68213],[-73.425595,40.682117],[-73.425381,40.681027],[-73.425164,40.679894],[-73.425128,40.679697],[-73.42496,40.678885],[-73.424804,40.677976],[-73.424518,40.676508],[-73.424301,40.675418],[-73.424247,40.675149],[-73.424201,40.674914],[-73.423955,40.673676],[-73.423887,40.673329],[-73.42375,40.672641],[-73.423674,40.672276],[-73.423509,40.671413],[-73.423354,40.670742],[-73.42337,40.670725],[-73.42341,40.670609],[-73.423385,40.6706],[-73.423316,40.670607],[-73.423275,40.670483],[-73.423298,40.669132],[-73.423315,40.669023],[-73.423358,40.668743],[-73.423786,40.667904],[-73.423986,40.66751],[-73.424293,40.66691],[-73.424332,40.666833],[-73.424429,40.666643],[-73.424599,40.666309],[-73.424618,40.666272],[-73.42474,40.666199],[-73.424796,40.665351],[-73.424796,40.665074],[-73.424702,40.664521],[-73.424608,40.66378],[-73.424477,40.662468],[-73.424458,40.661877],[-73.424458,40.661662],[-73.424496,40.661587],[-73.424543,40.661437],[-73.424533,40.661343],[-73.424468,40.661127],[-73.424306,40.660815],[-73.42428,40.660677],[-73.424227,40.660531],[-73.42429,40.660002],[-73.424233,40.659646],[-73.424168,40.659477],[-73.424083,40.658952],[-73.424153,40.658443],[-73.424121,40.657808],[-73.423832,40.656475],[-73.42388,40.655973],[-73.425291,40.656109],[-73.425586,40.656291],[-73.425577,40.655902],[-73.425549,40.654611],[-73.425346,40.651818],[-73.424985,40.639758],[-73.424876,40.638115],[-73.424874,40.638071],[-73.424867,40.637902],[-73.424572,40.631073],[-73.424478,40.629953],[-73.424384,40.628833],[-73.424381,40.628794],[-73.424353,40.628455],[-73.424321,40.628105],[-73.42429,40.627755],[-73.42427,40.627487],[-73.424268,40.626506],[-73.424268,40.625956],[-73.424268,40.625406],[-73.424268,40.624573],[-73.424268,40.62374],[-73.424268,40.623701],[-73.424373,40.623207],[-73.424368,40.6231],[-73.424267,40.6211],[-73.424253,40.620829],[-73.424158,40.619907],[-73.424143,40.619823],[-73.424141,40.619711],[-73.424099,40.617947],[-73.424099,40.617847],[-73.424111,40.617703],[-73.424151,40.617208],[-73.424165,40.61704],[-73.424202,40.616602],[-73.424117,40.616015],[-73.4241,40.615783],[-73.424093,40.615715],[-73.424068,40.615401],[-73.424142,40.615253],[-73.424124,40.615206],[-73.424167,40.615196],[-73.424152,40.615175],[-73.42415,40.615112],[-73.424131,40.61435],[-73.424142,40.613893],[-73.424077,40.612246],[-73.424069,40.611998],[-73.424077,40.61186],[-73.424071,40.61172],[-73.424062,40.611015],[-73.424054,40.610731],[-73.42402,40.609578],[-73.423929,40.609471],[-73.423788,40.609202],[-73.423872,40.600725],[-73.424911,40.56536],[-73.425312,40.551718],[-73.42531,40.534265],[-73.441215,40.531709],[-73.465597,40.526107],[-73.47098,40.524664],[-73.484946,40.520921],[-73.486496,40.520505],[-73.500947,40.521796],[-73.501043,40.521805],[-73.512378,40.522818],[-73.517844,40.523306],[-73.52933,40.525153],[-73.55008,40.528492],[-73.552674,40.528909],[-73.574877,40.530639],[-73.624574,40.534511],[-73.628311,40.534512],[-73.702054,40.53454],[-73.706094,40.534542],[-73.749167,40.533996],[-73.768781,40.533747],[-73.768739,40.533873],[-73.76763,40.537152],[-73.767272,40.538111],[-73.764932,40.544402],[-73.762234,40.550203],[-73.758256,40.555364],[-73.758047,40.557268],[-73.756909,40.567652],[-73.755701,40.578688],[-73.75557,40.583094],[-73.755567,40.583186],[-73.755502,40.585387],[-73.755183,40.585649],[-73.752371,40.587965],[-73.752121,40.588182],[-73.750978,40.589049],[-73.747749,40.591503],[-73.744469,40.592904],[-73.743829,40.592871],[-73.743604,40.592859],[-73.74338,40.592847],[-73.743237,40.592839],[-73.741628,40.592872],[-73.740019,40.592906],[-73.738468,40.592937],[-73.73839,40.592939],[-73.737232,40.592964],[-73.737185,40.592965],[-73.737226,40.593048],[-73.737414,40.593425],[-73.737421,40.593458],[-73.737451,40.593604],[-73.737521,40.59392],[-73.737604,40.594209],[-73.737637,40.594415],[-73.737656,40.594418],[-73.737704,40.594438],[-73.737819,40.594483],[-73.737925,40.594525],[-73.737977,40.594543],[-73.738078,40.594586],[-73.738092,40.594633],[-73.738463,40.595866],[-73.738464,40.595924],[-73.738465,40.59605],[-73.738466,40.596454],[-73.738449,40.596982],[-73.738447,40.597139],[-73.738447,40.597481],[-73.738438,40.597815],[-73.738422,40.598017],[-73.738405,40.598187],[-73.738401,40.598334],[-73.738397,40.598473],[-73.738396,40.598533],[-73.738371,40.59949],[-73.738289,40.601622],[-73.738269,40.602307],[-73.738265,40.602557],[-73.738358,40.60266],[-73.738422,40.602767],[-73.738463,40.602836],[-73.738492,40.602984],[-73.738499,40.603063],[-73.738519,40.603128],[-73.738585,40.60321],[-73.738733,40.603397],[-73.738785,40.603462],[-73.738901,40.603608],[-73.739029,40.603769],[-73.739235,40.604028],[-73.739402,40.604179],[-73.739463,40.604235],[-73.740291,40.604598],[-73.740571,40.60488],[-73.741148,40.60546],[-73.741772,40.606021],[-73.742074,40.606266],[-73.742464,40.606594],[-73.742873,40.606933],[-73.743168,40.607177],[-73.743213,40.607205],[-73.743292,40.607251],[-73.743551,40.607452],[-73.743393,40.607569],[-73.743204,40.607705],[-73.74307,40.607886],[-73.743146,40.607957],[-73.743059,40.607998],[-73.743215,40.608234],[-73.743311,40.608384],[-73.743451,40.6086],[-73.743623,40.608869],[-73.743676,40.608956],[-73.744451,40.610169],[-73.745169,40.6113],[-73.745492,40.611805],[-73.74553,40.611871],[-73.745793,40.611769],[-73.746075,40.611661],[-73.746387,40.61154],[-73.746747,40.611403],[-73.746855,40.611574],[-73.746942,40.611775],[-73.747119,40.612036],[-73.747194,40.611998],[-73.747495,40.611888],[-73.747614,40.611998],[-73.747993,40.61231],[-73.748216,40.612011],[-73.74912,40.611794],[-73.750088,40.611641],[-73.750652,40.611453],[-73.753458,40.61052],[-73.754732,40.610405],[-73.754947,40.610497],[-73.755197,40.610594],[-73.757235,40.610993],[-73.757546,40.611037],[-73.75891,40.611206],[-73.759334,40.611258],[-73.759631,40.611297],[-73.760021,40.611349],[-73.762084,40.612732],[-73.763454,40.61369],[-73.763476,40.613706],[-73.764349,40.614316],[-73.765244,40.614942],[-73.766719,40.615004],[-73.766757,40.615284],[-73.767459,40.620511],[-73.767571,40.621477],[-73.768553,40.623155],[-73.768584,40.623313],[-73.76861,40.623373],[-73.768643,40.623431],[-73.768643,40.623492],[-73.768668,40.623589],[-73.768762,40.623761],[-73.768757,40.62382],[-73.768838,40.623952],[-73.768805,40.624027],[-73.76883,40.6241],[-73.768777,40.624195],[-73.768784,40.624289],[-73.768761,40.624352],[-73.768709,40.624386],[-73.768649,40.624466],[-73.768624,40.624585],[-73.768604,40.624733],[-73.768563,40.624801],[-73.7685,40.624897],[-73.768418,40.624989],[-73.768326,40.625097],[-73.768293,40.625236],[-73.768269,40.625295],[-73.76825,40.625398],[-73.768154,40.625449],[-73.768142,40.625463],[-73.767933,40.625755],[-73.767782,40.625912],[-73.767772,40.625996],[-73.767758,40.626113],[-73.767708,40.626208],[-73.767507,40.626469],[-73.767425,40.626606],[-73.748001,40.634631],[-73.746022,40.635212],[-73.744177,40.637356],[-73.743941,40.637541],[-73.743651,40.637769],[-73.743295,40.638048],[-73.742361,40.638093],[-73.741501,40.63785],[-73.741201,40.63759],[-73.741187,40.637412],[-73.74127,40.637257],[-73.742081,40.636381],[-73.742531,40.635715],[-73.74258,40.635648],[-73.742629,40.635537],[-73.742673,40.635408],[-73.74265,40.635045],[-73.742237,40.634851],[-73.741678,40.634838],[-73.741095,40.634931],[-73.740802,40.634986],[-73.740141,40.63511],[-73.73996,40.635144],[-73.739471,40.635706],[-73.739558,40.635863],[-73.740284,40.637175],[-73.740662,40.637833],[-73.741032,40.638476],[-73.741126,40.638656],[-73.741224,40.638828],[-73.741263,40.638905],[-73.741534,40.63923],[-73.742283,40.640121],[-73.741428,40.640502],[-73.742051,40.641474],[-73.741873,40.641804],[-73.741759,40.642016],[-73.741661,40.642198],[-73.741643,40.64244],[-73.741632,40.642586],[-73.741623,40.642716],[-73.741485,40.645248],[-73.741468,40.645564],[-73.741448,40.645942],[-73.74144,40.646086],[-73.741439,40.646345],[-73.741437,40.646889],[-73.73919,40.648122],[-73.739045,40.648201],[-73.738799,40.648297],[-73.737626,40.648753],[-73.73746,40.648818],[-73.736979,40.649005],[-73.736735,40.6491],[-73.735135,40.649732],[-73.734388,40.649821],[-73.732208,40.650091],[-73.731427,40.650171],[-73.731055,40.650231],[-73.730004,40.65048],[-73.729739,40.650558],[-73.729497,40.650636],[-73.728991,40.650839],[-73.728703,40.650916],[-73.72853,40.650973],[-73.727024,40.651498],[-73.726873,40.651541],[-73.726818,40.651577],[-73.726671,40.651685],[-73.726515,40.651753],[-73.72643,40.651791],[-73.726189,40.651861],[-73.725946,40.651961],[-73.725682,40.652058],[-73.725496,40.652115],[-73.725248,40.652193],[-73.725052,40.652341],[-73.724984,40.652678],[-73.724821,40.65302],[-73.724874,40.653447],[-73.724787,40.654001],[-73.725335,40.655324],[-73.725759,40.656998],[-73.725882,40.657537],[-73.725927,40.657731],[-73.726027,40.657996],[-73.726211,40.658479],[-73.726444,40.659162],[-73.72681,40.659795],[-73.727208,40.660422],[-73.727592,40.661094],[-73.727931,40.661749],[-73.728153,40.662454],[-73.728331,40.663044],[-73.728085,40.663071],[-73.727814,40.663224],[-73.727763,40.663985],[-73.727815,40.66469],[-73.727823,40.664806],[-73.72784,40.665053],[-73.727954,40.665344],[-73.728031,40.665519],[-73.728224,40.665965],[-73.728272,40.66644],[-73.728264,40.666606],[-73.728222,40.667314],[-73.728264,40.668073],[-73.728178,40.668719],[-73.728095,40.669442],[-73.728,40.670112],[-73.727937,40.670546],[-73.727941,40.670809],[-73.727905,40.67084],[-73.727887,40.67105],[-73.727855,40.671261],[-73.72784,40.671389],[-73.727833,40.671445],[-73.727829,40.671474],[-73.727813,40.671612],[-73.727789,40.671788],[-73.727726,40.67228],[-73.727681,40.672646],[-73.727632,40.673032],[-73.727577,40.673476],[-73.727528,40.673871],[-73.727547,40.674084],[-73.727557,40.674101],[-73.727542,40.67416],[-73.727441,40.674429],[-73.727301,40.674739],[-73.727141,40.675096],[-73.726945,40.675552],[-73.726851,40.675769],[-73.726713,40.67609],[-73.726543,40.676487],[-73.726456,40.676748],[-73.726355,40.676973],[-73.726198,40.677381],[-73.726011,40.678078],[-73.725903,40.678507],[-73.725841,40.678753],[-73.725788,40.678962],[-73.72563,40.679588],[-73.725687,40.68025],[-73.725714,40.680529],[-73.725754,40.680946],[-73.725796,40.68136],[-73.725824,40.681636],[-73.725907,40.682657],[-73.725861,40.683223],[-73.725843,40.683575],[-73.725821,40.68395],[-73.725798,40.684354],[-73.725878,40.685514],[-73.725911,40.686085],[-73.725918,40.686099],[-73.725926,40.686225],[-73.725941,40.686399],[-73.725996,40.686932],[-73.726089,40.687774],[-73.726158,40.68847],[-73.726175,40.68865],[-73.7262,40.688984],[-73.726217,40.689306],[-73.726231,40.68966],[-73.726239,40.689815],[-73.726259,40.690269],[-73.726258,40.690611],[-73.726263,40.690773],[-73.726503,40.696886],[-73.726509,40.697522],[-73.726511,40.697781],[-73.726525,40.698258],[-73.726544,40.698983],[-73.726654,40.701112],[-73.726713,40.701448],[-73.726738,40.701588],[-73.726783,40.701987],[-73.726751,40.70208],[-73.726728,40.702146],[-73.726746,40.702473],[-73.726762,40.702768],[-73.726767,40.702872],[-73.726772,40.702954],[-73.726779,40.703082],[-73.726781,40.703145],[-73.726835,40.704406],[-73.726871,40.705237],[-73.726895,40.7058],[-73.727047,40.709497],[-73.726896,40.709976],[-73.7269,40.709997],[-73.726971,40.710715],[-73.727086,40.711259],[-73.727094,40.711293],[-73.727165,40.711588],[-73.727317,40.712216],[-73.727332,40.712272],[-73.727364,40.712392],[-73.727511,40.712951],[-73.727698,40.713662],[-73.728064,40.715051],[-73.728188,40.715524],[-73.728313,40.715998],[-73.728418,40.716391],[-73.728501,40.716706],[-73.728554,40.716898],[-73.728576,40.71698],[-73.72894,40.718306],[-73.729176,40.719167],[-73.729255,40.719381],[-73.729433,40.719865],[-73.729661,40.720483],[-73.729695,40.720571],[-73.730326,40.722157],[-73.729885,40.722393],[-73.729648,40.722518],[-73.729503,40.722595],[-73.729234,40.722705],[-73.728783,40.722876],[-73.728261,40.723063],[-73.728175,40.723092],[-73.728066,40.723129],[-73.727985,40.723159],[-73.727497,40.723343],[-73.727331,40.723407],[-73.727213,40.723453],[-73.726932,40.723569],[-73.726465,40.723751],[-73.726453,40.723756],[-73.726032,40.723912],[-73.725683,40.724025],[-73.725526,40.724076],[-73.72508,40.724196],[-73.724848,40.724259],[-73.72472,40.724298],[-73.724551,40.72435],[-73.724404,40.724395],[-73.724141,40.724469],[-73.724026,40.724501],[-73.723745,40.724575],[-73.723431,40.724649],[-73.722929,40.724784],[-73.722909,40.72479],[-73.722576,40.724879],[-73.7225,40.7249],[-73.722051,40.725026],[-73.721341,40.725225],[-73.721196,40.725265],[-73.720919,40.725341],[-73.720387,40.725487],[-73.719988,40.725597],[-73.718288,40.726043],[-73.717854,40.726157],[-73.717527,40.726242],[-73.717267,40.726301],[-73.716899,40.726387],[-73.716494,40.726454],[-73.715947,40.72653],[-73.715865,40.726541],[-73.714972,40.726647],[-73.714879,40.726658],[-73.714141,40.726751],[-73.714075,40.72676],[-73.713446,40.726842],[-73.712764,40.726931],[-73.712403,40.726978],[-73.71178,40.727059],[-73.710913,40.727173],[-73.710499,40.727227],[-73.710485,40.72723],[-73.710311,40.727266],[-73.709941,40.727345],[-73.70976,40.727382],[-73.709679,40.7274],[-73.70912,40.727519],[-73.708575,40.727635],[-73.707939,40.727771],[-73.707902,40.727837],[-73.707747,40.72805],[-73.707165,40.728933],[-73.706691,40.729666],[-73.706543,40.729883],[-73.70586,40.730917],[-73.705304,40.731756],[-73.705179,40.73193],[-73.704674,40.732714],[-73.704565,40.732897],[-73.704021,40.733732],[-73.703725,40.734165],[-73.703512,40.734489],[-73.703461,40.734566],[-73.70337,40.734711],[-73.703116,40.735087],[-73.703028,40.735226],[-73.702738,40.735665],[-73.702699,40.735723],[-73.702334,40.736266],[-73.702235,40.736415],[-73.702202,40.736464],[-73.702102,40.736619],[-73.702069,40.73667],[-73.701829,40.737022],[-73.701586,40.737403],[-73.701487,40.737555],[-73.701267,40.737905],[-73.701032,40.738264],[-73.70095,40.738391],[-73.700848,40.738534],[-73.700715,40.738711],[-73.700639,40.738828],[-73.700531,40.738992],[-73.700506,40.739061],[-73.700384,40.73919],[-73.700169,40.73954],[-73.70036,40.741031],[-73.700582,40.743184],[-73.700768,40.745014],[-73.700791,40.745082],[-73.700988,40.746878],[-73.701001,40.747086],[-73.701205,40.748861],[-73.701238,40.749011],[-73.701425,40.75066],[-73.701422,40.750752],[-73.701421,40.750804],[-73.701473,40.751329],[-73.70154,40.751925],[-73.701633,40.752493],[-73.702178,40.752886],[-73.702735,40.753251],[-73.702968,40.753383],[-73.703203,40.753515],[-73.703336,40.753599],[-73.703468,40.753683],[-73.705271,40.75477],[-73.70619,40.755301],[-73.707008,40.755758],[-73.707825,40.756216],[-73.708129,40.756414],[-73.709374,40.757227],[-73.709501,40.75731],[-73.710112,40.757708],[-73.710606,40.75803],[-73.710858,40.758195],[-73.711341,40.758513],[-73.711548,40.758649],[-73.712034,40.758968],[-73.712108,40.759017],[-73.712449,40.759242],[-73.712605,40.759328],[-73.712761,40.759415],[-73.712898,40.75949],[-73.713325,40.75973],[-73.713498,40.759832],[-73.713632,40.75992],[-73.713656,40.759936],[-73.714126,40.760245],[-73.716068,40.761462],[-73.716082,40.761451],[-73.716599,40.761768],[-73.719166,40.763334],[-73.719528,40.763556],[-73.720138,40.763928],[-73.720507,40.764151],[-73.72058,40.764195],[-73.720999,40.764454],[-73.721059,40.764499],[-73.721231,40.764607],[-73.721514,40.764775],[-73.721616,40.764841],[-73.722154,40.765176],[-73.722934,40.765659],[-73.723511,40.766017],[-73.72382,40.766211],[-73.723831,40.766218],[-73.725097,40.766989],[-73.725771,40.767393],[-73.725901,40.767456],[-73.726047,40.767527],[-73.726329,40.767705],[-73.726759,40.767977],[-73.726906,40.768083],[-73.727049,40.76817],[-73.727449,40.768427],[-73.727762,40.768631],[-73.727993,40.76878],[-73.728816,40.769279],[-73.728965,40.769373],[-73.729121,40.769471],[-73.729217,40.76953],[-73.729524,40.769734],[-73.729737,40.769866],[-73.730294,40.770204],[-73.730471,40.770314],[-73.73051,40.770338],[-73.730826,40.770536],[-73.731167,40.770747],[-73.731275,40.77082],[-73.731736,40.771098],[-73.731927,40.771216],[-73.732072,40.771296],[-73.732118,40.77132],[-73.733036,40.771883],[-73.73309,40.771918],[-73.733962,40.772449],[-73.734181,40.772582],[-73.734674,40.772885],[-73.735221,40.773218],[-73.735525,40.773403],[-73.73577,40.773553],[-73.736294,40.773873],[-73.736349,40.773906],[-73.736806,40.774198],[-73.736925,40.774267],[-73.737023,40.774347],[-73.73762,40.774738],[-73.737681,40.774764],[-73.737732,40.774786],[-73.737809,40.774815],[-73.73809,40.774989],[-73.738458,40.775217],[-73.738759,40.775403],[-73.739036,40.775574],[-73.739185,40.775666],[-73.739311,40.775744],[-73.739428,40.775817],[-73.739538,40.775814],[-73.739488,40.77585],[-73.739423,40.775902],[-73.739332,40.77596],[-73.739376,40.776014],[-73.739598,40.776075],[-73.74008,40.776209],[-73.740366,40.77639],[-73.74076,40.776695],[-73.741535,40.777111],[-73.743421,40.778224],[-73.744107,40.778642],[-73.74421,40.778705],[-73.745436,40.779497],[-73.746368,40.78012],[-73.7468,40.780378],[-73.747068,40.780546],[-73.749334,40.781908],[-73.749664,40.782106],[-73.750295,40.782478],[-73.750337,40.782512],[-73.750458,40.78261],[-73.750817,40.782887],[-73.756187,40.788703],[-73.757103,40.789692],[-73.763712,40.793803],[-73.766229,40.79676],[-73.770899,40.802246],[-73.774869,40.80691],[-73.778958,40.811713],[-73.780193,40.8264]]]}},{"type":"Feature","id":"36103","properties":{"STATEFP":"36","COUNTYFP":"103","COUNTYNS":"00974149","GEOID":"36103","GEOIDFQ":"0500000US36103","NAME":"Suffolk","NAMELSAD":"Suffolk County","LSAD":"06","CLASSFP":"H1","MTFCC":"G4020","CSAFP":"408","CBSAFP":"35620","METDIVFP":"35004","FUNCSTAT":"A","ALAND":2359323057,"AWATER":3787372220,"INTPTLAT":"+40.9435540","INTPTLON":"-072.6922183"},"geometry":{"type":"Polygon","coordinates":[[[-71.809384,41.203235],[-71.791151,41.184281],[-71.790972,41.184101],[-71.790636,41.125101],[-71.790635,41.101837],[-71.781872,41.096197],[-71.780704,41.09275],[-71.779244,41.088442],[-71.778137,41.081319],[-71.777491,41.077162],[-71.777491,41.067292],[-71.782748,41.055307],[-71.794139,41.036977],[-71.808163,41.027812],[-71.837088,41.010892],[-71.864619,41.000102],[-71.86528,40.999582],[-71.866084,40.999173],[-71.868009,40.998247],[-71.870139,40.996971],[-71.872591,40.996067],[-71.874239,40.995599],[-71.87451,40.995456],[-71.876434,40.994719],[-71.880975,40.993452],[-71.884775,40.992269],[-71.890841,40.99142],[-71.896835,40.990625],[-71.899907,40.990496],[-71.902545,40.989671],[-71.910047,40.987897],[-71.919623,40.985516],[-71.92747,40.983308],[-71.931698,40.982497],[-71.932751,40.981952],[-71.970135,40.967746],[-71.979667,40.963941],[-71.999516,40.956019],[-72.050883,40.937589],[-72.11411,40.915069],[-72.124533,40.911357],[-72.194875,40.886212],[-72.208588,40.88131],[-72.225963,40.8751],[-72.249525,40.866765],[-72.264542,40.860979],[-72.321626,40.838982],[-72.374529,40.818595],[-72.396531,40.812603],[-72.456507,40.794995],[-72.499492,40.782376],[-72.541705,40.76991],[-72.588198,40.756182],[-72.608854,40.750099],[-72.624539,40.745567],[-72.692655,40.728042],[-72.728422,40.718839],[-72.749544,40.713405],[-72.782441,40.702377],[-72.807644,40.693928],[-72.828607,40.686901],[-72.849117,40.681596],[-72.874542,40.675019],[-73.014004,40.625099],[-73.014044,40.625087],[-73.025706,40.621636],[-73.032084,40.619528],[-73.038987,40.617889],[-73.045452,40.616284],[-73.051124,40.61488],[-73.054157,40.614177],[-73.059345,40.612872],[-73.064093,40.611667],[-73.072007,40.609758],[-73.079128,40.608353],[-73.085149,40.607013],[-73.095301,40.605273],[-73.103345,40.603396],[-73.112091,40.601351],[-73.120208,40.599407],[-73.124558,40.598366],[-73.249562,40.562565],[-73.249642,40.562565],[-73.264524,40.555697],[-73.274025,40.551314],[-73.291441,40.551314],[-73.31234,40.554115],[-73.326272,40.556916],[-73.343688,40.554116],[-73.378519,40.545713],[-73.406384,40.53731],[-73.42531,40.534265],[-73.425312,40.551718],[-73.424911,40.56536],[-73.423872,40.600725],[-73.423788,40.609202],[-73.423929,40.609471],[-73.42402,40.609578],[-73.424054,40.610731],[-73.424062,40.611015],[-73.424071,40.61172],[-73.424077,40.61186],[-73.424069,40.611998],[-73.424077,40.612246],[-73.424142,40.613893],[-73.424131,40.61435],[-73.42415,40.615112],[-73.424152,40.615175],[-73.424167,40.615196],[-73.424124,40.615206],[-73.424142,40.615253],[-73.424068,40.615401],[-73.424093,40.615715],[-73.4241,40.615783],[-73.424117,40.616015],[-73.424202,40.616602],[-73.424165,40.61704],[-73.424151,40.617208],[-73.424111,40.617703],[-73.424099,40.617847],[-73.424099,40.617947],[-73.424141,40.619711],[-73.424143,40.619823],[-73.424158,40.619907],[-73.424253,40.620829],[-73.424267,40.6211],[-73.424368,40.6231],[-73.424373,40.623207],[-73.424268,40.623701],[-73.424268,40.62374],[-73.424268,40.624573],[-73.424268,40.625406],[-73.424268,40.625956],[-73.424268,40.626506],[-73.42427,40.627487],[-73.42429,40.627755],[-73.424321,40.628105],[-73.424353,40.628455],[-73.424381,40.628794],[-73.424384,40.628833],[-73.424478,40.629953],[-73.424572,40.631073],[-73.424867,40.637902],[-73.424874,40.638071],[-73.424876,40.638115],[-73.424985,40.639758],[-73.425346,40.651818],[-73.425549,40.654611],[-73.425577,40.655902],[-73.425586,40.656291],[-73.425291,40.656109],[-73.42388,40.655973],[-73.423832,40.656475],[-73.424121,40.657808],[-73.424153,40.658443],[-73.424083,40.658952],[-73.424168,40.659477],[-73.424233,40.659646],[-73.42429,40.660002],[-73.424227,40.660531],[-73.42428,40.660677],[-73.424306,40.660815],[-73.424468,40.661127],[-73.424533,40.661343],[-73.424543,40.661437],[-73.424496,40.661587],[-73.424458,40.661662],[-73.424458,40.661877],[-73.424477,40.662468],[-73.424608,40.66378],[-73.424702,40.664521],[-73.424796,40.665074],[-73.424796,40.665351],[-73.42474,40.666199],[-73.424618,40.666272],[-73.424599,40.666309],[-73.424429,40.666643],[-73.424332,40.666833],[-73.424293,40.66691],[-73.423986,40.66751],[-73.423786,40.667904],[-73.423358,40.668743],[-73.423315,40.669023],[-73.423298,40.669132],[-73.423275,40.670483],[-73.423316,40.670607],[-73.423385,40.6706],[-73.42341,40.670609],[-73.42337,40.670725],[-73.423354,40.670742],[-73.423509,40.671413],[-73.423674,40.672276],[-73.42375,40.672641],[-73.423887,40.673329],[-73.423955,40.673676],[-73.424201,40.674914],[-73.424247,40.675149],[-73.424301,40.675418],[-73.424518,40.676508],[-73.424804,40.677976],[-73.42496,40.678885],[-73.425128,40.679697],[-73.425164,40.679894],[-73.425381,40.681027],[-73.425595,40.682117],[-73.425597,40.68213],[-73.425799,40.683206],[-73.426031,40.684443],[-73.426191,40.685245],[-73.426353,40.686113],[-73.426393,40.686323],[-73.426494,40.686851],[-73.426525,40.687032],[-73.426617,40.687484],[-73.426723,40.687997],[-73.426843,40.6886],[-73.427087,40.689808],[-73.427324,40.691109],[-73.427727,40.69319],[-73.428007,40.694611],[-73.42801,40.694627],[-73.42832,40.696216],[-73.428561,40.69745],[-73.428648,40.697893],[-73.42877,40.698583],[-73.429102,40.700349],[-73.429201,40.700823],[-73.429389,40.701857],[-73.429587,40.702946],[-73.429701,40.703541],[-73.429836,40.704245],[-73.430014,40.705177],[-73.430072,40.705453],[-73.430236,40.70634],[-73.430238,40.706352],[-73.430244,40.706394],[-73.430287,40.706615],[-73.43029,40.706731],[-73.430296,40.706752],[-73.43057,40.708278],[-73.430825,40.709509],[-73.43098,40.710315],[-73.431081,40.710874],[-73.431187,40.711479],[-73.431326,40.712157],[-73.431441,40.712826],[-73.431548,40.713359],[-73.431635,40.713878],[-73.431823,40.714829],[-73.431982,40.71569],[-73.43202,40.715885],[-73.432228,40.717086],[-73.432405,40.717941],[-73.432524,40.718585],[-73.432588,40.7189],[-73.432804,40.720071],[-73.433003,40.721129],[-73.433018,40.721209],[-73.433112,40.72171],[-73.433438,40.723437],[-73.433471,40.723613],[-73.433624,40.724415],[-73.433724,40.724939],[-73.433748,40.725074],[-73.433877,40.725757],[-73.433923,40.726045],[-73.434167,40.727323],[-73.434383,40.728461],[-73.434521,40.729191],[-73.434631,40.72979],[-73.43477,40.730533],[-73.434976,40.731588],[-73.435208,40.732826],[-73.43528,40.733201],[-73.435493,40.734334],[-73.435535,40.73456],[-73.435581,40.734602],[-73.435582,40.734635],[-73.435647,40.735084],[-73.435712,40.735455],[-73.435878,40.736323],[-73.43601,40.737028],[-73.436192,40.737979],[-73.436287,40.738497],[-73.436498,40.739612],[-73.436683,40.740627],[-73.436817,40.741421],[-73.436945,40.742085],[-73.436966,40.7422],[-73.43699,40.742334],[-73.437645,40.745806],[-73.437852,40.746908],[-73.438025,40.747814],[-73.43818,40.748716],[-73.438239,40.74904],[-73.438617,40.751287],[-73.439434,40.75569],[-73.439393,40.755704],[-73.439529,40.756382],[-73.439669,40.757409],[-73.440146,40.759975],[-73.440222,40.760415],[-73.44052,40.761639],[-73.44055,40.761807],[-73.440609,40.762139],[-73.440967,40.764399],[-73.441967,40.769899],[-73.442549,40.772842],[-73.44315,40.775904],[-73.443264,40.776498],[-73.443515,40.778317],[-73.444096,40.781606],[-73.444166,40.782001],[-73.444372,40.78262],[-73.444684,40.783532],[-73.44481,40.783902],[-73.44482,40.783993],[-73.444867,40.784398],[-73.44488,40.78451],[-73.444888,40.784563],[-73.444942,40.784898],[-73.445003,40.785239],[-73.445019,40.785325],[-73.445022,40.785373],[-73.445022,40.785409],[-73.445025,40.785457],[-73.445113,40.785557],[-73.445306,40.78593],[-73.445411,40.786526],[-73.446057,40.790154],[-73.446102,40.79107],[-73.446455,40.792972],[-73.4467,40.794452],[-73.446931,40.795881],[-73.448666,40.804419],[-73.448706,40.80466],[-73.448747,40.804901],[-73.448763,40.804999],[-73.448768,40.805318],[-73.449635,40.809729],[-73.449766,40.810398],[-73.450005,40.8116],[-73.450252,40.812655],[-73.450384,40.813509],[-73.450633,40.814891],[-73.451454,40.818855],[-73.451623,40.81973],[-73.451679,40.820012],[-73.45177,40.820476],[-73.452127,40.822321],[-73.452166,40.822398],[-73.452543,40.824634],[-73.453242,40.828333],[-73.453529,40.829844],[-73.453795,40.831243],[-73.453921,40.831969],[-73.453996,40.832301],[-73.454358,40.83419],[-73.454439,40.83463],[-73.454625,40.835001],[-73.454578,40.835128],[-73.454681,40.835908],[-73.454903,40.837054],[-73.455489,40.840165],[-73.455261,40.840872],[-73.455363,40.842593],[-73.45586,40.843467],[-73.456605,40.845112],[-73.456899,40.846433],[-73.457008,40.846701],[-73.457099,40.847011],[-73.457123,40.84717],[-73.457141,40.847289],[-73.457158,40.847396],[-73.457172,40.847541],[-73.457325,40.848098],[-73.457494,40.848712],[-73.457688,40.849081],[-73.457709,40.849113],[-73.459505,40.851775],[-73.459542,40.85183],[-73.459578,40.851884],[-73.459635,40.851992],[-73.460598,40.853813],[-73.460706,40.853969],[-73.461439,40.855023],[-73.462617,40.85672],[-73.462797,40.856978],[-73.462956,40.857206],[-73.463281,40.857928],[-73.463319,40.858011],[-73.46404,40.859499],[-73.464067,40.859554],[-73.463755,40.860761],[-73.462976,40.863857],[-73.462259,40.86671],[-73.46253,40.867295],[-73.462557,40.867295],[-73.463155,40.86731],[-73.463855,40.867312],[-73.463855,40.867678],[-73.464036,40.867907],[-73.464368,40.867975],[-73.467366,40.868098],[-73.473466,40.874498],[-73.474066,40.875098],[-73.476079,40.877111],[-73.477307,40.89925],[-73.478468,40.899793],[-73.478559,40.89987],[-73.479668,40.900801],[-73.479876,40.901119],[-73.480028,40.900974],[-73.480179,40.901088],[-73.480239,40.901294],[-73.481871,40.903511],[-73.482686,40.904403],[-73.483563,40.905569],[-73.483714,40.905912],[-73.48447,40.907124],[-73.48571,40.909776],[-73.485865,40.910215],[-73.486419,40.911785],[-73.486952,40.913298],[-73.487043,40.913344],[-73.487437,40.914991],[-73.487718,40.915506],[-73.487861,40.915768],[-73.488132,40.915768],[-73.48798,40.91515],[-73.488101,40.915081],[-73.488463,40.915173],[-73.489007,40.91579],[-73.489702,40.91691],[-73.490308,40.918214],[-73.49061,40.918762],[-73.49061,40.919014],[-73.49075,40.919191],[-73.490973,40.919471],[-73.491787,40.919829],[-73.491868,40.919864],[-73.492844,40.920293],[-73.493313,40.920539],[-73.495501,40.921686],[-73.496052,40.92208],[-73.497035,40.922782],[-73.497132,40.922851],[-73.497374,40.923217],[-73.497386,40.923434],[-73.497399,40.923663],[-73.497405,40.923766],[-73.497333,40.92396],[-73.497134,40.924498],[-73.497017,40.926191],[-73.496777,40.927175],[-73.496599,40.927802],[-73.496387,40.928548],[-73.496027,40.929555],[-73.495786,40.929875],[-73.495036,40.931935],[-73.494406,40.934246],[-73.493356,40.937381],[-73.493445,40.937694],[-73.493963,40.939508],[-73.494024,40.93976],[-73.493932,40.940048],[-73.493783,40.940515],[-73.493693,40.940561],[-73.493693,40.940698],[-73.493182,40.941522],[-73.49282,40.941774],[-73.491831,40.94217],[-73.491674,40.942233],[-73.491042,40.942645],[-73.490017,40.943561],[-73.488602,40.945324],[-73.488482,40.945347],[-73.48818,40.945645],[-73.486733,40.946264],[-73.486214,40.946445],[-73.484954,40.946883],[-73.484622,40.946929],[-73.484622,40.946746],[-73.484983,40.94622],[-73.484137,40.945511],[-73.480665,40.94357],[-73.47834,40.942519],[-73.476378,40.941995],[-73.475172,40.941419],[-73.473601,40.94067],[-73.470915,40.93994],[-73.467746,40.938707],[-73.464365,40.937635],[-73.463776,40.937504],[-73.462525,40.937224],[-73.461107,40.937248],[-73.460624,40.937363],[-73.45984,40.937821],[-73.459237,40.937959],[-73.457095,40.937091],[-73.455676,40.936749],[-73.453051,40.936224],[-73.452251,40.935936],[-73.45121,40.935562],[-73.450794,40.935519],[-73.450335,40.935471],[-73.448797,40.935106],[-73.44817,40.93506],[-73.447258,40.934992],[-73.446202,40.935245],[-73.445298,40.935726],[-73.443941,40.935909],[-73.443247,40.936138],[-73.442161,40.936185],[-73.440803,40.935842],[-73.439385,40.935225],[-73.438239,40.93518],[-73.437575,40.93502],[-73.43673,40.934563],[-73.436398,40.93429],[-73.434285,40.932551],[-73.433319,40.931957],[-73.432957,40.931671],[-73.432595,40.931385],[-73.432051,40.930676],[-73.431478,40.930196],[-73.430693,40.929785],[-73.43015,40.929282],[-73.429878,40.928756],[-73.429648,40.928157],[-73.429388,40.928442],[-73.429249,40.928594],[-73.429448,40.933993],[-73.429549,40.936297],[-73.429615,40.937809],[-73.430808,40.964311],[-73.431306,40.975366],[-73.431806,40.986487],[-73.431919,40.989009],[-73.423452,40.990793],[-73.398054,40.996147],[-73.389588,40.997932],[-73.388429,40.998151],[-73.384952,40.99881],[-73.383794,40.99903],[-73.383516,40.999082],[-73.382685,40.99924],[-73.382408,40.999293],[-73.38156,40.999453],[-73.379019,40.999935],[-73.378172,41.000097],[-73.377449,41.000289],[-73.375282,41.000867],[-73.37456,41.00106],[-73.358967,41.004214],[-73.312189,41.013675],[-73.296597,41.01683],[-73.296564,41.016837],[-73.295532,41.017045],[-73.292437,41.017671],[-73.291406,41.01788],[-73.288203,41.018528],[-73.278594,41.020471],[-73.275392,41.02112],[-73.274206,41.021338],[-73.273019,41.021556],[-73.270225,41.022069],[-73.261288,41.023711],[-73.254724,41.024916],[-73.249557,41.025866],[-73.24916,41.025957],[-73.247968,41.026233],[-73.247572,41.026326],[-73.246328,41.026614],[-73.242596,41.027478],[-73.241353,41.027767],[-73.240725,41.027912],[-73.23884,41.028348],[-73.238213,41.028494],[-73.236929,41.028811],[-73.23308,41.029764],[-73.231797,41.030083],[-73.231258,41.030187],[-73.229642,41.030499],[-73.229104,41.030604],[-73.227588,41.030984],[-73.223039,41.032125],[-73.221524,41.032506],[-73.221059,41.032622],[-73.220594,41.032739],[-73.213914,41.034415],[-73.202035,41.037396],[-73.191085,41.040142],[-73.183476,41.042052],[-73.182427,41.042308],[-73.17928,41.043079],[-73.178232,41.043336],[-73.178086,41.043371],[-73.17765,41.043478],[-73.177505,41.043514],[-73.17697,41.043645],[-73.175365,41.044038],[-73.17483,41.044169],[-73.171703,41.044934],[-73.162322,41.047233],[-73.159195,41.047999],[-73.156844,41.048574],[-73.149791,41.050302],[-73.147441,41.050878],[-73.141594,41.052309],[-73.124056,41.056606],[-73.11821,41.058039],[-73.104957,41.061285],[-73.0652,41.071025],[-73.051948,41.074272],[-73.046463,41.075615],[-73.030008,41.079646],[-73.024524,41.08099],[-73.019528,41.082213],[-73.004542,41.085884],[-72.999547,41.087108],[-72.995498,41.08789],[-72.983354,41.09024],[-72.979306,41.091023],[-72.965499,41.093692],[-72.92408,41.101703],[-72.910274,41.104373],[-72.905531,41.105289],[-72.891302,41.108041],[-72.88656,41.108959],[-72.885768,41.109111],[-72.883392,41.109571],[-72.882601,41.109725],[-72.878822,41.110455],[-72.867485,41.112648],[-72.863707,41.113379],[-72.863507,41.113417],[-72.862907,41.113533],[-72.862708,41.113572],[-72.862182,41.113673],[-72.860606,41.113978],[-72.860081,41.11408],[-72.857917,41.114498],[-72.851428,41.115753],[-72.849265,41.116172],[-72.848606,41.116299],[-72.846633,41.11668],[-72.845975,41.116808],[-72.842345,41.117509],[-72.831457,41.119616],[-72.827828,41.120318],[-72.822885,41.121273],[-72.815724,41.122658],[-72.808057,41.12414],[-72.80362,41.124999],[-72.803368,41.125048],[-72.803115,41.125097],[-72.801496,41.125404],[-72.796642,41.126326],[-72.795024,41.126634],[-72.785897,41.128367],[-72.758519,41.13357],[-72.749393,41.135305],[-72.746677,41.135825],[-72.738532,41.137389],[-72.735817,41.137911],[-72.727596,41.139488],[-72.702937,41.144222],[-72.694717,41.1458],[-72.693972,41.145942],[-72.69174,41.14637],[-72.690996,41.146513],[-72.682292,41.14818],[-72.656181,41.153185],[-72.647478,41.154854],[-72.623562,41.159437],[-72.611352,41.161778],[-72.575225,41.168703],[-72.551816,41.173189],[-72.551563,41.173238],[-72.527901,41.177774],[-72.517604,41.179724],[-72.486715,41.185578],[-72.476419,41.18753],[-72.475027,41.187793],[-72.470854,41.188584],[-72.469464,41.188848],[-72.459908,41.190658],[-72.431243,41.196092],[-72.421688,41.197903],[-72.420989,41.198035],[-72.418892,41.198432],[-72.418194,41.198565],[-72.415023,41.199165],[-72.405514,41.200968],[-72.402344,41.201569],[-72.40118,41.201789],[-72.397692,41.20245],[-72.396529,41.202671],[-72.383519,41.205136],[-72.344489,41.212533],[-72.33148,41.214999],[-72.331453,41.215004],[-72.315072,41.218108],[-72.265933,41.227421],[-72.249553,41.230526],[-72.249348,41.230563],[-72.248733,41.230673],[-72.248529,41.230711],[-72.242901,41.23173],[-72.22602,41.234788],[-72.220393,41.235808],[-72.213596,41.23704],[-72.21229,41.237277],[-72.204188,41.238744],[-72.1953,41.240355],[-72.193207,41.240734],[-72.186411,41.241965],[-72.186321,41.241981],[-72.186051,41.242029],[-72.185962,41.242046],[-72.185742,41.242085],[-72.185082,41.242204],[-72.184863,41.242245],[-72.1784,41.243416],[-72.159012,41.246928],[-72.15255,41.2481],[-72.150346,41.248499],[-72.143737,41.249698],[-72.141534,41.250098],[-72.135068,41.251411],[-72.115671,41.255352],[-72.109206,41.256667],[-72.108476,41.256815],[-72.106289,41.257259],[-72.10556,41.257408],[-72.101012,41.258332],[-72.09551,41.25945],[-72.087368,41.261103],[-72.08546,41.261491],[-72.08414,41.261759],[-72.08282,41.262027],[-72.082629,41.262065],[-72.082055,41.262182],[-72.081865,41.262221],[-72.081847,41.262224],[-72.081792,41.262236],[-72.081775,41.26224],[-72.078835,41.263571],[-72.076126,41.2648],[-72.070477,41.26736],[-72.070018,41.267567],[-72.068778,41.26813],[-72.067079,41.2689],[-72.064678,41.269987],[-72.057477,41.273251],[-72.055077,41.274339],[-72.054493,41.274603],[-72.052743,41.275396],[-72.05216,41.275661],[-72.051739,41.275851],[-72.050478,41.276423],[-72.050058,41.276614],[-72.044592,41.279091],[-72.028196,41.286522],[-72.022731,41.289],[-72.021424,41.289592],[-72.019214,41.290594],[-72.017399,41.291072],[-72.016012,41.291438],[-72.008688,41.293368],[-72.007765,41.293612],[-71.999517,41.295786],[-71.999486,41.295794],[-71.986561,41.298487],[-71.979147,41.300032],[-71.976418,41.3006],[-71.973689,41.301169],[-71.971278,41.301671],[-71.961243,41.303762],[-71.956746,41.304699],[-71.947672,41.306589],[-71.939804,41.308229],[-71.935677,41.309089],[-71.929451,41.310387],[-71.923378,41.308771],[-71.919305,41.307688],[-71.916895,41.307047],[-71.909667,41.305124],[-71.907258,41.304483],[-71.879847,41.276246],[-71.874513,41.270686],[-71.858513,41.253697],[-71.858425,41.253618],[-71.854462,41.2501],[-71.809384,41.203235]]]}},{"type":"Feature","id":"36119","properties":{"STATEFP":"36","COUNTYFP":"119","COUNTYNS":"00974157","GEOID":"36119","GEOIDFQ":"0500000US36119","NAME":"Westchester","NAMELSAD":"Westchester County","LSAD":"06","CLASSFP":"H1","MTFCC":"G4020","CSAFP":"408","CBSAFP":"35620","METDIVFP":"35614","FUNCSTAT":"A","ALAND":1115811944,"AWATER":179391718,"INTPTLAT":"+41.1526862","INTPTLON":"-073.7457526"},"geometry":{"type":"Polygon","coordinates":[[[-73.657615,40.985499],[-73.65739,40.985234],[-73.656913,40.984675],[-73.656771,40.984509],[-73.656699,40.984454],[-73.656423,40.984243],[-73.656412,40.984233],[-73.656379,40.984208],[-73.656368,40.984201],[-73.649832,40.979199],[-73.64802,40.977814],[-73.646209,40.976429],[-73.612896,40.950952],[-73.612885,40.950943],[-73.612901,40.950934],[-73.612996,40.950878],[-73.61309,40.950821],[-73.619446,40.947089],[-73.622955,40.945028],[-73.628149,40.941978],[-73.694448,40.90305],[-73.698972,40.900394],[-73.709674,40.894173],[-73.7185,40.889044],[-73.73139,40.881553],[-73.740597,40.876203],[-73.742499,40.875099],[-73.748004,40.871874],[-73.74806,40.871721],[-73.749483,40.872101],[-73.760988,40.875178],[-73.781202,40.880478],[-73.782267,40.880729],[-73.782838,40.880868],[-73.783408,40.881006],[-73.783519,40.881033],[-73.783555,40.881042],[-73.783702,40.881078],[-73.785797,40.8816],[-73.791993,40.88317],[-73.793016,40.883361],[-73.793284,40.883419],[-73.794107,40.883631],[-73.794842,40.883822],[-73.794961,40.883853],[-73.796246,40.884186],[-73.797353,40.884468],[-73.799279,40.884965],[-73.801932,40.885648],[-73.803017,40.885926],[-73.804402,40.886281],[-73.804997,40.886433],[-73.805368,40.886528],[-73.806398,40.886795],[-73.807575,40.887098],[-73.808757,40.887402],[-73.809651,40.887637],[-73.809923,40.887684],[-73.809942,40.88769],[-73.810408,40.887832],[-73.811,40.887983],[-73.811281,40.888054],[-73.812324,40.888321],[-73.812439,40.888353],[-73.813666,40.888661],[-73.814177,40.888795],[-73.815048,40.888951],[-73.815165,40.888999],[-73.815329,40.889066],[-73.815603,40.889178],[-73.816104,40.889276],[-73.816206,40.889316],[-73.816484,40.889386],[-73.816619,40.889419],[-73.816749,40.889454],[-73.817596,40.889675],[-73.817614,40.889679],[-73.818503,40.889878],[-73.818732,40.88994],[-73.818929,40.889993],[-73.819419,40.890125],[-73.8195,40.890147],[-73.819558,40.890163],[-73.819719,40.890206],[-73.820994,40.890543],[-73.821703,40.89073],[-73.822959,40.891056],[-73.823003,40.891078],[-73.823244,40.891199],[-73.823282,40.891082],[-73.823302,40.890989],[-73.823256,40.890961],[-73.823205,40.890918],[-73.823132,40.890871],[-73.823113,40.890777],[-73.82312,40.890648],[-73.823172,40.890545],[-73.823245,40.890474],[-73.823217,40.890365],[-73.823275,40.890222],[-73.823304,40.890057],[-73.823101,40.889892],[-73.822899,40.889926],[-73.822667,40.889958],[-73.822508,40.889882],[-73.822363,40.88964],[-73.822375,40.889477],[-73.823567,40.889825],[-73.823639,40.88985],[-73.823781,40.889809],[-73.823963,40.889763],[-73.824017,40.88975],[-73.824036,40.889823],[-73.824047,40.889866],[-73.824009,40.889978],[-73.824025,40.889978],[-73.824403,40.889978],[-73.825002,40.890178],[-73.825241,40.890244],[-73.825256,40.890248],[-73.827224,40.890785],[-73.827269,40.890797],[-73.827943,40.890928],[-73.828125,40.891051],[-73.828716,40.891274],[-73.830022,40.891686],[-73.830087,40.8917],[-73.830818,40.891879],[-73.830972,40.891935],[-73.831703,40.892178],[-73.831856,40.892217],[-73.832503,40.892377],[-73.8327,40.892438],[-73.832716,40.892443],[-73.833595,40.892706],[-73.835174,40.89317],[-73.835605,40.893315],[-73.836282,40.893531],[-73.837337,40.893814],[-73.837368,40.893821],[-73.838407,40.894061],[-73.838985,40.895602],[-73.839411,40.896693],[-73.839615,40.89714],[-73.839655,40.897249],[-73.839677,40.897323],[-73.839696,40.897385],[-73.839718,40.897511],[-73.839724,40.897633],[-73.83972,40.897694],[-73.839649,40.897891],[-73.83951,40.898184],[-73.839391,40.89841],[-73.839257,40.898707],[-73.839241,40.898744],[-73.839208,40.898819],[-73.839149,40.899061],[-73.839154,40.899199],[-73.839155,40.899226],[-73.839185,40.89936],[-73.839221,40.899475],[-73.839287,40.899594],[-73.839363,40.899713],[-73.840036,40.900567],[-73.840049,40.900585],[-73.840085,40.900634],[-73.840159,40.900735],[-73.840172,40.900753],[-73.840179,40.900762],[-73.84019,40.900777],[-73.84021,40.900804],[-73.840445,40.901124],[-73.840562,40.901284],[-73.84065,40.901414],[-73.840729,40.901567],[-73.840787,40.901693],[-73.840832,40.901819],[-73.840873,40.901979],[-73.840958,40.902516],[-73.840999,40.902812],[-73.841017,40.902979],[-73.841048,40.903162],[-73.841062,40.903214],[-73.841136,40.903487],[-73.841281,40.903886],[-73.841291,40.903913],[-73.841318,40.903987],[-73.841386,40.904174],[-73.842374,40.904166],[-73.843399,40.904171],[-73.84442,40.904172],[-73.844911,40.90419],[-73.844949,40.904706],[-73.844901,40.90508],[-73.844949,40.905556],[-73.845392,40.905647],[-73.845846,40.905759],[-73.846244,40.905891],[-73.846811,40.906054],[-73.847088,40.906136],[-73.847431,40.906244],[-73.847871,40.906441],[-73.848653,40.906778],[-73.84881,40.906856],[-73.850081,40.907468],[-73.850138,40.907496],[-73.850327,40.907276],[-73.850452,40.907183],[-73.850661,40.906925],[-73.850987,40.90654],[-73.851473,40.9067],[-73.852478,40.907069],[-73.852688,40.907143],[-73.853528,40.907465],[-73.853069,40.908021],[-73.852714,40.908446],[-73.852369,40.90888],[-73.852078,40.908887],[-73.852046,40.908959],[-73.851872,40.909159],[-73.851812,40.909229],[-73.851634,40.909426],[-73.851484,40.909592],[-73.851123,40.910009],[-73.851379,40.910044],[-73.852184,40.909515],[-73.852678,40.909899],[-73.8529,40.909916],[-73.852935,40.909919],[-73.853713,40.909447],[-73.853997,40.909276],[-73.854037,40.909231],[-73.854234,40.90901],[-73.854342,40.908974],[-73.854881,40.908217],[-73.854796,40.908173],[-73.854768,40.908159],[-73.854485,40.908011],[-73.854302,40.908091],[-73.854204,40.908067],[-73.853983,40.908005],[-73.853822,40.907773],[-73.853804,40.907681],[-73.853802,40.907179],[-73.854007,40.906842],[-73.854104,40.906679],[-73.854128,40.906675],[-73.854704,40.906578],[-73.855104,40.906378],[-73.855315,40.906263],[-73.855534,40.906144],[-73.855574,40.906122],[-73.855687,40.90606],[-73.85574,40.90606],[-73.855997,40.90606],[-73.856074,40.90606],[-73.856108,40.90606],[-73.856153,40.906082],[-73.856227,40.906119],[-73.856324,40.906166],[-73.856325,40.905966],[-73.856326,40.905801],[-73.856279,40.905728],[-73.856204,40.905475],[-73.856118,40.905454],[-73.856001,40.905406],[-73.855959,40.905388],[-73.855944,40.905256],[-73.856178,40.905107],[-73.856204,40.905091],[-73.856394,40.905045],[-73.856434,40.905027],[-73.856697,40.90491],[-73.856956,40.904953],[-73.857104,40.904979],[-73.857136,40.904985],[-73.857321,40.905017],[-73.857449,40.904837],[-73.857587,40.904669],[-73.857449,40.904601],[-73.857404,40.904579],[-73.857232,40.904493],[-73.857079,40.904416],[-73.857004,40.904378],[-73.857004,40.904169],[-73.857004,40.904041],[-73.857004,40.903861],[-73.857004,40.90382],[-73.857003,40.903736],[-73.857,40.903579],[-73.857199,40.902878],[-73.857707,40.902572],[-73.857805,40.90254],[-73.857825,40.902533],[-73.85792,40.902494],[-73.858042,40.902444],[-73.8582,40.902379],[-73.858221,40.902335],[-73.858302,40.902077],[-73.858469,40.90216],[-73.859014,40.902433],[-73.859097,40.902471],[-73.859114,40.902472],[-73.859604,40.902178],[-73.859392,40.901895],[-73.859303,40.901778],[-73.859018,40.901493],[-73.859003,40.901478],[-73.859037,40.90147],[-73.859404,40.901378],[-73.859308,40.901138],[-73.859215,40.900906],[-73.859204,40.900878],[-73.8593,40.900494],[-73.85931,40.900479],[-73.859393,40.900381],[-73.859633,40.900458],[-73.860006,40.900565],[-73.860104,40.900578],[-73.860257,40.900616],[-73.860321,40.900638],[-73.860775,40.900787],[-73.860956,40.900846],[-73.86159,40.901051],[-73.862041,40.901203],[-73.862401,40.901341],[-73.862557,40.901427],[-73.862643,40.901474],[-73.86286,40.901525],[-73.862879,40.901538],[-73.864669,40.901793],[-73.865256,40.901949],[-73.865268,40.901962],[-73.865635,40.902086],[-73.866952,40.902475],[-73.867876,40.902983],[-73.869046,40.903333],[-73.870731,40.903826],[-73.87094,40.903887],[-73.872735,40.904415],[-73.872913,40.904467],[-73.873949,40.904767],[-73.874087,40.904807],[-73.874623,40.90496],[-73.874797,40.90501],[-73.875559,40.905232],[-73.875599,40.905244],[-73.876229,40.90543],[-73.876455,40.905497],[-73.876588,40.905539],[-73.877628,40.905854],[-73.877741,40.905888],[-73.877855,40.905922],[-73.878012,40.905965],[-73.878189,40.905983],[-73.87822,40.905983],[-73.87835,40.905983],[-73.878827,40.906188],[-73.879239,40.906365],[-73.879531,40.906441],[-73.880111,40.906591],[-73.880637,40.906745],[-73.880929,40.90683],[-73.881443,40.907004],[-73.881825,40.907134],[-73.882829,40.907382],[-73.882993,40.907423],[-73.884054,40.907497],[-73.884106,40.907501],[-73.884127,40.907503],[-73.884246,40.907512],[-73.884726,40.907685],[-73.884832,40.907723],[-73.885401,40.907977],[-73.88601,40.907979],[-73.886124,40.908016],[-73.886165,40.90803],[-73.886237,40.908052],[-73.887984,40.908593],[-73.888394,40.90872],[-73.891805,40.909778],[-73.891928,40.909809],[-73.892205,40.909878],[-73.892799,40.910058],[-73.896543,40.911293],[-73.896634,40.911324],[-73.897253,40.911655],[-73.89736,40.911672],[-73.897424,40.911693],[-73.89812,40.911798],[-73.898682,40.911871],[-73.899505,40.911978],[-73.899789,40.912072],[-73.89997,40.912132],[-73.900697,40.912381],[-73.902106,40.912879],[-73.902454,40.912979],[-73.903806,40.913353],[-73.904194,40.91346],[-73.905911,40.913938],[-73.905947,40.913948],[-73.908302,40.914609],[-73.908328,40.914616],[-73.908814,40.914747],[-73.90884,40.914754],[-73.909471,40.914924],[-73.909496,40.914931],[-73.910006,40.915076],[-73.910279,40.915187],[-73.910516,40.915282],[-73.910808,40.915372],[-73.918317,40.917705],[-73.918243,40.917892],[-73.917712,40.919232],[-73.917609,40.919491],[-73.915461,40.924895],[-73.914253,40.92796],[-73.912096,40.935485],[-73.912057,40.935618],[-73.910368,40.94151],[-73.90915,40.945761],[-73.909112,40.945894],[-73.908463,40.94788],[-73.907178,40.951425],[-73.907135,40.951544],[-73.907106,40.951625],[-73.904928,40.957635],[-73.90477,40.958073],[-73.904735,40.958167],[-73.904143,40.959802],[-73.898739,40.974714],[-73.898703,40.974813],[-73.898687,40.974857],[-73.896144,40.981873],[-73.895971,40.98292],[-73.893628,40.997165],[-73.893984,40.997172],[-73.893979,40.997205],[-73.893579,41.005297],[-73.890079,41.022597],[-73.889915,41.025749],[-73.889479,41.034097],[-73.88938,41.037597],[-73.89028,41.045196],[-73.89038,41.045796],[-73.89268,41.053496],[-73.89388,41.057896],[-73.89448,41.064596],[-73.89468,41.069796],[-73.8947,41.069937],[-73.89471,41.070004],[-73.894713,41.070023],[-73.894732,41.070165],[-73.894738,41.070206],[-73.894758,41.070342],[-73.89478,41.070496],[-73.894779,41.070572],[-73.894777,41.070791],[-73.894706,41.077258],[-73.894687,41.078959],[-73.89468,41.079596],[-73.89488,41.082396],[-73.893918,41.091925],[-73.893835,41.092754],[-73.89379,41.093193],[-73.89378,41.093296],[-73.893693,41.093813],[-73.891845,41.104777],[-73.891531,41.106639],[-73.891417,41.107318],[-73.890866,41.110583],[-73.89078,41.111096],[-73.888841,41.121821],[-73.88758,41.128795],[-73.88718,41.133095],[-73.887397,41.136861],[-73.88748,41.138295],[-73.888679,41.142371],[-73.88948,41.145095],[-73.892481,41.150595],[-73.895381,41.153995],[-73.899681,41.157295],[-73.906581,41.161895],[-73.909281,41.164395],[-73.911681,41.167795],[-73.914381,41.174195],[-73.921697,41.186288],[-73.921882,41.186594],[-73.925682,41.195194],[-73.927229,41.198038],[-73.928782,41.200894],[-73.929783,41.202415],[-73.930003,41.202749],[-73.931482,41.204994],[-73.935982,41.209894],[-73.936782,41.210814],[-73.939983,41.214494],[-73.944683,41.219594],[-73.947683,41.222794],[-73.947965,41.223101],[-73.950947,41.226346],[-73.951083,41.226494],[-73.953283,41.228994],[-73.957983,41.231694],[-73.961383,41.234194],[-73.960783,41.239394],[-73.961283,41.241994],[-73.963884,41.243694],[-73.964142,41.243851],[-73.970519,41.247732],[-73.970784,41.247893],[-73.971984,41.251493],[-73.972284,41.256193],[-73.971484,41.259593],[-73.969684,41.263193],[-73.966884,41.267193],[-73.964184,41.269993],[-73.961529,41.27242],[-73.957183,41.276393],[-73.955445,41.277862],[-73.952045,41.280736],[-73.951947,41.280818],[-73.947483,41.284593],[-73.946283,41.286193],[-73.945783,41.287593],[-73.945883,41.289493],[-73.946583,41.290993],[-73.949083,41.292593],[-73.955183,41.294993],[-73.964483,41.299693],[-73.966983,41.301693],[-73.971784,41.307293],[-73.977484,41.312093],[-73.980984,41.314193],[-73.983284,41.317393],[-73.983084,41.319693],[-73.983026,41.319924],[-73.982584,41.321693],[-73.982532,41.321824],[-73.979503,41.322161],[-73.97934,41.322179],[-73.976143,41.322503],[-73.975685,41.32255],[-73.974731,41.32269],[-73.961958,41.323957],[-73.96019,41.324147],[-73.960043,41.324161],[-73.9523,41.324918],[-73.947142,41.325582],[-73.934533,41.326846],[-73.931781,41.327122],[-73.931645,41.327137],[-73.929807,41.327337],[-73.929568,41.327361],[-73.92745,41.327573],[-73.927171,41.327604],[-73.926846,41.32764],[-73.926768,41.327649],[-73.926649,41.327642],[-73.926331,41.327676],[-73.925948,41.327717],[-73.925468,41.327767],[-73.924487,41.327872],[-73.92436,41.327885],[-73.923733,41.327952],[-73.920588,41.328287],[-73.918286,41.328532],[-73.915239,41.328857],[-73.915113,41.32887],[-73.914955,41.328885],[-73.914812,41.328898],[-73.914027,41.32897],[-73.913104,41.329056],[-73.911046,41.329344],[-73.910245,41.329397],[-73.910188,41.329394],[-73.909468,41.329466],[-73.908186,41.329592],[-73.90479,41.329955],[-73.901907,41.330256],[-73.893433,41.33115],[-73.893025,41.331184],[-73.89273,41.331206],[-73.89227,41.331245],[-73.89145,41.331339],[-73.89062,41.33143],[-73.889756,41.331531],[-73.889684,41.331538],[-73.888858,41.331633],[-73.888383,41.331671],[-73.888325,41.331677],[-73.888215,41.33169],[-73.887788,41.331738],[-73.883367,41.332235],[-73.882972,41.332275],[-73.881167,41.332465],[-73.881116,41.332471],[-73.880452,41.33254],[-73.880213,41.332575],[-73.880009,41.332609],[-73.879948,41.332623],[-73.879874,41.332626],[-73.879511,41.332643],[-73.878726,41.332702],[-73.877106,41.332824],[-73.875052,41.333023],[-73.874609,41.333064],[-73.873814,41.33314],[-73.873038,41.333216],[-73.871365,41.333393],[-73.867214,41.33384],[-73.864474,41.334136],[-73.864134,41.33417],[-73.861933,41.334382],[-73.856721,41.334992],[-73.845835,41.336085],[-73.842726,41.336397],[-73.841789,41.33649],[-73.840002,41.336669],[-73.83553,41.337116],[-73.834178,41.337251],[-73.83375,41.337294],[-73.832553,41.337413],[-73.829958,41.337675],[-73.824321,41.338235],[-73.822108,41.338456],[-73.81648,41.339018],[-73.815834,41.339082],[-73.815716,41.339094],[-73.812318,41.339432],[-73.807056,41.339956],[-73.806746,41.339988],[-73.806687,41.339993],[-73.805017,41.34016],[-73.801027,41.340556],[-73.798868,41.340772],[-73.797552,41.340903],[-73.797492,41.340913],[-73.797456,41.340914],[-73.797433,41.340915],[-73.797412,41.340917],[-73.797361,41.340922],[-73.794776,41.341184],[-73.788183,41.341852],[-73.785564,41.342117],[-73.780334,41.342647],[-73.772044,41.343486],[-73.771797,41.343511],[-73.77107,41.343585],[-73.769426,41.343751],[-73.769196,41.343774],[-73.769144,41.343764],[-73.768912,41.343787],[-73.767421,41.343936],[-73.767324,41.343946],[-73.766975,41.343998],[-73.766834,41.344013],[-73.766042,41.344094],[-73.765984,41.3441],[-73.758296,41.344875],[-73.758048,41.344902],[-73.757556,41.344952],[-73.757146,41.344994],[-73.757009,41.344997],[-73.755555,41.345144],[-73.754584,41.345236],[-73.753311,41.345367],[-73.75321,41.345365],[-73.753122,41.345342],[-73.753002,41.345412],[-73.752905,41.345421],[-73.749636,41.345751],[-73.749591,41.345756],[-73.749576,41.345757],[-73.749546,41.345758],[-73.749516,41.34576],[-73.740171,41.346735],[-73.735772,41.347194],[-73.734154,41.347363],[-73.734103,41.347368],[-73.730884,41.347704],[-73.72749,41.348062],[-73.726829,41.348127],[-73.72634,41.348178],[-73.725189,41.348299],[-73.71978,41.348863],[-73.718674,41.348976],[-73.699944,41.350888],[-73.699636,41.350919],[-73.696564,41.351233],[-73.694725,41.351421],[-73.689494,41.351954],[-73.682081,41.352711],[-73.681965,41.352723],[-73.681679,41.352752],[-73.680612,41.352861],[-73.672658,41.353796],[-73.672139,41.353805],[-73.671686,41.353857],[-73.670005,41.354053],[-73.661625,41.354979],[-73.660972,41.354985],[-73.660905,41.354994],[-73.660776,41.355009],[-73.660619,41.355026],[-73.660543,41.355035],[-73.660232,41.355064],[-73.659871,41.355099],[-73.659579,41.355128],[-73.659527,41.355133],[-73.659031,41.355183],[-73.656648,41.35542],[-73.643246,41.35676],[-73.641248,41.356974],[-73.639056,41.357253],[-73.638605,41.357252],[-73.638184,41.357308],[-73.63817,41.35731],[-73.63788,41.357348],[-73.637481,41.357358],[-73.628491,41.358181],[-73.624572,41.35854],[-73.614389,41.359474],[-73.599938,41.360802],[-73.599827,41.360813],[-73.596688,41.361227],[-73.596499,41.361211],[-73.596192,41.361216],[-73.595925,41.361241],[-73.595471,41.361305],[-73.595086,41.361348],[-73.594003,41.361439],[-73.589576,41.361841],[-73.587191,41.362059],[-73.587065,41.362074],[-73.586994,41.362082],[-73.58613,41.362182],[-73.586059,41.362189],[-73.585682,41.362231],[-73.585035,41.362407],[-73.575631,41.363362],[-73.574912,41.363436],[-73.574249,41.363502],[-73.573509,41.363581],[-73.573051,41.363628],[-73.572544,41.363677],[-73.560247,41.364942],[-73.544707,41.36654],[-73.544728,41.366375],[-73.544806,41.365758],[-73.545042,41.36391],[-73.545121,41.363294],[-73.545155,41.362938],[-73.545258,41.361871],[-73.545293,41.361516],[-73.545649,41.357838],[-73.545968,41.354856],[-73.54597,41.354843],[-73.546209,41.352606],[-73.546282,41.351821],[-73.546919,41.344941],[-73.547089,41.343117],[-73.547123,41.342836],[-73.547904,41.33654],[-73.548049,41.335376],[-73.548142,41.334439],[-73.548236,41.333459],[-73.548238,41.333405],[-73.548609,41.329982],[-73.548626,41.329801],[-73.548973,41.326292],[-73.549088,41.325134],[-73.549293,41.319581],[-73.54948,41.316746],[-73.549602,41.307109],[-73.549687,41.30539],[-73.549859,41.301906],[-73.549866,41.301767],[-73.549879,41.301522],[-73.550962,41.295421],[-73.548845,41.292969],[-73.548114,41.292095],[-73.543555,41.286577],[-73.540717,41.283144],[-73.540597,41.282999],[-73.538387,41.280385],[-73.536882,41.278604],[-73.536703,41.278391],[-73.536677,41.27836],[-73.528554,41.268749],[-73.526316,41.266101],[-73.526283,41.266062],[-73.525712,41.265348],[-73.525297,41.264832],[-73.52523,41.264764],[-73.525208,41.26473],[-73.524763,41.264226],[-73.523745,41.263071],[-73.523662,41.26297],[-73.523418,41.262684],[-73.517509,41.255526],[-73.517496,41.255508],[-73.517464,41.255465],[-73.517456,41.255455],[-73.512948,41.250095],[-73.512937,41.250081],[-73.512905,41.250041],[-73.512895,41.250028],[-73.512308,41.249302],[-73.510548,41.247124],[-73.509962,41.246399],[-73.509862,41.246276],[-73.508322,41.244376],[-73.506491,41.242117],[-73.504989,41.240264],[-73.504374,41.239505],[-73.503403,41.238308],[-73.502659,41.237389],[-73.502636,41.237355],[-73.502532,41.237228],[-73.501764,41.236286],[-73.501699,41.236206],[-73.501473,41.23593],[-73.5014,41.235839],[-73.501233,41.235635],[-73.501012,41.235363],[-73.49889,41.232763],[-73.496452,41.229773],[-73.491407,41.223588],[-73.48854,41.220076],[-73.487977,41.219387],[-73.486327,41.217321],[-73.483925,41.214312],[-73.482695,41.212772],[-73.484898,41.211748],[-73.485002,41.2117],[-73.485109,41.211652],[-73.485343,41.211543],[-73.486837,41.210915],[-73.487474,41.210549],[-73.488412,41.210006],[-73.491728,41.208577],[-73.493962,41.207616],[-73.494224,41.207504],[-73.494559,41.207358],[-73.494613,41.207336],[-73.495002,41.207168],[-73.495452,41.206974],[-73.495565,41.206925],[-73.495901,41.206781],[-73.503958,41.203312],[-73.509174,41.20093],[-73.510149,41.200503],[-73.511576,41.19988],[-73.511608,41.19988],[-73.511704,41.199839],[-73.51173,41.199811],[-73.512627,41.199446],[-73.512803,41.199375],[-73.513863,41.1989],[-73.513993,41.198854],[-73.514179,41.198732],[-73.516786,41.197462],[-73.516927,41.197393],[-73.517068,41.197325],[-73.52098,41.19542],[-73.521164,41.195339],[-73.521597,41.195145],[-73.522337,41.194815],[-73.522523,41.194713],[-73.522563,41.194692],[-73.523082,41.194413],[-73.523342,41.194289],[-73.523675,41.194137],[-73.52375,41.194103],[-73.52377,41.194098],[-73.52426,41.193932],[-73.524542,41.193775],[-73.52484,41.193611],[-73.525303,41.193415],[-73.526029,41.19311],[-73.526289,41.193],[-73.529107,41.191674],[-73.535884,41.188489],[-73.535996,41.188435],[-73.540012,41.186606],[-73.54005,41.186595],[-73.548998,41.182568],[-73.551468,41.181458],[-73.553772,41.180381],[-73.55389,41.180326],[-73.554009,41.180271],[-73.554711,41.179942],[-73.554783,41.179909],[-73.554874,41.179866],[-73.555059,41.179781],[-73.555159,41.179734],[-73.555259,41.179687],[-73.555374,41.179634],[-73.555488,41.17958],[-73.555954,41.179363],[-73.556027,41.179329],[-73.556107,41.179292],[-73.557665,41.178565],[-73.557841,41.178482],[-73.55837,41.178235],[-73.558547,41.178153],[-73.559508,41.177704],[-73.562394,41.176357],[-73.563356,41.175909],[-73.563636,41.175777],[-73.564478,41.175385],[-73.564759,41.175255],[-73.564942,41.175169],[-73.565035,41.175132],[-73.56588,41.1748],[-73.566162,41.17469],[-73.567312,41.174161],[-73.570764,41.172578],[-73.570875,41.172528],[-73.571915,41.172051],[-73.573276,41.171426],[-73.577359,41.169554],[-73.578721,41.16893],[-73.578804,41.168892],[-73.579056,41.168779],[-73.57914,41.168742],[-73.580542,41.168107],[-73.584209,41.166448],[-73.584549,41.166294],[-73.584711,41.16622],[-73.58475,41.166202],[-73.585241,41.165981],[-73.585612,41.165813],[-73.585812,41.165722],[-73.585879,41.165692],[-73.586019,41.165629],[-73.586086,41.165598],[-73.586153,41.165568],[-73.587287,41.165054],[-73.58841,41.164546],[-73.589321,41.164136],[-73.590693,41.163515],[-73.591828,41.163002],[-73.592862,41.162578],[-73.595966,41.16131],[-73.597001,41.160888],[-73.597022,41.160867],[-73.597088,41.160806],[-73.597098,41.160787],[-73.59711,41.160786],[-73.597245,41.160659],[-73.597283,41.160639],[-73.597894,41.160325],[-73.598098,41.160221],[-73.598152,41.160198],[-73.598334,41.1601],[-73.598517,41.160006],[-73.599771,41.159363],[-73.599875,41.15931],[-73.60019,41.159149],[-73.601256,41.158671],[-73.604458,41.157237],[-73.605525,41.15676],[-73.605947,41.15657],[-73.606178,41.156468],[-73.607215,41.156003],[-73.607638,41.155814],[-73.607675,41.155797],[-73.607786,41.155747],[-73.607824,41.155731],[-73.608532,41.155413],[-73.608961,41.15522],[-73.612374,41.153693],[-73.613512,41.153184],[-73.613619,41.153137],[-73.613683,41.153106],[-73.613959,41.152977],[-73.614011,41.152953],[-73.614045,41.152937],[-73.614206,41.152862],[-73.614367,41.152786],[-73.614443,41.152752],[-73.614643,41.152662],[-73.615472,41.152294],[-73.615749,41.152171],[-73.617434,41.151407],[-73.622089,41.149299],[-73.622489,41.149117],[-73.624174,41.148354],[-73.624351,41.148259],[-73.624571,41.14831],[-73.624581,41.148305],[-73.625763,41.147778],[-73.626158,41.147603],[-73.626685,41.147367],[-73.628268,41.146663],[-73.628796,41.146429],[-73.62906,41.14631],[-73.629281,41.14621],[-73.629486,41.14611],[-73.63021,41.145792],[-73.632328,41.144753],[-73.633527,41.144162],[-73.6337,41.144077],[-73.633827,41.14403],[-73.633858,41.144018],[-73.63393,41.143992],[-73.634456,41.14376],[-73.634648,41.143689],[-73.634715,41.143678],[-73.634736,41.143677],[-73.634749,41.143652],[-73.634859,41.143612],[-73.635014,41.143548],[-73.635501,41.143348],[-73.635636,41.143286],[-73.636014,41.143229],[-73.637353,41.142631],[-73.637723,41.142337],[-73.637748,41.142318],[-73.637765,41.142311],[-73.639672,41.141496],[-73.644074,41.139501],[-73.644208,41.13944],[-73.651581,41.136137],[-73.651673,41.136096],[-73.654373,41.134796],[-73.655353,41.134262],[-73.655436,41.134216],[-73.655473,41.134196],[-73.655633,41.134142],[-73.65597,41.13403],[-73.656071,41.133995],[-73.656084,41.133989],[-73.656122,41.133972],[-73.656136,41.133967],[-73.660573,41.131996],[-73.660873,41.131796],[-73.66096,41.131758],[-73.661121,41.131686],[-73.661607,41.131474],[-73.661769,41.131403],[-73.664973,41.129996],[-73.665647,41.129669],[-73.665831,41.129579],[-73.665907,41.129543],[-73.665931,41.129518],[-73.667212,41.128913],[-73.667804,41.128628],[-73.668026,41.128519],[-73.669687,41.127757],[-73.669805,41.127702],[-73.669934,41.127643],[-73.676417,41.124667],[-73.676774,41.124496],[-73.679022,41.12342],[-73.686074,41.120096],[-73.689265,41.118594],[-73.689474,41.118496],[-73.695005,41.115773],[-73.695958,41.115304],[-73.696053,41.115256],[-73.700003,41.11366],[-73.700703,41.113377],[-73.702733,41.112242],[-73.70284,41.112183],[-73.703153,41.112023],[-73.703299,41.111949],[-73.703445,41.111875],[-73.703542,41.111825],[-73.703619,41.111795],[-73.705534,41.111061],[-73.705674,41.110996],[-73.705814,41.11093],[-73.70587,41.110904],[-73.7059,41.11089],[-73.706021,41.110834],[-73.712225,41.10792],[-73.712272,41.1079],[-73.71296,41.107609],[-73.713403,41.107403],[-73.71355,41.107334],[-73.713649,41.107291],[-73.713765,41.107244],[-73.727775,41.100696],[-73.726845,41.099425],[-73.726821,41.099392],[-73.726515,41.098973],[-73.726212,41.098559],[-73.726172,41.098501],[-73.725334,41.097278],[-73.725142,41.096998],[-73.72496,41.096733],[-73.724795,41.096491],[-73.724777,41.096465],[-73.723616,41.094769],[-73.723471,41.094563],[-73.723382,41.094437],[-73.72271,41.093776],[-73.722109,41.093203],[-73.721726,41.092837],[-73.721666,41.092779],[-73.721218,41.092361],[-73.721018,41.092157],[-73.720576,41.09175],[-73.7194,41.090665],[-73.719354,41.090623],[-73.718839,41.090147],[-73.718675,41.089996],[-73.71797,41.089115],[-73.717875,41.088996],[-73.717737,41.088803],[-73.717679,41.088715],[-73.717063,41.087791],[-73.71581,41.086234],[-73.715478,41.08581],[-73.71545,41.085773],[-73.715148,41.085387],[-73.713796,41.083635],[-73.711924,41.081261],[-73.711846,41.081161],[-73.711613,41.080864],[-73.711536,41.080765],[-73.710393,41.079303],[-73.706304,41.074071],[-73.705705,41.073305],[-73.705565,41.073125],[-73.705073,41.072495],[-73.701555,41.068188],[-73.696483,41.061976],[-73.696415,41.061892],[-73.696252,41.061693],[-73.696173,41.061596],[-73.694681,41.05979],[-73.694206,41.059331],[-73.693952,41.059004],[-73.69349,41.058473],[-73.693152,41.058061],[-73.69304,41.057925],[-73.692865,41.057711],[-73.692346,41.057143],[-73.691481,41.056022],[-73.691251,41.05573],[-73.691014,41.05543],[-73.690717,41.055047],[-73.689826,41.0539],[-73.689529,41.053518],[-73.68885,41.052537],[-73.688418,41.052024],[-73.68789,41.051529],[-73.687173,41.050697],[-73.687009,41.050487],[-73.686955,41.050418],[-73.686901,41.050349],[-73.686833,41.050262],[-73.686765,41.050175],[-73.685718,41.048839],[-73.68296,41.045314],[-73.682947,41.045303],[-73.682473,41.044697],[-73.681845,41.043969],[-73.679771,41.041944],[-73.679754,41.041923],[-73.679512,41.04165],[-73.679275,41.041384],[-73.678904,41.040902],[-73.678776,41.040733],[-73.678562,41.0404],[-73.678537,41.040371],[-73.677463,41.039124],[-73.677444,41.039102],[-73.677057,41.038652],[-73.676579,41.038097],[-73.676485,41.037982],[-73.676233,41.037677],[-73.676185,41.037618],[-73.676088,41.037505],[-73.675918,41.037306],[-73.675743,41.037002],[-73.675651,41.036895],[-73.675599,41.036836],[-73.675575,41.036813],[-73.675546,41.036785],[-73.675501,41.036739],[-73.675487,41.036724],[-73.675396,41.03663],[-73.675345,41.036576],[-73.67533,41.036561],[-73.675311,41.036541],[-73.675225,41.036445],[-73.675191,41.036407],[-73.675123,41.036331],[-73.675103,41.036306],[-73.67499,41.036168],[-73.674922,41.036085],[-73.674804,41.035941],[-73.674517,41.035626],[-73.673707,41.034637],[-73.673097,41.033911],[-73.672718,41.033472],[-73.672551,41.033274],[-73.671927,41.032534],[-73.671832,41.032421],[-73.671411,41.031925],[-73.67135,41.031852],[-73.671074,41.031527],[-73.671054,41.031498],[-73.671023,41.031451],[-73.670974,41.031377],[-73.670687,41.03095],[-73.670632,41.030868],[-73.670606,41.03083],[-73.670589,41.030785],[-73.670511,41.030488],[-73.670381,41.030072],[-73.670377,41.030059],[-73.670275,41.029948],[-73.669772,41.029397],[-73.669727,41.02933],[-73.669172,41.028497],[-73.666782,41.025584],[-73.666715,41.025502],[-73.666539,41.025288],[-73.666421,41.025144],[-73.665606,41.024144],[-73.665257,41.023717],[-73.66524,41.023697],[-73.665189,41.023635],[-73.665177,41.023621],[-73.664672,41.022997],[-73.664179,41.022286],[-73.664148,41.022257],[-73.664074,41.022187],[-73.663858,41.021943],[-73.663604,41.021665],[-73.663522,41.021565],[-73.66351,41.021547],[-73.662756,41.020573],[-73.662739,41.020558],[-73.662672,41.020497],[-73.661847,41.019769],[-73.661735,41.01967],[-73.661716,41.019653],[-73.660454,41.018542],[-73.660309,41.018413],[-73.660293,41.018399],[-73.66026,41.01837],[-73.659563,41.017754],[-73.659447,41.017651],[-73.659078,41.017268],[-73.658992,41.017178],[-73.658772,41.01683],[-73.658679,41.016706],[-73.658189,41.016154],[-73.658139,41.016097],[-73.657872,41.015797],[-73.657372,41.015097],[-73.656901,41.014525],[-73.656867,41.014465],[-73.656293,41.013446],[-73.656204,41.013291],[-73.656117,41.013135],[-73.65565,41.012678],[-73.655413,41.012445],[-73.65532,41.012337],[-73.655255,41.012246],[-73.655241,41.011852],[-73.655276,41.011727],[-73.656065,41.008923],[-73.656846,41.00721],[-73.657214,41.006404],[-73.65769,41.005509],[-73.657781,41.005336],[-73.657874,41.005164],[-73.657916,41.005079],[-73.657959,41.004994],[-73.65802,41.00487],[-73.658082,41.004747],[-73.658555,41.004018],[-73.659691,41.001512],[-73.660132,41.000685],[-73.660174,41.000621],[-73.660268,41.000484],[-73.660241,41.000426],[-73.66021,41.000357],[-73.660134,41.000086],[-73.660057,40.999816],[-73.659939,40.999401],[-73.659736,40.998682],[-73.659727,40.99865],[-73.659416,40.997549],[-73.659309,40.997171],[-73.659383,40.996512],[-73.659494,40.995525],[-73.659507,40.995433],[-73.659516,40.995368],[-73.659582,40.994909],[-73.659648,40.994452],[-73.659639,40.994339],[-73.659585,40.99414],[-73.659486,40.993975],[-73.659106,40.993338],[-73.659042,40.993263],[-73.659032,40.993251],[-73.657972,40.991997],[-73.657228,40.990914],[-73.657799,40.990238],[-73.65863,40.989257],[-73.658776,40.98913],[-73.658882,40.989023],[-73.658911,40.988991],[-73.659291,40.98845],[-73.659474,40.988188],[-73.659531,40.988106],[-73.659671,40.987909],[-73.65938,40.987568],[-73.657615,40.985499]]]}}]}
