{"type":"FeatureCollection","name":"tl_2018_us_county","source_crs":"EPSG:4269","features":[{"type":"Feature","id":"36059","properties":{"STATEFP":"36","COUNTYFP":"059","COUNTYNS":"00974128","GEOID":"36059","NAME":"Nassau","NAMELSAD":"Nassau County","LSAD":"06","CLASSFP":"H1","MTFCC":"G4020","CSAFP":"408","CBSAFP":"35620","METDIVFP":"35004","FUNCSTAT":"A","ALAND":737085188,"AWATER":437386635,"INTPTLAT":"+40.7296118","INTPTLON":"-073.5894144"},"geometry":{"type":"Polygon","coordinates":[[[-73.694448,40.90305],[-73.628149,40.941978],[-73.62295499999999,40.945028],[-73.619446,40.947089],[-73.61309,40.950821],[-73.612996,40.950877999999996],[-73.612901,40.950934],[-73.61288499999999,40.950942999999995],[-73.610427,40.95146],[-73.60833699999999,40.951901],[-73.60306299999999,40.953047],[-73.60251199999999,40.953167],[-73.60156099999999,40.953374],[-73.60061,40.953579999999995],[-73.597976,40.954141],[-73.59066899999999,40.955698],[-73.59007299999999,40.955822],[-73.58743799999999,40.956376],[-73.584002,40.957096],[-73.573697,40.959258],[-73.570262,40.959979],[-73.568659,40.960315],[-73.56385,40.961324],[-73.562248,40.961661],[-73.561971,40.961718999999995],[-73.561139,40.961892999999996],[-73.560863,40.961952],[-73.55942499999999,40.962253],[-73.555112,40.963158],[-73.553675,40.96346],[-73.551778,40.963857999999995],[-73.546088,40.965050999999995],[-73.544192,40.96545],[-73.54090599999999,40.966139],[-73.53105099999999,40.968207],[-73.527766,40.968897],[-73.525626,40.969339999999995],[-73.519206,40.970670999999996],[-73.517067,40.971115999999995],[-73.51286499999999,40.971987],[-73.500259,40.974601],[-73.49956499999999,40.974745],[-73.496061,40.975488999999996],[-73.48814,40.977157999999996],[-73.46437999999999,40.982166],[-73.45645999999999,40.983836],[-73.453633,40.984431],[-73.445155,40.986218],[-73.442329,40.986815],[-73.440801,40.987137],[-73.436217,40.988102],[-73.43469,40.988425],[-73.434135,40.988541],[-73.432473,40.988890999999995],[-73.431919,40.989008999999996],[-73.431806,40.986487],[-73.43130599999999,40.975366],[-73.430808,40.964310999999995],[-73.429615,40.937809],[-73.429549,40.936296999999996],[-73.429448,40.933993],[-73.429249,40.928594],[-73.429388,40.928442],[-73.429648,40.928157],[-73.429878,40.928756],[-73.43015,40.929282],[-73.43069299999999,40.929784999999995],[-73.431478,40.930195999999995],[-73.432051,40.930676],[-73.43259499999999,40.931385],[-73.432957,40.931671],[-73.433319,40.931957],[-73.434285,40.932551],[-73.436398,40.93429],[-73.43673,40.934563],[-73.437575,40.93502],[-73.438239,40.935179999999995],[-73.439385,40.935224999999996],[-73.440803,40.935842],[-73.442161,40.936184999999995],[-73.443247,40.936138],[-73.443941,40.935908999999995],[-73.445298,40.935725999999995],[-73.446202,40.935244999999995],[-73.44725799999999,40.934992],[-73.44816999999999,40.93506],[-73.448797,40.935106],[-73.450335,40.935471],[-73.450794,40.935519],[-73.45121,40.935562],[-73.45225099999999,40.935936],[-73.453051,40.936223999999996],[-73.455676,40.936749],[-73.457095,40.937090999999995],[-73.459237,40.937959],[-73.45984,40.937821],[-73.460624,40.937363],[-73.461107,40.937248],[-73.462525,40.937224],[-73.463776,40.937504],[-73.464365,40.937635],[-73.46774599999999,40.938707],[-73.47091499999999,40.93994],[-73.473601,40.94067],[-73.475172,40.941418999999996],[-73.476378,40.941995],[-73.47834,40.942519],[-73.480665,40.94357],[-73.48413699999999,40.945510999999996],[-73.484983,40.94622],[-73.484622,40.946746],[-73.484622,40.946929],[-73.484954,40.946883],[-73.48621399999999,40.946445],[-73.486733,40.946264],[-73.48818,40.945645],[-73.48848199999999,40.945347],[-73.488602,40.945324],[-73.490017,40.943560999999995],[-73.491042,40.942645],[-73.491674,40.942233],[-73.49183099999999,40.94217],[-73.49282,40.941773999999995],[-73.49318199999999,40.941522],[-73.493693,40.940698],[-73.493693,40.940560999999995],[-73.493783,40.940515],[-73.493932,40.940048],[-73.494024,40.93976],[-73.493963,40.939508],[-73.493445,40.937694],[-73.49335599999999,40.937380999999995],[-73.494406,40.934246],[-73.495036,40.931934999999996],[-73.495786,40.929874999999996],[-73.496027,40.929555],[-73.496387,40.928548],[-73.496599,40.927802],[-73.496777,40.927175],[-73.497017,40.926190999999996],[-73.497134,40.924498],[-73.497333,40.92396],[-73.497405,40.923766],[-73.497399,40.923663],[-73.49738599999999,40.923434],[-73.497374,40.923217],[-73.497132,40.922851],[-73.497035,40.922782],[-73.49605199999999,40.92208],[-73.49550099999999,40.921686],[-73.493313,40.920539],[-73.49284399999999,40.920293],[-73.491868,40.919864],[-73.491787,40.919829],[-73.490973,40.919471],[-73.49074999999999,40.919191],[-73.49061,40.919014],[-73.49061,40.918762],[-73.490308,40.918214],[-73.489702,40.91691],[-73.489007,40.91579],[-73.488463,40.915172999999996],[-73.488101,40.915081],[-73.48798,40.91515],[-73.488132,40.915768],[-73.487861,40.915768],[-73.487718,40.915506],[-73.487437,40.914991],[-73.487043,40.913343999999995],[-73.486952,40.913298],[-73.486419,40.911784999999995],[-73.48586499999999,40.910215],[-73.48571,40.909776],[-73.48447,40.907123999999996],[-73.48371399999999,40.905912],[-73.483563,40.905569],[-73.482686,40.904402999999995],[-73.481871,40.903510999999995],[-73.480239,40.901294],[-73.48017899999999,40.901088],[-73.48002799999999,40.900974],[-73.47987599999999,40.901119],[-73.479668,40.900801],[-73.47855899999999,40.89987],[-73.47846799999999,40.899792999999995],[-73.477307,40.899249999999995],[-73.476079,40.877111],[-73.474066,40.875098],[-73.473466,40.874497999999996],[-73.467366,40.868097999999996],[-73.464368,40.867975],[-73.464036,40.867906999999995],[-73.463855,40.867678],[-73.463855,40.867312],[-73.463155,40.867309999999996],[-73.46255699999999,40.867295],[-73.46253,40.867295],[-73.462259,40.86671],[-73.462976,40.863856999999996],[-73.46375499999999,40.860761],[-73.464067,40.859553999999996],[-73.46404,40.859499],[-73.463319,40.858011],[-73.463281,40.857928],[-73.46295599999999,40.857206],[-73.462797,40.856978],[-73.462617,40.856719999999996],[-73.461439,40.855022999999996],[-73.460706,40.853969],[-73.46059799999999,40.853812999999995],[-73.45963499999999,40.851991999999996],[-73.459578,40.851884],[-73.459542,40.85183],[-73.459505,40.851774999999996],[-73.457709,40.849112999999996],[-73.45768799999999,40.849081],[-73.457494,40.848712],[-73.457325,40.848098],[-73.457172,40.847541],[-73.45715799999999,40.847395999999996],[-73.457141,40.847288999999996],[-73.457099,40.847010999999995],[-73.457008,40.846700999999996],[-73.45689899999999,40.846433],[-73.456605,40.845112],[-73.45586,40.843467],[-73.45536299999999,40.842593],[-73.455261,40.840872],[-73.45467099999999,40.835907999999996],[-73.454578,40.835128],[-73.454625,40.835001],[-73.454172,40.834097],[-73.45388799999999,40.832316999999996],[-73.453752,40.831621999999996],[-73.45349399999999,40.830306],[-73.453401,40.829864],[-73.453366,40.829698],[-73.45216599999999,40.822398],[-73.45190099999999,40.819685],[-73.45000499999999,40.8116],[-73.449766,40.810398],[-73.449635,40.809729],[-73.448768,40.805318],[-73.448763,40.804998999999995],[-73.448747,40.804901],[-73.448706,40.80466],[-73.448666,40.804418999999996],[-73.44693099999999,40.795881],[-73.4467,40.794452],[-73.446455,40.792972],[-73.446102,40.79107],[-73.446057,40.790154],[-73.445411,40.786525999999995],[-73.445306,40.78593],[-73.44511299999999,40.785557],[-73.445025,40.785457],[-73.445022,40.785409],[-73.445022,40.785373],[-73.445019,40.785325],[-73.445003,40.785239],[-73.444942,40.784898],[-73.44488799999999,40.784563],[-73.44488,40.78451],[-73.444867,40.784397999999996],[-73.44481999999999,40.783992999999995],[-73.44480999999999,40.783902],[-73.444684,40.783532],[-73.444372,40.78262],[-73.444166,40.782001],[-73.444096,40.781606],[-73.44351499999999,40.778317],[-73.443264,40.776498],[-73.44315,40.775904],[-73.442549,40.772842],[-73.44196699999999,40.769898999999995],[-73.440967,40.764399],[-73.440609,40.762139],[-73.44055,40.761807],[-73.44051999999999,40.761638999999995],[-73.44022199999999,40.760414999999995],[-73.440146,40.759975],[-73.439669,40.757408999999996],[-73.439529,40.756381999999995],[-73.43925399999999,40.755001],[-73.43889399999999,40.753322999999995],[-73.4385,40.751311],[-73.437995,40.749006],[-73.437934,40.748712999999995],[-73.437821,40.748173],[-73.437784,40.747994999999996],[-73.43767,40.747451],[-73.43757699999999,40.747009],[-73.43753099999999,40.746787],[-73.437446,40.746437],[-73.437383,40.746176999999996],[-73.43732,40.745917999999996],[-73.437251,40.745694],[-73.436713,40.742564],[-73.436673,40.742332],[-73.436668,40.742304999999995],[-73.436663,40.742281],[-73.436588,40.742097],[-73.436486,40.741779],[-73.43638299999999,40.741275],[-73.43623699999999,40.740575],[-73.43621399999999,40.740466999999995],[-73.436212,40.740455999999995],[-73.43621,40.740442],[-73.43616,40.740204],[-73.436128,40.74005],[-73.436111,40.739964],[-73.43609099999999,40.739871],[-73.43606199999999,40.739729],[-73.43602,40.739526],[-73.43600599999999,40.739458],[-73.43598899999999,40.739422],[-73.435861,40.738904999999995],[-73.435704,40.738306],[-73.4357,40.738285999999995],[-73.435695,40.738262999999996],[-73.435689,40.738234999999996],[-73.435684,40.738212999999995],[-73.435677,40.738181],[-73.43567,40.73815],[-73.435662,40.738096],[-73.435651,40.738036],[-73.435509,40.737134],[-73.43536499999999,40.736439999999995],[-73.435188,40.73541],[-73.435082,40.734791],[-73.43489799999999,40.733838],[-73.434479,40.731383],[-73.434467,40.731308],[-73.434455,40.731243],[-73.43428399999999,40.730596],[-73.43419,40.730239999999995],[-73.43407599999999,40.729476],[-73.43392899999999,40.728812],[-73.433894,40.728457999999996],[-73.433775,40.727972],[-73.433635,40.727273],[-73.433585,40.727025],[-73.433509,40.726645],[-73.433386,40.725997],[-73.43328799999999,40.725480999999995],[-73.43327,40.725393],[-73.433257,40.725272],[-73.433245,40.725153],[-73.433238,40.725046999999996],[-73.433208,40.724934999999995],[-73.433178,40.724790999999996],[-73.43315799999999,40.724689],[-73.433109,40.724446],[-73.433073,40.724292999999996],[-73.433047,40.724149],[-73.43300599999999,40.723925],[-73.432951,40.723634],[-73.432943,40.723589],[-73.432934,40.723538999999995],[-73.432918,40.723444],[-73.432811,40.723009],[-73.432649,40.722173999999995],[-73.432504,40.721427999999996],[-73.432456,40.721187],[-73.432402,40.720907],[-73.43219599999999,40.719846],[-73.432175,40.71974],[-73.432125,40.719508999999995],[-73.43205999999999,40.719211],[-73.43199299999999,40.718905],[-73.43197099999999,40.718785],[-73.43193,40.718562],[-73.43188099999999,40.718292999999996],[-73.431821,40.717969],[-73.43180000000001,40.717863],[-73.43179599999999,40.717841],[-73.431786,40.717794],[-73.43177899999999,40.717757],[-73.431772,40.71772],[-73.431748,40.717603],[-73.43172299999999,40.717478],[-73.431699,40.717358999999995],[-73.431682,40.717273],[-73.43166699999999,40.717199],[-73.431664,40.717171],[-73.43163899999999,40.717016],[-73.431613,40.716854],[-73.431556,40.716581],[-73.431542,40.716511],[-73.431525,40.716394],[-73.431474,40.716038],[-73.431454,40.715893],[-73.43143599999999,40.715768],[-73.431427,40.715711999999996],[-73.43131,40.715016999999996],[-73.43118,40.714031],[-73.431159,40.713875],[-73.431091,40.713363],[-73.43107499999999,40.713242],[-73.43112599999999,40.712831],[-73.431139,40.712731],[-73.431157,40.712584],[-73.431074,40.712422],[-73.43133399999999,40.712159],[-73.431006,40.711861999999996],[-73.431213,40.711672],[-73.431028,40.711366999999996],[-73.43101,40.711195],[-73.430984,40.71095],[-73.430955,40.710679999999996],[-73.430936,40.710575999999996],[-73.43091199999999,40.71045],[-73.430883,40.710297],[-73.430702,40.709548],[-73.43043899999999,40.708532999999996],[-73.430173,40.707516999999996],[-73.430056,40.70709],[-73.429962,40.706699],[-73.42989899999999,40.706482],[-73.429859,40.706347],[-73.429547,40.705214999999995],[-73.429541,40.705185],[-73.42907799999999,40.702931],[-73.428896,40.701872],[-73.428867,40.7017],[-73.42870599999999,40.700860999999996],[-73.42864,40.700565],[-73.42859299999999,40.700328999999996],[-73.42848599999999,40.699796],[-73.428432,40.699523],[-73.42837,40.699214999999995],[-73.428314,40.698934],[-73.428255,40.698616],[-73.428192,40.697984],[-73.42818199999999,40.69793],[-73.428103,40.697513],[-73.428004,40.69699],[-73.427871,40.696283],[-73.427759,40.695706],[-73.427667,40.6952],[-73.427566,40.6948],[-73.42755,40.694676],[-73.427387,40.693267999999996],[-73.427381,40.693213],[-73.427315,40.692712],[-73.426982,40.691063],[-73.42675299999999,40.689851],[-73.42662399999999,40.68917],[-73.42640399999999,40.688007999999996],[-73.426216,40.687011],[-73.426166,40.686746],[-73.42612799999999,40.686546],[-73.426112,40.686457999999995],[-73.426074,40.686251],[-73.42573999999999,40.68441],[-73.42551399999999,40.683226999999995],[-73.42532299999999,40.682137999999995],[-73.425101,40.681049],[-73.425054,40.680735999999996],[-73.42502,40.680506],[-73.424979,40.680203],[-73.424917,40.679983],[-73.424886,40.679786],[-73.42488399999999,40.67977],[-73.424877,40.679718],[-73.42477699999999,40.679089],[-73.424758,40.679052],[-73.424753,40.67904],[-73.424741,40.678888],[-73.424708,40.678675999999996],[-73.424599,40.677991],[-73.424572,40.677853999999996],[-73.424517,40.6775],[-73.424128,40.675121],[-73.423918,40.67384],[-73.42388199999999,40.673683],[-73.423722,40.672973999999996],[-73.423644,40.672616999999995],[-73.42357799999999,40.672319],[-73.423568,40.672276],[-73.423463,40.671799],[-73.42342599999999,40.671662],[-73.423374,40.671464],[-73.423253,40.670919999999995],[-73.42326899999999,40.670893],[-73.423298,40.669132],[-73.423315,40.669022999999996],[-73.423358,40.668743],[-73.42378599999999,40.667904],[-73.423986,40.66751],[-73.42429299999999,40.66691],[-73.42433199999999,40.666833],[-73.424429,40.666643],[-73.424599,40.666309],[-73.424618,40.666272],[-73.42474,40.666199],[-73.424796,40.665351],[-73.424796,40.665074],[-73.424702,40.664521],[-73.42460799999999,40.663779999999996],[-73.424477,40.662468],[-73.424458,40.661877],[-73.424458,40.661662],[-73.42449599999999,40.661587],[-73.424543,40.661437],[-73.424533,40.661342999999995],[-73.42446799999999,40.661127],[-73.424306,40.660815],[-73.42428,40.660677],[-73.424227,40.660531],[-73.42429,40.660002],[-73.424233,40.659645999999995],[-73.424168,40.659476999999995],[-73.424083,40.658952],[-73.42415299999999,40.658443],[-73.424121,40.657807999999996],[-73.42383199999999,40.656475],[-73.42388,40.655972999999996],[-73.425291,40.656109],[-73.425586,40.656290999999996],[-73.42557699999999,40.655902],[-73.425549,40.654610999999996],[-73.42534599999999,40.651818],[-73.42498499999999,40.639758],[-73.424876,40.638115],[-73.424874,40.638071],[-73.42486699999999,40.637902],[-73.424572,40.631073],[-73.424478,40.629953],[-73.424384,40.628833],[-73.424381,40.628794],[-73.424353,40.628454999999995],[-73.42432099999999,40.628105],[-73.42429,40.627755],[-73.42426999999999,40.627486999999995],[-73.424268,40.626506],[-73.424268,40.625955999999995],[-73.424268,40.625406],[-73.424268,40.624573],[-73.424268,40.62374],[-73.424268,40.623701],[-73.424373,40.623207],[-73.424368,40.6231],[-73.424267,40.6211],[-73.424253,40.620829],[-73.42415799999999,40.619907],[-73.424143,40.619823],[-73.42414099999999,40.619710999999995],[-73.424099,40.617947],[-73.424099,40.617847],[-73.424111,40.617703],[-73.424151,40.617208],[-73.424165,40.617039999999996],[-73.424202,40.616602],[-73.424117,40.616015],[-73.42410000000001,40.615783],[-73.424093,40.615715],[-73.42406799999999,40.615401],[-73.424043,40.615252],[-73.423969,40.614801],[-73.42397,40.614658999999996],[-73.42397,40.614515999999995],[-73.423982,40.612210999999995],[-73.423974,40.612095],[-73.423946,40.611714],[-73.42392199999999,40.611366],[-73.423908,40.611236],[-73.423891,40.611055],[-73.423878,40.610915999999996],[-73.423864,40.610775],[-73.423813,40.609989999999996],[-73.423785,40.609499],[-73.423788,40.609201999999996],[-73.423872,40.600725],[-73.424911,40.56536],[-73.42531199999999,40.551718],[-73.42531,40.534265],[-73.441215,40.531709],[-73.465597,40.526106999999996],[-73.47098,40.524664],[-73.484946,40.520921],[-73.486496,40.520505],[-73.500947,40.521795999999995],[-73.501043,40.521805],[-73.512378,40.522818],[-73.517844,40.523306],[-73.52933,40.525152999999996],[-73.55008,40.528492],[-73.552674,40.528909],[-73.574877,40.530639],[-73.624574,40.534510999999995],[-73.628311,40.534512],[-73.70205399999999,40.53454],[-73.706094,40.534541999999995],[-73.749167,40.533995999999995],[-73.76878099999999,40.533747],[-73.768739,40.533873],[-73.76763,40.537152],[-73.76727199999999,40.538111],[-73.764932,40.544402],[-73.76223399999999,40.550202999999996],[-73.758256,40.555364],[-73.75804699999999,40.557268],[-73.756909,40.567651999999995],[-73.755701,40.578688],[-73.75556999999999,40.583093999999996],[-73.755567,40.583186],[-73.75550199999999,40.585387],[-73.755183,40.585649],[-73.752371,40.587965],[-73.752121,40.588181999999996],[-73.750978,40.589048999999996],[-73.747749,40.591502999999996],[-73.744469,40.592904],[-73.74382899999999,40.592870999999995],[-73.74360399999999,40.592859],[-73.74338,40.592847],[-73.743237,40.592839],[-73.74162799999999,40.592872],[-73.740019,40.592906],[-73.738468,40.592937],[-73.73839,40.592939],[-73.73723199999999,40.592963999999995],[-73.737185,40.592965],[-73.73722599999999,40.593047999999996],[-73.737414,40.593424999999996],[-73.737451,40.593604],[-73.737521,40.59392],[-73.73760399999999,40.594209],[-73.73763699999999,40.594415],[-73.737736,40.594785],[-73.73803699999999,40.595912999999996],[-73.738053,40.596143999999995],[-73.73812,40.597096],[-73.73813299999999,40.597286],[-73.73812199999999,40.597386],[-73.738089,40.597688],[-73.738075,40.597818],[-73.738185,40.598002],[-73.738309,40.598208],[-73.73828999999999,40.598389],[-73.737997,40.601600999999995],[-73.738001,40.601628],[-73.738151,40.602709999999995],[-73.73922499999999,40.604141999999996],[-73.740291,40.604597999999996],[-73.740571,40.60488],[-73.741148,40.60546],[-73.743147,40.60726],[-73.743355,40.607499],[-73.74307,40.607886],[-73.743206,40.608013],[-73.74338,40.608179],[-73.74354699999999,40.608422999999995],[-73.74387,40.608892999999995],[-73.744567,40.610116999999995],[-73.745368,40.611204],[-73.745633,40.611756],[-73.745663,40.611812],[-73.745761,40.611992],[-73.746855,40.611574],[-73.74694199999999,40.611775],[-73.747216,40.612179],[-73.747451,40.612072],[-73.747614,40.611998],[-73.747993,40.61231],[-73.748216,40.612010999999995],[-73.74911999999999,40.611793999999996],[-73.75008799999999,40.611641],[-73.750652,40.611453],[-73.753458,40.61052],[-73.75473199999999,40.610405],[-73.754947,40.610496999999995],[-73.755197,40.610594],[-73.757235,40.610993],[-73.75754599999999,40.611036999999996],[-73.75891,40.611205999999996],[-73.759334,40.611258],[-73.759631,40.611297],[-73.760021,40.611349],[-73.762084,40.612732],[-73.763454,40.61369],[-73.763476,40.613706],[-73.764349,40.614315999999995],[-73.765244,40.614942],[-73.766719,40.615004],[-73.766757,40.615283999999996],[-73.767459,40.620511],[-73.76757099999999,40.621477],[-73.768553,40.623155],[-73.76858399999999,40.623312999999996],[-73.76861,40.623373],[-73.768643,40.623431],[-73.768643,40.623492],[-73.76866799999999,40.623588999999996],[-73.768762,40.623760999999995],[-73.768757,40.623819999999995],[-73.768838,40.623951999999996],[-73.768805,40.624027],[-73.76883,40.6241],[-73.768777,40.624195],[-73.768784,40.624289],[-73.768761,40.624351999999995],[-73.768709,40.624386],[-73.768649,40.624466],[-73.768624,40.624584999999996],[-73.768604,40.624733],[-73.768563,40.624801],[-73.7685,40.624897],[-73.768418,40.624989],[-73.768326,40.625097],[-73.768293,40.625236],[-73.768269,40.625295],[-73.76825,40.625398],[-73.768154,40.625448999999996],[-73.768142,40.625462999999996],[-73.767933,40.625755],[-73.767782,40.625912],[-73.767772,40.625996],[-73.767758,40.626113],[-73.767708,40.626208],[-73.767507,40.626469],[-73.767425,40.626605999999995],[-73.748001,40.634631],[-73.746022,40.635211999999996],[-73.744177,40.637356],[-73.74394099999999,40.637541],[-73.743651,40.637769],[-73.743295,40.638048],[-73.742361,40.638093],[-73.741501,40.63785],[-73.74120099999999,40.637589999999996],[-73.741187,40.637412],[-73.74127,40.637257],[-73.742081,40.636381],[-73.742531,40.635715],[-73.74257999999999,40.635647999999996],[-73.742629,40.635537],[-73.742673,40.635408],[-73.74265,40.635045],[-73.742237,40.634851],[-73.741678,40.634837999999995],[-73.741095,40.634931],[-73.740802,40.634986],[-73.740141,40.63511],[-73.73996,40.635144],[-73.739471,40.635706],[-73.739558,40.635863],[-73.740284,40.637175],[-73.740662,40.637833],[-73.74103199999999,40.638476],[-73.741126,40.638656],[-73.741224,40.638828],[-73.741263,40.638905],[-73.741534,40.63923],[-73.742283,40.640121],[-73.741428,40.640502],[-73.742051,40.641473999999995],[-73.741873,40.641804],[-73.741759,40.642016],[-73.741661,40.642198],[-73.741643,40.64244],[-73.741632,40.642586],[-73.74162299999999,40.642716],[-73.741485,40.645247999999995],[-73.741468,40.645564],[-73.74144799999999,40.645942],[-73.74144,40.646086],[-73.741439,40.646345],[-73.74143699999999,40.646889],[-73.73919,40.648122],[-73.73904499999999,40.648201],[-73.738799,40.648297],[-73.73762599999999,40.648753],[-73.73746,40.648818],[-73.73697899999999,40.649004999999995],[-73.736735,40.649100000000004],[-73.735135,40.649732],[-73.734388,40.649820999999996],[-73.732208,40.650090999999996],[-73.731427,40.650171],[-73.731055,40.650231],[-73.730004,40.650479999999995],[-73.729739,40.650558],[-73.729497,40.650636],[-73.728991,40.650839],[-73.728703,40.650915999999995],[-73.72852999999999,40.650973],[-73.727024,40.651498],[-73.726873,40.651541],[-73.726818,40.651576999999996],[-73.726671,40.651685],[-73.72651499999999,40.651753],[-73.72643,40.651790999999996],[-73.72618899999999,40.651861],[-73.725946,40.651961],[-73.72568199999999,40.652058],[-73.72549599999999,40.652114999999995],[-73.725248,40.652193],[-73.72505199999999,40.652341],[-73.72498399999999,40.652678],[-73.72482099999999,40.65302],[-73.724874,40.653447],[-73.72478699999999,40.654001],[-73.725335,40.655324],[-73.725759,40.656998],[-73.725882,40.657537],[-73.725927,40.657731],[-73.726027,40.657996],[-73.72621099999999,40.658479],[-73.726444,40.659161999999995],[-73.72681,40.659794999999995],[-73.72720799999999,40.660422],[-73.727592,40.661094],[-73.727931,40.661749],[-73.72815299999999,40.662454],[-73.728331,40.663044],[-73.728085,40.663070999999995],[-73.727814,40.663224],[-73.727834,40.663976],[-73.727875,40.664694999999995],[-73.728107,40.665344999999995],[-73.72813699999999,40.665515],[-73.728224,40.665965],[-73.72827199999999,40.66644],[-73.728264,40.666606],[-73.728222,40.667314],[-73.728264,40.668073],[-73.728128,40.668707999999995],[-73.727992,40.669427],[-73.727926,40.670097],[-73.727941,40.670809],[-73.727846,40.67089],[-73.727676,40.671403],[-73.728004,40.67149],[-73.72807,40.671608],[-73.72791699999999,40.672339],[-73.727767,40.673066],[-73.727609,40.673863],[-73.72757399999999,40.674042],[-73.727542,40.67416],[-73.727441,40.674428999999996],[-73.727301,40.674738999999995],[-73.727141,40.675095999999996],[-73.726945,40.675551999999996],[-73.726851,40.675768999999995],[-73.726713,40.676089999999995],[-73.72654299999999,40.676487],[-73.726456,40.676747999999996],[-73.726355,40.676973],[-73.726198,40.677381],[-73.726011,40.678078],[-73.725903,40.678506999999996],[-73.725841,40.678753],[-73.725788,40.678962],[-73.72563,40.679587999999995],[-73.725687,40.68025],[-73.725714,40.680529],[-73.725754,40.680946],[-73.725796,40.68136],[-73.725824,40.681636],[-73.72590699999999,40.682657],[-73.725861,40.683223],[-73.725843,40.683575],[-73.725821,40.683949999999996],[-73.725798,40.684354],[-73.725878,40.685514],[-73.725911,40.686085],[-73.725918,40.686099],[-73.725926,40.686225],[-73.72594099999999,40.686399],[-73.725996,40.686932],[-73.726089,40.687774],[-73.726158,40.688469999999995],[-73.726175,40.688649999999996],[-73.7262,40.688984],[-73.72621699999999,40.689305999999995],[-73.726231,40.689659999999996],[-73.72623899999999,40.689814999999996],[-73.726259,40.690269],[-73.726258,40.690611],[-73.726263,40.690773],[-73.726503,40.696886],[-73.726509,40.697522],[-73.726511,40.697781],[-73.726525,40.698257999999996],[-73.72654399999999,40.698983],[-73.726654,40.701111999999995],[-73.726713,40.701448],[-73.726738,40.701588],[-73.726783,40.701986999999995],[-73.726751,40.702079999999995],[-73.726728,40.702146],[-73.72674599999999,40.702473],[-73.726762,40.702768],[-73.726767,40.702872],[-73.726772,40.702954],[-73.726779,40.703081999999995],[-73.726781,40.703145],[-73.726835,40.704406],[-73.726871,40.705237],[-73.726895,40.7058],[-73.727047,40.709497],[-73.726896,40.709976],[-73.7269,40.709997],[-73.72697099999999,40.710715],[-73.727086,40.711259],[-73.727094,40.711293],[-73.727165,40.711588],[-73.727317,40.712216],[-73.72733199999999,40.712272],[-73.727364,40.712392],[-73.72751099999999,40.712951],[-73.727698,40.713662],[-73.728064,40.715050999999995],[-73.728188,40.715523999999995],[-73.728313,40.715998],[-73.72841799999999,40.716391],[-73.728501,40.716705999999995],[-73.728554,40.716898],[-73.72857599999999,40.71698],[-73.72894,40.718306],[-73.729176,40.719167],[-73.729255,40.719381],[-73.729433,40.719865],[-73.729661,40.720483],[-73.72969499999999,40.720571],[-73.73032599999999,40.722156999999996],[-73.729652,40.722535],[-73.729559,40.72258],[-73.72914399999999,40.722763],[-73.728734,40.722913],[-73.728162,40.723084],[-73.727972,40.723158999999995],[-73.727328,40.723411999999996],[-73.727217,40.723456999999996],[-73.726838,40.723608],[-73.72647599999999,40.723752],[-73.726047,40.723904999999995],[-73.725672,40.724038],[-73.72508499999999,40.724196],[-73.724722,40.724314],[-73.724634,40.724336],[-73.724547,40.72436],[-73.724197,40.724455],[-73.723868,40.724544],[-73.723428,40.724663],[-73.722912,40.724793999999996],[-73.722579,40.724878],[-73.722047,40.725012],[-73.721733,40.725105],[-73.721193,40.725266999999995],[-73.721041,40.725305999999996],[-73.720913,40.725339],[-73.72038599999999,40.725474999999996],[-73.718288,40.726044],[-73.716684,40.726375],[-73.71585,40.726478],[-73.71495999999999,40.72659],[-73.714052,40.726704999999995],[-73.71242099999999,40.72691],[-73.7119,40.726976],[-73.711308,40.72705],[-73.71047,40.727173],[-73.709954,40.72728],[-73.70967,40.727346],[-73.70943199999999,40.727391],[-73.709081,40.727464],[-73.708556,40.727584],[-73.707647,40.727796],[-73.707582,40.72791],[-73.707129,40.728702],[-73.70648,40.729710999999995],[-73.705772,40.73073],[-73.705269,40.731513],[-73.704882,40.731981],[-73.704869,40.731997],[-73.704859,40.732015],[-73.704599,40.732502],[-73.70394499999999,40.733526],[-73.70352199999999,40.734207999999995],[-73.703315,40.734563],[-73.70259,40.73551],[-73.702411,40.735777999999996],[-73.70218899999999,40.73611],[-73.702004,40.736522],[-73.701471,40.737511999999995],[-73.700811,40.738439],[-73.700336,40.738948],[-73.700318,40.738968],[-73.70002699999999,40.739229],[-73.70001599999999,40.739272],[-73.700009,40.739323],[-73.70002,40.73939],[-73.700082,40.739765],[-73.70029199999999,40.74105],[-73.700582,40.743184],[-73.700768,40.745014],[-73.70087199999999,40.746866],[-73.700901,40.747129],[-73.701168,40.748864999999995],[-73.701342,40.750766999999996],[-73.701438,40.751332],[-73.701633,40.752493],[-73.702178,40.752886],[-73.70273499999999,40.753251],[-73.702968,40.753383],[-73.703203,40.753515],[-73.703336,40.753599],[-73.703468,40.753682999999995],[-73.705271,40.75477],[-73.70618999999999,40.755300999999996],[-73.707008,40.755758],[-73.707825,40.756215999999995],[-73.708129,40.756414],[-73.709374,40.757227],[-73.709501,40.75731],[-73.710112,40.757708],[-73.710606,40.75803],[-73.710858,40.758195],[-73.71134099999999,40.758513],[-73.711548,40.758649],[-73.712034,40.758967999999996],[-73.712108,40.759017],[-73.71244899999999,40.759242],[-73.712605,40.759328],[-73.712761,40.759415],[-73.712898,40.75949],[-73.713325,40.75973],[-73.713498,40.759831999999996],[-73.71363199999999,40.75992],[-73.713656,40.759935999999996],[-73.714126,40.760245],[-73.714438,40.76045],[-73.716459,40.761705],[-73.71658099999999,40.761784999999996],[-73.720073,40.764089],[-73.720233,40.764196],[-73.72034099999999,40.764268],[-73.720713,40.764531999999996],[-73.720809,40.764648],[-73.72104399999999,40.764809],[-73.721143,40.764873],[-73.72240099999999,40.765487],[-73.722484,40.765527],[-73.72317199999999,40.765924],[-73.723777,40.766278],[-73.725545,40.767495],[-73.72661,40.76813],[-73.727729,40.768802],[-73.727888,40.768898],[-73.72871099999999,40.769467999999996],[-73.72888999999999,40.769481999999996],[-73.729112,40.76981],[-73.729359,40.769765],[-73.729461,40.769943999999995],[-73.729706,40.770053999999995],[-73.730305,40.770410999999996],[-73.73113599999999,40.770869999999995],[-73.731963,40.771335],[-73.733042,40.771954],[-73.733893,40.772527],[-73.736873,40.774328],[-73.73771099999999,40.774799],[-73.737853,40.774879],[-73.738862,40.775573],[-73.73912399999999,40.775704],[-73.739307,40.775929],[-73.739376,40.776013999999996],[-73.739598,40.776075],[-73.74007999999999,40.776209],[-73.740366,40.77639],[-73.74076,40.776695],[-73.741535,40.777111],[-73.743421,40.778224],[-73.744107,40.778642],[-73.74421,40.778704999999995],[-73.745436,40.779497],[-73.74636799999999,40.78012],[-73.74680000000001,40.780378],[-73.747068,40.780546],[-73.74933399999999,40.781908],[-73.749664,40.782106],[-73.750295,40.782478],[-73.750337,40.782512],[-73.750458,40.78261],[-73.750817,40.782886999999995],[-73.756187,40.788703],[-73.757103,40.789691999999995],[-73.763712,40.793803],[-73.766229,40.79676],[-73.770899,40.802246],[-73.774869,40.806909999999995],[-73.778958,40.811713],[-73.780193,40.8264],[-73.77497699999999,40.830878999999996],[-73.77452,40.831272999999996],[-73.773429,40.832214],[-73.762174,40.841910999999996],[-73.76164,40.842372],[-73.757967,40.845535999999996],[-73.757801,40.845679],[-73.753787,40.856409],[-73.753732,40.856556],[-73.74806,40.871721],[-73.748004,40.871874],[-73.742499,40.875099],[-73.740597,40.876203],[-73.73138999999999,40.881553],[-73.7185,40.889044],[-73.70967399999999,40.894172999999995],[-73.698972,40.900394],[-73.694448,40.90305]]]}},{"type":"Feature","id":"36103","properties":{"STATEFP":"36","COUNTYFP":"103","COUNTYNS":"00974149","GEOID":"36103","NAME":"Suffolk","NAMELSAD":"Suffolk County","LSAD":"06","CLASSFP":"H1","MTFCC":"G4020","CSAFP":"408","CBSAFP":"35620","METDIVFP":"35004","FUNCSTAT":"A","ALAND":2361492153,"AWATER":3784901731,"INTPTLAT":"+40.9435540","INTPTLON":"-072.6922184"},"geometry":{"type":"Polygon","coordinates":[[[-72.86370699999999,41.113378999999995],[-72.863507,41.113417],[-72.86290699999999,41.113533],[-72.862708,41.113572],[-72.86218199999999,41.113673],[-72.86060599999999,41.113977999999996],[-72.860081,41.11408],[-72.857917,41.114498],[-72.851428,41.115753],[-72.849265,41.116172],[-72.848606,41.116299],[-72.846633,41.116679999999995],[-72.845975,41.116808],[-72.842345,41.117509],[-72.831457,41.119616],[-72.827828,41.120318],[-72.822885,41.121272999999995],[-72.815724,41.122658],[-72.80805699999999,41.12414],[-72.80362,41.124998999999995],[-72.80336799999999,41.125048],[-72.80311499999999,41.125097],[-72.801496,41.125403999999996],[-72.79664199999999,41.126326],[-72.795024,41.126633999999996],[-72.78589699999999,41.128367],[-72.75851899999999,41.13357],[-72.749393,41.135304999999995],[-72.74667699999999,41.135825],[-72.73853199999999,41.137389],[-72.735817,41.137910999999995],[-72.72759599999999,41.139488],[-72.70293699999999,41.144222],[-72.694717,41.1458],[-72.693972,41.145942],[-72.69174,41.14637],[-72.690996,41.146513],[-72.68229199999999,41.148179999999996],[-72.656181,41.153185],[-72.64747799999999,41.154854],[-72.62356199999999,41.159437],[-72.611352,41.161778],[-72.575225,41.168703],[-72.551816,41.173189],[-72.551563,41.173238],[-72.527901,41.177774],[-72.51760399999999,41.179724],[-72.486715,41.185578],[-72.47641899999999,41.187529999999995],[-72.475027,41.187793],[-72.470854,41.188584],[-72.469464,41.188848],[-72.459908,41.190658],[-72.431243,41.196092],[-72.421688,41.197903],[-72.42098899999999,41.198035],[-72.418892,41.198432],[-72.418194,41.198564999999995],[-72.41502299999999,41.199165],[-72.405514,41.200967999999996],[-72.402344,41.201569],[-72.40118,41.201789],[-72.39769199999999,41.20245],[-72.396529,41.202670999999995],[-72.38351899999999,41.205135999999996],[-72.344489,41.212533],[-72.33148,41.214999],[-72.331453,41.215004],[-72.315072,41.218108],[-72.26593299999999,41.227421],[-72.24955299999999,41.230526],[-72.249348,41.230563],[-72.248733,41.230672999999996],[-72.24852899999999,41.230711],[-72.242901,41.23173],[-72.22601999999999,41.234787999999995],[-72.220393,41.235808],[-72.213596,41.23704],[-72.21229,41.237277],[-72.204188,41.238744],[-72.1953,41.240355],[-72.193207,41.240733999999996],[-72.18641099999999,41.241965],[-72.18632099999999,41.241980999999996],[-72.18605099999999,41.242028999999995],[-72.185962,41.242045999999995],[-72.18574199999999,41.242084999999996],[-72.185082,41.242204],[-72.18486299999999,41.242245],[-72.17840000000001,41.243415999999996],[-72.15901199999999,41.246928],[-72.15254999999999,41.2481],[-72.150346,41.248498999999995],[-72.143737,41.249697999999995],[-72.141534,41.250098],[-72.13506799999999,41.251411],[-72.11567099999999,41.255351999999995],[-72.109206,41.256667],[-72.108476,41.256814999999996],[-72.10628899999999,41.257259],[-72.10556,41.257408],[-72.101012,41.258331999999996],[-72.09550999999999,41.25945],[-72.087368,41.261103],[-72.08546,41.261491],[-72.08413999999999,41.261759],[-72.08282,41.262026999999996],[-72.082629,41.262065],[-72.082055,41.262181999999996],[-72.081865,41.262221],[-72.081847,41.262223999999996],[-72.081792,41.262236],[-72.081775,41.26224],[-72.078835,41.263571],[-72.076126,41.2648],[-72.070477,41.26736],[-72.07001799999999,41.267567],[-72.068778,41.26813],[-72.06707899999999,41.2689],[-72.064678,41.269987],[-72.05747699999999,41.273250999999995],[-72.055077,41.274339],[-72.054493,41.274603],[-72.05274299999999,41.275396],[-72.05216,41.275661],[-72.051739,41.275850999999996],[-72.050478,41.276423],[-72.05005799999999,41.276613999999995],[-72.044592,41.279091],[-72.028196,41.286522],[-72.022731,41.289],[-72.021424,41.289592],[-72.01921399999999,41.290594],[-72.017399,41.291072],[-72.016012,41.291438],[-72.00868799999999,41.293368],[-72.00776499999999,41.293611999999996],[-71.999517,41.295786],[-71.99948599999999,41.295794],[-71.986561,41.298487],[-71.979147,41.300032],[-71.976418,41.3006],[-71.973689,41.301169],[-71.971278,41.301671],[-71.961243,41.303762],[-71.956746,41.304699],[-71.947672,41.306588999999995],[-71.939804,41.308229],[-71.935677,41.309089],[-71.929451,41.310387],[-71.923378,41.308771],[-71.919305,41.307688],[-71.916895,41.307047],[-71.909667,41.305124],[-71.907258,41.304483],[-71.879847,41.276246],[-71.874513,41.270686],[-71.858513,41.253696999999995],[-71.858425,41.253617999999996],[-71.854462,41.2501],[-71.809384,41.203235],[-71.791151,41.184281],[-71.790972,41.184101],[-71.79063599999999,41.125101],[-71.790635,41.101836999999996],[-71.78187199999999,41.096197],[-71.780704,41.092749999999995],[-71.77924399999999,41.088442],[-71.778137,41.081319],[-71.777491,41.077162],[-71.777491,41.067291999999995],[-71.782748,41.055307],[-71.794139,41.036977],[-71.808163,41.027812],[-71.837088,41.010892],[-71.86461899999999,41.000102],[-71.86528,40.999582],[-71.866084,40.999173],[-71.868009,40.998247],[-71.870139,40.996970999999995],[-71.872591,40.996067],[-71.874239,40.995599],[-71.87451,40.995456],[-71.876434,40.994718999999996],[-71.88097499999999,40.993452],[-71.88477499999999,40.992269],[-71.890841,40.99142],[-71.896835,40.990625],[-71.899907,40.990496],[-71.902545,40.989671],[-71.91004699999999,40.987897],[-71.919623,40.985516],[-71.92747,40.983308],[-71.931698,40.982496999999995],[-71.932751,40.981952],[-71.970135,40.967746],[-71.97966699999999,40.963941],[-71.999516,40.956019],[-72.050883,40.937588999999996],[-72.11411,40.915068999999995],[-72.124533,40.911356999999995],[-72.194875,40.886212],[-72.20858799999999,40.88131],[-72.225963,40.8751],[-72.24952499999999,40.866765],[-72.26454199999999,40.860979],[-72.321626,40.838982],[-72.374529,40.818594999999995],[-72.396531,40.812602999999996],[-72.456507,40.794995],[-72.499492,40.782376],[-72.541705,40.769909999999996],[-72.58819799999999,40.756181999999995],[-72.608854,40.750099],[-72.624539,40.745567],[-72.692655,40.728041999999995],[-72.728422,40.718838999999996],[-72.749544,40.713405],[-72.78244099999999,40.702377],[-72.807644,40.693928],[-72.82860699999999,40.686901],[-72.84911699999999,40.681596],[-72.87454199999999,40.675019],[-73.014004,40.625099],[-73.014044,40.625087],[-73.025706,40.621635999999995],[-73.032084,40.619527999999995],[-73.03898699999999,40.617889],[-73.045452,40.616284],[-73.051124,40.61488],[-73.054157,40.614177],[-73.059345,40.612871999999996],[-73.064093,40.611667],[-73.072007,40.609758],[-73.079128,40.608353],[-73.085149,40.607012999999995],[-73.09530099999999,40.605273],[-73.10334499999999,40.603396],[-73.11209099999999,40.601351],[-73.12020799999999,40.599407],[-73.124558,40.598366],[-73.249562,40.562565],[-73.249642,40.562565],[-73.264524,40.555696999999995],[-73.274025,40.551314],[-73.29144099999999,40.551314],[-73.31233999999999,40.554114999999996],[-73.326272,40.556916],[-73.343688,40.554116],[-73.378519,40.545713],[-73.406384,40.53731],[-73.42531,40.534265],[-73.42531199999999,40.551718],[-73.424911,40.56536],[-73.423872,40.600725],[-73.423788,40.609201999999996],[-73.423785,40.609499],[-73.423813,40.609989999999996],[-73.423864,40.610775],[-73.423878,40.610915999999996],[-73.423891,40.611055],[-73.423908,40.611236],[-73.42392199999999,40.611366],[-73.423946,40.611714],[-73.423974,40.612095],[-73.423982,40.612210999999995],[-73.42397,40.614515999999995],[-73.42397,40.614658999999996],[-73.423969,40.614801],[-73.424043,40.615252],[-73.42406799999999,40.615401],[-73.424093,40.615715],[-73.42410000000001,40.615783],[-73.424117,40.616015],[-73.424202,40.616602],[-73.424165,40.617039999999996],[-73.424151,40.617208],[-73.424111,40.617703],[-73.424099,40.617847],[-73.424099,40.617947],[-73.42414099999999,40.619710999999995],[-73.424143,40.619823],[-73.42415799999999,40.619907],[-73.424253,40.620829],[-73.424267,40.6211],[-73.424368,40.6231],[-73.424373,40.623207],[-73.424268,40.623701],[-73.424268,40.62374],[-73.424268,40.624573],[-73.424268,40.625406],[-73.424268,40.625955999999995],[-73.424268,40.626506],[-73.42426999999999,40.627486999999995],[-73.42429,40.627755],[-73.42432099999999,40.628105],[-73.424353,40.628454999999995],[-73.424381,40.628794],[-73.424384,40.628833],[-73.424478,40.629953],[-73.424572,40.631073],[-73.42486699999999,40.637902],[-73.424874,40.638071],[-73.424876,40.638115],[-73.42498499999999,40.639758],[-73.42534599999999,40.651818],[-73.425549,40.654610999999996],[-73.42557699999999,40.655902],[-73.425586,40.656290999999996],[-73.425291,40.656109],[-73.42388,40.655972999999996],[-73.42383199999999,40.656475],[-73.424121,40.657807999999996],[-73.42415299999999,40.658443],[-73.424083,40.658952],[-73.424168,40.659476999999995],[-73.424233,40.659645999999995],[-73.42429,40.660002],[-73.424227,40.660531],[-73.42428,40.660677],[-73.424306,40.660815],[-73.42446799999999,40.661127],[-73.424533,40.661342999999995],[-73.424543,40.661437],[-73.42449599999999,40.661587],[-73.424458,40.661662],[-73.424458,40.661877],[-73.424477,40.662468],[-73.42460799999999,40.663779999999996],[-73.424702,40.664521],[-73.424796,40.665074],[-73.424796,40.665351],[-73.42474,40.666199],[-73.424618,40.666272],[-73.424599,40.666309],[-73.424429,40.666643],[-73.42433199999999,40.666833],[-73.42429299999999,40.66691],[-73.423986,40.66751],[-73.42378599999999,40.667904],[-73.423358,40.668743],[-73.423315,40.669022999999996],[-73.423298,40.669132],[-73.42326899999999,40.670893],[-73.423253,40.670919999999995],[-73.423374,40.671464],[-73.42342599999999,40.671662],[-73.423463,40.671799],[-73.423568,40.672276],[-73.42357799999999,40.672319],[-73.423644,40.672616999999995],[-73.423722,40.672973999999996],[-73.42388199999999,40.673683],[-73.423918,40.67384],[-73.424128,40.675121],[-73.424517,40.6775],[-73.424572,40.677853999999996],[-73.424599,40.677991],[-73.424708,40.678675999999996],[-73.424741,40.678888],[-73.424753,40.67904],[-73.424758,40.679052],[-73.42477699999999,40.679089],[-73.424877,40.679718],[-73.42488399999999,40.67977],[-73.424886,40.679786],[-73.424917,40.679983],[-73.424979,40.680203],[-73.42502,40.680506],[-73.425054,40.680735999999996],[-73.425101,40.681049],[-73.42532299999999,40.682137999999995],[-73.42551399999999,40.683226999999995],[-73.42573999999999,40.68441],[-73.426074,40.686251],[-73.426112,40.686457999999995],[-73.42612799999999,40.686546],[-73.426166,40.686746],[-73.426216,40.687011],[-73.42640399999999,40.688007999999996],[-73.42662399999999,40.68917],[-73.42675299999999,40.689851],[-73.426982,40.691063],[-73.427315,40.692712],[-73.427381,40.693213],[-73.427387,40.693267999999996],[-73.42755,40.694676],[-73.427566,40.6948],[-73.427667,40.6952],[-73.427759,40.695706],[-73.427871,40.696283],[-73.428004,40.69699],[-73.428103,40.697513],[-73.42818199999999,40.69793],[-73.428192,40.697984],[-73.428255,40.698616],[-73.428314,40.698934],[-73.42837,40.699214999999995],[-73.428432,40.699523],[-73.42848599999999,40.699796],[-73.42859299999999,40.700328999999996],[-73.42864,40.700565],[-73.42870599999999,40.700860999999996],[-73.428867,40.7017],[-73.428896,40.701872],[-73.42907799999999,40.702931],[-73.429541,40.705185],[-73.429547,40.705214999999995],[-73.429859,40.706347],[-73.42989899999999,40.706482],[-73.429962,40.706699],[-73.430056,40.70709],[-73.430173,40.707516999999996],[-73.43043899999999,40.708532999999996],[-73.430702,40.709548],[-73.430883,40.710297],[-73.43091199999999,40.71045],[-73.430936,40.710575999999996],[-73.430955,40.710679999999996],[-73.430984,40.71095],[-73.43101,40.711195],[-73.431028,40.711366999999996],[-73.431213,40.711672],[-73.431006,40.711861999999996],[-73.43133399999999,40.712159],[-73.431074,40.712422],[-73.431157,40.712584],[-73.431139,40.712731],[-73.43112599999999,40.712831],[-73.43107499999999,40.713242],[-73.431091,40.713363],[-73.431159,40.713875],[-73.43118,40.714031],[-73.43131,40.715016999999996],[-73.431427,40.715711999999996],[-73.43143599999999,40.715768],[-73.431454,40.715893],[-73.431474,40.716038],[-73.431525,40.716394],[-73.431542,40.716511],[-73.431556,40.716581],[-73.431613,40.716854],[-73.43163899999999,40.717016],[-73.431664,40.717171],[-73.43166699999999,40.717199],[-73.431682,40.717273],[-73.431699,40.717358999999995],[-73.43172299999999,40.717478],[-73.431748,40.717603],[-73.431772,40.71772],[-73.43177899999999,40.717757],[-73.431786,40.717794],[-73.43179599999999,40.717841],[-73.43180000000001,40.717863],[-73.431821,40.717969],[-73.43188099999999,40.718292999999996],[-73.43193,40.718562],[-73.43197099999999,40.718785],[-73.43199299999999,40.718905],[-73.43205999999999,40.719211],[-73.432125,40.719508999999995],[-73.432175,40.71974],[-73.43219599999999,40.719846],[-73.432402,40.720907],[-73.432456,40.721187],[-73.432504,40.721427999999996],[-73.432649,40.722173999999995],[-73.432811,40.723009],[-73.432918,40.723444],[-73.432934,40.723538999999995],[-73.432943,40.723589],[-73.432951,40.723634],[-73.43300599999999,40.723925],[-73.433047,40.724149],[-73.433073,40.724292999999996],[-73.433109,40.724446],[-73.43315799999999,40.724689],[-73.433178,40.724790999999996],[-73.433208,40.724934999999995],[-73.433238,40.725046999999996],[-73.433245,40.725153],[-73.433257,40.725272],[-73.43327,40.725393],[-73.43328799999999,40.725480999999995],[-73.433386,40.725997],[-73.433509,40.726645],[-73.433585,40.727025],[-73.433635,40.727273],[-73.433775,40.727972],[-73.433894,40.728457999999996],[-73.43392899999999,40.728812],[-73.43407599999999,40.729476],[-73.43419,40.730239999999995],[-73.43428399999999,40.730596],[-73.434455,40.731243],[-73.434467,40.731308],[-73.434479,40.731383],[-73.43489799999999,40.733838],[-73.435082,40.734791],[-73.435188,40.73541],[-73.43536499999999,40.736439999999995],[-73.435509,40.737134],[-73.435651,40.738036],[-73.435662,40.738096],[-73.43567,40.73815],[-73.435677,40.738181],[-73.435684,40.738212999999995],[-73.435689,40.738234999999996],[-73.435695,40.738262999999996],[-73.4357,40.738285999999995],[-73.435704,40.738306],[-73.435861,40.738904999999995],[-73.43598899999999,40.739422],[-73.43600599999999,40.739458],[-73.43602,40.739526],[-73.43606199999999,40.739729],[-73.43609099999999,40.739871],[-73.436111,40.739964],[-73.436128,40.74005],[-73.43616,40.740204],[-73.43621,40.740442],[-73.436212,40.740455999999995],[-73.43621399999999,40.740466999999995],[-73.43623699999999,40.740575],[-73.43638299999999,40.741275],[-73.436486,40.741779],[-73.436588,40.742097],[-73.436663,40.742281],[-73.436668,40.742304999999995],[-73.436673,40.742332],[-73.436713,40.742564],[-73.437251,40.745694],[-73.43732,40.745917999999996],[-73.437383,40.746176999999996],[-73.437446,40.746437],[-73.43753099999999,40.746787],[-73.43757699999999,40.747009],[-73.43767,40.747451],[-73.437784,40.747994999999996],[-73.437821,40.748173],[-73.437934,40.748712999999995],[-73.437995,40.749006],[-73.4385,40.751311],[-73.43889399999999,40.753322999999995],[-73.43925399999999,40.755001],[-73.439529,40.756381999999995],[-73.439669,40.757408999999996],[-73.440146,40.759975],[-73.44022199999999,40.760414999999995],[-73.44051999999999,40.761638999999995],[-73.44055,40.761807],[-73.440609,40.762139],[-73.440967,40.764399],[-73.44196699999999,40.769898999999995],[-73.442549,40.772842],[-73.44315,40.775904],[-73.443264,40.776498],[-73.44351499999999,40.778317],[-73.444096,40.781606],[-73.444166,40.782001],[-73.444372,40.78262],[-73.444684,40.783532],[-73.44480999999999,40.783902],[-73.44481999999999,40.783992999999995],[-73.444867,40.784397999999996],[-73.44488,40.78451],[-73.44488799999999,40.784563],[-73.444942,40.784898],[-73.445003,40.785239],[-73.445019,40.785325],[-73.445022,40.785373],[-73.445022,40.785409],[-73.445025,40.785457],[-73.44511299999999,40.785557],[-73.445306,40.78593],[-73.445411,40.786525999999995],[-73.446057,40.790154],[-73.446102,40.79107],[-73.446455,40.792972],[-73.4467,40.794452],[-73.44693099999999,40.795881],[-73.448666,40.804418999999996],[-73.448706,40.80466],[-73.448747,40.804901],[-73.448763,40.804998999999995],[-73.448768,40.805318],[-73.449635,40.809729],[-73.449766,40.810398],[-73.45000499999999,40.8116],[-73.45190099999999,40.819685],[-73.45216599999999,40.822398],[-73.453366,40.829698],[-73.453401,40.829864],[-73.45349399999999,40.830306],[-73.453752,40.831621999999996],[-73.45388799999999,40.832316999999996],[-73.454172,40.834097],[-73.454625,40.835001],[-73.454578,40.835128],[-73.45467099999999,40.835907999999996],[-73.455261,40.840872],[-73.45536299999999,40.842593],[-73.45586,40.843467],[-73.456605,40.845112],[-73.45689899999999,40.846433],[-73.457008,40.846700999999996],[-73.457099,40.847010999999995],[-73.457141,40.847288999999996],[-73.45715799999999,40.847395999999996],[-73.457172,40.847541],[-73.457325,40.848098],[-73.457494,40.848712],[-73.45768799999999,40.849081],[-73.457709,40.849112999999996],[-73.459505,40.851774999999996],[-73.459542,40.85183],[-73.459578,40.851884],[-73.45963499999999,40.851991999999996],[-73.46059799999999,40.853812999999995],[-73.460706,40.853969],[-73.461439,40.855022999999996],[-73.462617,40.856719999999996],[-73.462797,40.856978],[-73.46295599999999,40.857206],[-73.463281,40.857928],[-73.463319,40.858011],[-73.46404,40.859499],[-73.464067,40.859553999999996],[-73.46375499999999,40.860761],[-73.462976,40.863856999999996],[-73.462259,40.86671],[-73.46253,40.867295],[-73.46255699999999,40.867295],[-73.463155,40.867309999999996],[-73.463855,40.867312],[-73.463855,40.867678],[-73.464036,40.867906999999995],[-73.464368,40.867975],[-73.467366,40.868097999999996],[-73.473466,40.874497999999996],[-73.474066,40.875098],[-73.476079,40.877111],[-73.477307,40.899249999999995],[-73.47846799999999,40.899792999999995],[-73.47855899999999,40.89987],[-73.479668,40.900801],[-73.47987599999999,40.901119],[-73.48002799999999,40.900974],[-73.48017899999999,40.901088],[-73.480239,40.901294],[-73.481871,40.903510999999995],[-73.482686,40.904402999999995],[-73.483563,40.905569],[-73.48371399999999,40.905912],[-73.48447,40.907123999999996],[-73.48571,40.909776],[-73.48586499999999,40.910215],[-73.486419,40.911784999999995],[-73.486952,40.913298],[-73.487043,40.913343999999995],[-73.487437,40.914991],[-73.487718,40.915506],[-73.487861,40.915768],[-73.488132,40.915768],[-73.48798,40.91515],[-73.488101,40.915081],[-73.488463,40.915172999999996],[-73.489007,40.91579],[-73.489702,40.91691],[-73.490308,40.918214],[-73.49061,40.918762],[-73.49061,40.919014],[-73.49074999999999,40.919191],[-73.490973,40.919471],[-73.491787,40.919829],[-73.491868,40.919864],[-73.49284399999999,40.920293],[-73.493313,40.920539],[-73.49550099999999,40.921686],[-73.49605199999999,40.92208],[-73.497035,40.922782],[-73.497132,40.922851],[-73.497374,40.923217],[-73.49738599999999,40.923434],[-73.497399,40.923663],[-73.497405,40.923766],[-73.497333,40.92396],[-73.497134,40.924498],[-73.497017,40.926190999999996],[-73.496777,40.927175],[-73.496599,40.927802],[-73.496387,40.928548],[-73.496027,40.929555],[-73.495786,40.929874999999996],[-73.495036,40.931934999999996],[-73.494406,40.934246],[-73.49335599999999,40.937380999999995],[-73.493445,40.937694],[-73.493963,40.939508],[-73.494024,40.93976],[-73.493932,40.940048],[-73.493783,40.940515],[-73.493693,40.940560999999995],[-73.493693,40.940698],[-73.49318199999999,40.941522],[-73.49282,40.941773999999995],[-73.49183099999999,40.94217],[-73.491674,40.942233],[-73.491042,40.942645],[-73.490017,40.943560999999995],[-73.488602,40.945324],[-73.48848199999999,40.945347],[-73.48818,40.945645],[-73.486733,40.946264],[-73.48621399999999,40.946445],[-73.484954,40.946883],[-73.484622,40.946929],[-73.484622,40.946746],[-73.484983,40.94622],[-73.48413699999999,40.945510999999996],[-73.480665,40.94357],[-73.47834,40.942519],[-73.476378,40.941995],[-73.475172,40.941418999999996],[-73.473601,40.94067],[-73.47091499999999,40.93994],[-73.46774599999999,40.938707],[-73.464365,40.937635],[-73.463776,40.937504],[-73.462525,40.937224],[-73.461107,40.937248],[-73.460624,40.937363],[-73.45984,40.937821],[-73.459237,40.937959],[-73.457095,40.937090999999995],[-73.455676,40.936749],[-73.453051,40.936223999999996],[-73.45225099999999,40.935936],[-73.45121,40.935562],[-73.450794,40.935519],[-73.450335,40.935471],[-73.448797,40.935106],[-73.44816999999999,40.93506],[-73.44725799999999,40.934992],[-73.446202,40.935244999999995],[-73.445298,40.935725999999995],[-73.443941,40.935908999999995],[-73.443247,40.936138],[-73.442161,40.936184999999995],[-73.440803,40.935842],[-73.439385,40.935224999999996],[-73.438239,40.935179999999995],[-73.437575,40.93502],[-73.43673,40.934563],[-73.436398,40.93429],[-73.434285,40.932551],[-73.433319,40.931957],[-73.432957,40.931671],[-73.43259499999999,40.931385],[-73.432051,40.930676],[-73.431478,40.930195999999995],[-73.43069299999999,40.929784999999995],[-73.43015,40.929282],[-73.429878,40.928756],[-73.429648,40.928157],[-73.429388,40.928442],[-73.429249,40.928594],[-73.429448,40.933993],[-73.429549,40.936296999999996],[-73.429615,40.937809],[-73.430808,40.964310999999995],[-73.43130599999999,40.975366],[-73.431806,40.986487],[-73.431919,40.989008999999996],[-73.423452,40.990793],[-73.398054,40.996147],[-73.389588,40.997932],[-73.388429,40.998151],[-73.384952,40.99881],[-73.383794,40.99903],[-73.383516,40.999082],[-73.382685,40.99924],[-73.382408,40.999293],[-73.38156,40.999452999999995],[-73.379019,40.999935],[-73.37817199999999,41.000097],[-73.377449,41.000288999999995],[-73.375282,41.000867],[-73.37456,41.001059999999995],[-73.35896699999999,41.004214],[-73.312189,41.013675],[-73.29659699999999,41.01683],[-73.296564,41.016836999999995],[-73.295532,41.017044999999996],[-73.29243699999999,41.017671],[-73.291406,41.01788],[-73.288203,41.018527999999996],[-73.278594,41.020471],[-73.275392,41.021119999999996],[-73.27420599999999,41.021338],[-73.27301899999999,41.021556],[-73.270225,41.022068999999995],[-73.261288,41.023711],[-73.254724,41.024916],[-73.249557,41.025866],[-73.24916,41.025957],[-73.247968,41.026233],[-73.24757199999999,41.026326],[-73.24632799999999,41.026613999999995],[-73.24259599999999,41.027477999999995],[-73.241353,41.027767],[-73.240725,41.027912],[-73.23884,41.028348],[-73.238213,41.028493999999995],[-73.236929,41.028811],[-73.23308,41.029764],[-73.231797,41.030083],[-73.231258,41.030187],[-73.229642,41.030499],[-73.22910399999999,41.030604],[-73.227588,41.030984],[-73.223039,41.032125],[-73.221524,41.032506],[-73.221059,41.032621999999996],[-73.22059399999999,41.032739],[-73.213914,41.034414999999996],[-73.202035,41.037396],[-73.191085,41.040141999999996],[-73.183476,41.042052],[-73.18242699999999,41.042308],[-73.17927999999999,41.043079],[-73.178232,41.043336],[-73.178086,41.043371],[-73.17765,41.043478],[-73.177505,41.043513999999995],[-73.17697,41.043645],[-73.175365,41.044038],[-73.17483,41.044169],[-73.171703,41.044934],[-73.162322,41.047233],[-73.159195,41.047999],[-73.15684399999999,41.048573999999995],[-73.149791,41.050301999999995],[-73.147441,41.050878],[-73.141594,41.052309],[-73.124056,41.056605999999995],[-73.11820999999999,41.058039],[-73.104957,41.061285],[-73.0652,41.071025],[-73.051948,41.074272],[-73.046463,41.075615],[-73.030008,41.079646],[-73.024524,41.08099],[-73.019528,41.082212999999996],[-73.004542,41.085884],[-72.99954699999999,41.087108],[-72.995498,41.08789],[-72.98335399999999,41.09024],[-72.979306,41.091023],[-72.965499,41.093692],[-72.92408,41.101703],[-72.910274,41.104372999999995],[-72.905531,41.105289],[-72.891302,41.108041],[-72.88656,41.108959],[-72.885768,41.109111],[-72.883392,41.109570999999995],[-72.882601,41.109725],[-72.878822,41.110454999999995],[-72.867485,41.112648],[-72.86370699999999,41.113378999999995]]]}},{"type":"Feature","id":"36119","properties":{"STATEFP":"36","COUNTYFP":"119","COUNTYNS":"00974157","GEOID":"36119","NAME":"Westchester","NAMELSAD":"Westchester County","LSAD":"06","CLASSFP":"H1","MTFCC":"G4020","CSAFP":"408","CBSAFP":"35620","METDIVFP":"35614","FUNCSTAT":"A","ALAND":1115165961,"AWATER":179810252,"INTPTLAT":"+41.1527698","INTPTLON":"-073.7459120"},"geometry":{"type":"Polygon","coordinates":[[[-73.909281,41.164395],[-73.911681,41.167795],[-73.91438099999999,41.174195],[-73.921697,41.186288],[-73.921882,41.186594],[-73.925682,41.195194],[-73.927229,41.198038],[-73.928782,41.200894],[-73.929783,41.202414999999995],[-73.930003,41.202749],[-73.931482,41.204994],[-73.935982,41.209894],[-73.936782,41.210814],[-73.939983,41.214493999999995],[-73.944683,41.219594],[-73.947683,41.222794],[-73.947965,41.223101],[-73.950947,41.226346],[-73.951083,41.226493999999995],[-73.953283,41.228994],[-73.957983,41.231694],[-73.961383,41.234193999999995],[-73.96078299999999,41.239394],[-73.961283,41.241994],[-73.963884,41.243694],[-73.964142,41.243851],[-73.970519,41.247732],[-73.970784,41.247893],[-73.97198399999999,41.251492999999996],[-73.972284,41.256192999999996],[-73.97148399999999,41.259592999999995],[-73.969684,41.263193],[-73.966884,41.267193],[-73.964184,41.269993],[-73.961529,41.27242],[-73.957183,41.276393],[-73.955445,41.277862],[-73.952045,41.280736],[-73.95194699999999,41.280818],[-73.94748299999999,41.284593],[-73.946283,41.286193],[-73.94578299999999,41.287593],[-73.945883,41.289493],[-73.94658299999999,41.290993],[-73.949083,41.292593],[-73.95518299999999,41.294993],[-73.964483,41.299693],[-73.966983,41.301693],[-73.971784,41.307293],[-73.97748399999999,41.312093],[-73.98098399999999,41.314192999999996],[-73.983284,41.317392999999996],[-73.98308399999999,41.319693],[-73.983026,41.319924],[-73.982584,41.321692999999996],[-73.979528,41.322105],[-73.979461,41.322109],[-73.979354,41.322115],[-73.97815299999999,41.322252],[-73.97618,41.322478],[-73.97473099999999,41.32269],[-73.961958,41.323957],[-73.96019,41.324146999999996],[-73.960043,41.324161],[-73.95230000000001,41.324918],[-73.947142,41.325582],[-73.934533,41.326845999999996],[-73.931781,41.327121999999996],[-73.931645,41.327137],[-73.929807,41.327337],[-73.929568,41.327360999999996],[-73.92745,41.327573],[-73.927171,41.327604],[-73.926846,41.327639999999995],[-73.926768,41.327649],[-73.926649,41.327642],[-73.92633099999999,41.327676],[-73.92594799999999,41.327717],[-73.925468,41.327767],[-73.924487,41.327872],[-73.92436,41.327884999999995],[-73.923733,41.327951999999996],[-73.920588,41.328286999999996],[-73.918286,41.328531999999996],[-73.915239,41.328857],[-73.91511299999999,41.328869999999995],[-73.91495499999999,41.328885],[-73.914812,41.328897999999995],[-73.91402699999999,41.32897],[-73.91310399999999,41.329056],[-73.911046,41.329344],[-73.910245,41.329397],[-73.909898,41.329378999999996],[-73.909829,41.329375999999996],[-73.909707,41.329377],[-73.90968,41.329377],[-73.90950000000001,41.329378],[-73.909309,41.329366],[-73.90928699999999,41.329367],[-73.909232,41.329367999999995],[-73.909157,41.32937],[-73.90872499999999,41.329395999999996],[-73.908236,41.329453],[-73.904794,41.329705],[-73.901864,41.330011999999996],[-73.900556,41.330149],[-73.89345999999999,41.330892],[-73.893115,41.330951],[-73.893029,41.330966],[-73.892926,41.330982999999996],[-73.892256,41.330954],[-73.891427,41.330993],[-73.890602,41.331071],[-73.89014499999999,41.331123999999996],[-73.88973899999999,41.331171999999995],[-73.889692,41.331176],[-73.889235,41.331272],[-73.888925,41.331339],[-73.888902,41.331337999999995],[-73.88887799999999,41.331336],[-73.888465,41.331419],[-73.88826399999999,41.331455999999996],[-73.88817999999999,41.331472],[-73.888093,41.331475999999995],[-73.88776299999999,41.331491],[-73.887198,41.331517],[-73.88717299999999,41.331519],[-73.886425,41.331609],[-73.886374,41.331613999999995],[-73.88551,41.331697999999996],[-73.884778,41.331787999999996],[-73.88470000000001,41.331798],[-73.883878,41.331862],[-73.883787,41.331869],[-73.8833,41.331956],[-73.882735,41.332043],[-73.881819,41.332242],[-73.88118899999999,41.33238],[-73.88040099999999,41.332550999999995],[-73.880213,41.332575],[-73.880009,41.332609],[-73.879948,41.332623],[-73.879874,41.332626],[-73.878744,41.332678],[-73.875119,41.332785],[-73.874538,41.332909],[-73.87444599999999,41.332929],[-73.873801,41.332989999999995],[-73.873159,41.333051],[-73.87165999999999,41.333219],[-73.864299,41.334081],[-73.863779,41.334122],[-73.86201,41.334264],[-73.856771,41.33488],[-73.845821,41.335906],[-73.842703,41.336197999999996],[-73.841776,41.336296999999995],[-73.839976,41.336456999999996],[-73.839925,41.336461],[-73.838298,41.336605999999996],[-73.83799499999999,41.336633],[-73.836061,41.336805],[-73.83426899999999,41.336965],[-73.834119,41.336988999999996],[-73.83375,41.337049],[-73.83315499999999,41.337185999999996],[-73.829988,41.337503],[-73.824305,41.338071],[-73.822273,41.338223],[-73.816622,41.338775],[-73.816037,41.338823999999995],[-73.81590299999999,41.338834999999996],[-73.815502,41.338874],[-73.812416,41.339175999999995],[-73.806996,41.339707],[-73.80678999999999,41.339728],[-73.806649,41.339742],[-73.805016,41.339906],[-73.801171,41.340294],[-73.799844,41.340427999999996],[-73.798776,41.340536],[-73.798191,41.340585],[-73.797456,41.340647],[-73.795318,41.340875],[-73.795124,41.340896],[-73.794793,41.340934],[-73.794673,41.340948],[-73.79409199999999,41.341015999999996],[-73.78826,41.341736999999995],[-73.787988,41.34177],[-73.786407,41.341891],[-73.785962,41.341924999999996],[-73.785287,41.341989],[-73.780236,41.342465999999995],[-73.780007,41.342492],[-73.77632,41.342909999999996],[-73.772054,41.343393],[-73.771839,41.343416999999995],[-73.77100399999999,41.343511],[-73.76695699999999,41.343928999999996],[-73.766869,41.343938],[-73.766052,41.344023],[-73.765879,41.344041],[-73.764484,41.344187],[-73.75823199999999,41.344837999999996],[-73.757916,41.344871],[-73.757605,41.344904],[-73.757286,41.344938],[-73.75312199999999,41.345341999999995],[-73.753068,41.345346],[-73.752876,41.345366],[-73.740095,41.346682],[-73.735816,41.347122999999996],[-73.735219,41.347203],[-73.735162,41.347212],[-73.734672,41.347288],[-73.734155,41.347328],[-73.734123,41.34733],[-73.733497,41.347379],[-73.733215,41.347408],[-73.732061,41.347525999999995],[-73.730876,41.347646999999995],[-73.730391,41.347697],[-73.72986,41.347750999999995],[-73.729801,41.347757],[-73.727744,41.347966],[-73.727501,41.347991],[-73.726854,41.348054],[-73.726339,41.348106],[-73.72520999999999,41.348217999999996],[-73.724035,41.348394],[-73.720805,41.348718],[-73.719804,41.348818],[-73.718674,41.348932999999995],[-73.71744699999999,41.349059],[-73.69994,41.350854999999996],[-73.698779,41.350974],[-73.69476499999999,41.351386999999995],[-73.689493,41.351929999999996],[-73.68209399999999,41.352692999999995],[-73.68194,41.352708],[-73.681676,41.352736],[-73.672658,41.353795999999996],[-73.672139,41.353805],[-73.671686,41.353857],[-73.670005,41.354053],[-73.661625,41.354979],[-73.660972,41.354985],[-73.660905,41.354994],[-73.660776,41.355008999999995],[-73.660619,41.355025999999995],[-73.66054299999999,41.355035],[-73.660232,41.355064],[-73.659871,41.355098999999996],[-73.659579,41.355128],[-73.659527,41.355132999999995],[-73.659031,41.355183],[-73.65664799999999,41.355419999999995],[-73.64324599999999,41.35676],[-73.64124799999999,41.356974],[-73.639056,41.357253],[-73.638605,41.357251999999995],[-73.638184,41.357307999999996],[-73.63817,41.35731],[-73.63788,41.357347999999995],[-73.637481,41.357358],[-73.628491,41.358180999999995],[-73.624572,41.35854],[-73.614389,41.359474],[-73.599938,41.360802],[-73.59982699999999,41.360813],[-73.596621,41.361128],[-73.593929,41.361286],[-73.58719099999999,41.362058999999995],[-73.58613,41.362182],[-73.58605899999999,41.362189],[-73.58568199999999,41.362231],[-73.58487,41.362321],[-73.57566299999999,41.363285],[-73.575048,41.363333999999995],[-73.57494,41.363341],[-73.57465599999999,41.363361],[-73.574201,41.363394],[-73.573436,41.363489],[-73.572969,41.36353],[-73.572572,41.363569999999996],[-73.57247799999999,41.363579],[-73.57239799999999,41.363586999999995],[-73.56024,41.36485],[-73.54472799999999,41.366375],[-73.544806,41.365758],[-73.545042,41.36391],[-73.545121,41.363293999999996],[-73.545155,41.362938],[-73.54525799999999,41.361871],[-73.545293,41.361515999999995],[-73.545649,41.357838],[-73.545968,41.354856],[-73.54597,41.354842999999995],[-73.54620899999999,41.352606],[-73.54628199999999,41.351821],[-73.546919,41.344941],[-73.547089,41.343117],[-73.547123,41.342836],[-73.547904,41.33654],[-73.54804899999999,41.335376],[-73.548142,41.334438999999996],[-73.548236,41.333459],[-73.548238,41.333405],[-73.548609,41.329982],[-73.548626,41.329800999999996],[-73.548973,41.326291999999995],[-73.549088,41.325134],[-73.54929299999999,41.319581],[-73.54948,41.316745999999995],[-73.549602,41.307109],[-73.54968699999999,41.305389999999996],[-73.549859,41.301905999999995],[-73.54987899999999,41.301522],[-73.550962,41.295421],[-73.548845,41.292969],[-73.548114,41.292094999999996],[-73.543555,41.286577],[-73.540717,41.283144],[-73.54059699999999,41.282999],[-73.538387,41.280384999999995],[-73.53688199999999,41.278604],[-73.536703,41.278391],[-73.536677,41.27836],[-73.528554,41.268749],[-73.526316,41.266101],[-73.52628299999999,41.266062],[-73.525712,41.265347999999996],[-73.525297,41.264832],[-73.52523,41.264764],[-73.52520799999999,41.26473],[-73.524763,41.264226],[-73.52374499999999,41.263071],[-73.523662,41.262969999999996],[-73.52341799999999,41.262684],[-73.51750899999999,41.255525999999996],[-73.517496,41.255508],[-73.51746399999999,41.255465],[-73.517456,41.255455],[-73.512948,41.250094999999995],[-73.512937,41.250081],[-73.512905,41.250040999999996],[-73.512895,41.250028],[-73.51230799999999,41.249302],[-73.510548,41.247124],[-73.509962,41.246399],[-73.509862,41.246275999999995],[-73.50832199999999,41.244375999999995],[-73.506491,41.242117],[-73.504989,41.240263999999996],[-73.504374,41.239505],[-73.50340299999999,41.238307999999996],[-73.502659,41.237389],[-73.502636,41.237355],[-73.502532,41.237227999999995],[-73.501764,41.236286],[-73.501699,41.236205999999996],[-73.50147299999999,41.235929999999996],[-73.5014,41.235839],[-73.501233,41.235634999999995],[-73.501012,41.235363],[-73.49889,41.232763],[-73.49645199999999,41.229773],[-73.491407,41.223588],[-73.48854,41.220076],[-73.487977,41.219387],[-73.486327,41.217321],[-73.483925,41.214312],[-73.48269499999999,41.212772],[-73.484898,41.211748],[-73.485002,41.2117],[-73.485109,41.211652],[-73.485343,41.211543],[-73.486837,41.210915],[-73.48747399999999,41.210549],[-73.488412,41.210006],[-73.491728,41.208577],[-73.493962,41.207616],[-73.494224,41.207504],[-73.494559,41.207358],[-73.494613,41.207336],[-73.495002,41.207167999999996],[-73.495452,41.206973999999995],[-73.495565,41.206925],[-73.495901,41.206781],[-73.503958,41.203312],[-73.509174,41.20093],[-73.510149,41.200503],[-73.51157599999999,41.19988],[-73.511608,41.19988],[-73.511704,41.199839],[-73.51173,41.199811],[-73.51280299999999,41.199374999999996],[-73.513863,41.1989],[-73.513993,41.198854],[-73.514179,41.198732],[-73.516786,41.197462],[-73.516927,41.197393],[-73.517068,41.197325],[-73.52098,41.19542],[-73.521164,41.195339],[-73.521597,41.195145],[-73.522337,41.194815],[-73.52252299999999,41.194713],[-73.52256299999999,41.194691999999996],[-73.523082,41.194413],[-73.523342,41.194289],[-73.523675,41.194137],[-73.52374999999999,41.194103],[-73.52377,41.194098],[-73.52426,41.193932],[-73.524542,41.193774999999995],[-73.52484,41.193611],[-73.525303,41.193415],[-73.526029,41.19311],[-73.52628899999999,41.193000000000005],[-73.529107,41.191674],[-73.535884,41.188489],[-73.535996,41.188435],[-73.54001199999999,41.186606],[-73.54005,41.186595],[-73.548998,41.182567999999996],[-73.551468,41.181458],[-73.553772,41.180381],[-73.55389,41.180326],[-73.554009,41.180271],[-73.554711,41.179942],[-73.554783,41.179908999999995],[-73.554874,41.179866],[-73.555059,41.179781],[-73.555159,41.179733999999996],[-73.55525899999999,41.179687],[-73.555374,41.179634],[-73.555488,41.17958],[-73.555954,41.179362999999995],[-73.556027,41.179328999999996],[-73.556107,41.179292],[-73.557665,41.178565],[-73.557841,41.178481999999995],[-73.55837,41.178235],[-73.55854699999999,41.178152999999995],[-73.559508,41.177704],[-73.562394,41.176356999999996],[-73.563356,41.175909],[-73.563636,41.175777],[-73.564478,41.175385],[-73.564759,41.175255],[-73.564942,41.175169],[-73.565035,41.175132],[-73.56587999999999,41.174800000000005],[-73.56616199999999,41.17469],[-73.567312,41.174161],[-73.570764,41.172578],[-73.570875,41.172528],[-73.57191499999999,41.172050999999996],[-73.57327599999999,41.171426],[-73.577359,41.169554],[-73.578721,41.168929999999996],[-73.57880399999999,41.168892],[-73.579056,41.168779],[-73.57914,41.168741999999995],[-73.580542,41.168107],[-73.584209,41.166447999999995],[-73.584549,41.166294],[-73.584711,41.166219999999996],[-73.58475,41.166202],[-73.585241,41.165980999999995],[-73.585612,41.165813],[-73.58581199999999,41.165721999999995],[-73.58587899999999,41.165692],[-73.586019,41.165628999999996],[-73.586086,41.165597999999996],[-73.586153,41.165568],[-73.587287,41.165054],[-73.58841,41.164546],[-73.589321,41.164136],[-73.590693,41.163515],[-73.59182799999999,41.163002],[-73.592862,41.162577999999996],[-73.59596599999999,41.16131],[-73.59700099999999,41.160888],[-73.597022,41.160866999999996],[-73.597088,41.160806],[-73.597098,41.160787],[-73.59711,41.160786],[-73.597245,41.160658999999995],[-73.59728299999999,41.160638999999996],[-73.597894,41.160325],[-73.598098,41.160221],[-73.598152,41.160198],[-73.598334,41.1601],[-73.598517,41.160005999999996],[-73.59977099999999,41.159363],[-73.599875,41.15931],[-73.60019,41.159149],[-73.60125599999999,41.158671],[-73.604458,41.157236999999995],[-73.605525,41.15676],[-73.605947,41.156569999999995],[-73.606178,41.156468],[-73.607215,41.156003],[-73.607638,41.155814],[-73.607675,41.155797],[-73.60778599999999,41.155747],[-73.607824,41.155730999999996],[-73.608532,41.155412999999996],[-73.608961,41.15522],[-73.612374,41.153693],[-73.613512,41.153183999999996],[-73.613619,41.153137],[-73.613683,41.153106],[-73.613959,41.152977],[-73.61401099999999,41.152953],[-73.61404499999999,41.152937],[-73.614206,41.152862],[-73.614367,41.152786],[-73.614643,41.152662],[-73.615472,41.152294],[-73.615749,41.152170999999996],[-73.617434,41.151407],[-73.622089,41.149299],[-73.622489,41.149117],[-73.624174,41.148354],[-73.62435099999999,41.148258999999996],[-73.624571,41.148309999999995],[-73.62458099999999,41.148305],[-73.62576299999999,41.147777999999995],[-73.626158,41.147603],[-73.626685,41.147366999999996],[-73.62826799999999,41.146663],[-73.628796,41.146429],[-73.62906,41.14631],[-73.62928099999999,41.146209999999996],[-73.629486,41.14611],[-73.63020999999999,41.145792],[-73.632328,41.144753],[-73.633527,41.144162],[-73.6337,41.144076999999996],[-73.633827,41.14403],[-73.633858,41.144017999999996],[-73.63392999999999,41.143992],[-73.634456,41.14376],[-73.634648,41.143688999999995],[-73.634715,41.143678],[-73.634736,41.143677],[-73.634749,41.143651999999996],[-73.63485899999999,41.143612],[-73.635014,41.143547999999996],[-73.63550099999999,41.143347999999996],[-73.63563599999999,41.143285999999996],[-73.636014,41.143229],[-73.63735299999999,41.142631],[-73.637723,41.142337],[-73.637748,41.142317999999996],[-73.637765,41.142311],[-73.63967199999999,41.141496],[-73.644074,41.139500999999996],[-73.64420799999999,41.13944],[-73.651581,41.136137],[-73.651673,41.136095999999995],[-73.65437299999999,41.134796],[-73.65535299999999,41.134262],[-73.655436,41.134215999999995],[-73.655473,41.134195999999996],[-73.655633,41.134142],[-73.65597,41.134029999999996],[-73.656071,41.133995],[-73.65608399999999,41.133989],[-73.656122,41.133972],[-73.656136,41.133967],[-73.660573,41.131996],[-73.660873,41.131796],[-73.66096,41.131758],[-73.661121,41.131685999999995],[-73.661607,41.131474],[-73.66176899999999,41.131403],[-73.664973,41.129996],[-73.66564699999999,41.129669],[-73.665831,41.129579],[-73.66590699999999,41.129543],[-73.665931,41.129518],[-73.66721199999999,41.128913],[-73.66780399999999,41.128628],[-73.668026,41.128519],[-73.669687,41.127756999999995],[-73.669805,41.127702],[-73.669934,41.127643],[-73.676417,41.124666999999995],[-73.676774,41.124496],[-73.679022,41.123419999999996],[-73.68607399999999,41.120096],[-73.68926499999999,41.118594],[-73.68947399999999,41.118496],[-73.695005,41.115773],[-73.69595799999999,41.115303999999995],[-73.69605299999999,41.115255999999995],[-73.700003,41.113659999999996],[-73.70070299999999,41.113377],[-73.702733,41.112241999999995],[-73.70284,41.112182999999995],[-73.703153,41.112023],[-73.703299,41.111948999999996],[-73.703445,41.111875],[-73.703542,41.111824999999996],[-73.703619,41.111795],[-73.705534,41.111061],[-73.705674,41.110996],[-73.705814,41.110929999999996],[-73.70586999999999,41.110904],[-73.7059,41.11089],[-73.70602099999999,41.110834],[-73.712225,41.10792],[-73.712272,41.1079],[-73.71296,41.107609],[-73.713403,41.107403],[-73.71355,41.107334],[-73.713649,41.107291],[-73.713765,41.107244],[-73.727775,41.100696],[-73.726845,41.099425],[-73.726821,41.099391999999995],[-73.72651499999999,41.098973],[-73.72621199999999,41.098559],[-73.72617199999999,41.098501],[-73.725334,41.097277999999996],[-73.72514199999999,41.096998],[-73.72496,41.096733],[-73.724795,41.096491],[-73.724777,41.096464999999995],[-73.72361599999999,41.094769],[-73.723471,41.094563],[-73.723382,41.094437],[-73.72270999999999,41.093776],[-73.722109,41.093202999999995],[-73.72172599999999,41.092836999999996],[-73.721666,41.092779],[-73.721218,41.092361],[-73.721018,41.092157],[-73.720576,41.09175],[-73.71940000000001,41.090665],[-73.719354,41.090623],[-73.718839,41.090146999999995],[-73.71867499999999,41.089996],[-73.71797,41.089115],[-73.71787499999999,41.088996],[-73.717737,41.088803],[-73.71767899999999,41.088715],[-73.717063,41.087790999999996],[-73.71580999999999,41.086234],[-73.71547799999999,41.085809999999995],[-73.71544999999999,41.085772999999996],[-73.715148,41.085387],[-73.713796,41.083635],[-73.711924,41.081261],[-73.711846,41.081161],[-73.711613,41.080864],[-73.711536,41.080765],[-73.710393,41.079302999999996],[-73.706304,41.074070999999996],[-73.705705,41.073305],[-73.70556499999999,41.073125],[-73.705073,41.072494999999996],[-73.701555,41.068188],[-73.696483,41.061976],[-73.696415,41.061892],[-73.696252,41.061693],[-73.696173,41.061596],[-73.694681,41.05979],[-73.694206,41.059331],[-73.693952,41.059004],[-73.69349,41.058473],[-73.693152,41.058060999999995],[-73.69304,41.057925],[-73.692865,41.057711],[-73.692346,41.057142999999996],[-73.691481,41.056022],[-73.691251,41.05573],[-73.691014,41.05543],[-73.69071699999999,41.055046999999995],[-73.689826,41.0539],[-73.689529,41.053518],[-73.68885,41.052537],[-73.688418,41.052023999999996],[-73.68789,41.051528999999995],[-73.687173,41.050697],[-73.687009,41.050487],[-73.686955,41.050418],[-73.68690099999999,41.050349],[-73.686833,41.050262],[-73.686765,41.050174999999996],[-73.685718,41.048839],[-73.68296,41.045314],[-73.682947,41.045303],[-73.682473,41.044697],[-73.681845,41.043969],[-73.679771,41.041944],[-73.679754,41.041923],[-73.679512,41.04165],[-73.67927499999999,41.041384],[-73.678904,41.040901999999996],[-73.678776,41.040732999999996],[-73.678562,41.040400000000005],[-73.67853699999999,41.040371],[-73.677463,41.039124],[-73.677444,41.039102],[-73.67705699999999,41.038652],[-73.67657899999999,41.038097],[-73.676485,41.037982],[-73.676233,41.037676999999995],[-73.67618499999999,41.037617999999995],[-73.676088,41.037504999999996],[-73.675918,41.037306],[-73.675743,41.037002],[-73.675651,41.036895],[-73.67559899999999,41.036836],[-73.675575,41.036812999999995],[-73.675546,41.036784999999995],[-73.675501,41.036739],[-73.67548699999999,41.036724],[-73.67539599999999,41.036629999999995],[-73.675345,41.036576],[-73.67533,41.036561],[-73.675311,41.036541],[-73.675225,41.036445],[-73.675191,41.036407],[-73.675123,41.036331],[-73.675103,41.036305999999996],[-73.67499,41.036167999999996],[-73.674922,41.036085],[-73.674804,41.035941],[-73.674517,41.035626],[-73.673707,41.034637],[-73.673097,41.033910999999996],[-73.672718,41.033471999999996],[-73.671927,41.032534],[-73.671832,41.032421],[-73.671767,41.032343999999995],[-73.67141099999999,41.031925],[-73.67134999999999,41.031852],[-73.67107399999999,41.031527],[-73.671054,41.031498],[-73.67102299999999,41.031451],[-73.670974,41.031377],[-73.670687,41.03095],[-73.670632,41.030868],[-73.67060599999999,41.03083],[-73.67058899999999,41.030785],[-73.67051099999999,41.030488],[-73.67038099999999,41.030072],[-73.670377,41.030059],[-73.670275,41.029948],[-73.669772,41.029396999999996],[-73.669727,41.02933],[-73.669172,41.028497],[-73.666782,41.025583999999995],[-73.666715,41.025501999999996],[-73.666539,41.025287999999996],[-73.665606,41.024144],[-73.665257,41.023717],[-73.66524,41.023697],[-73.665189,41.023635],[-73.665177,41.023621],[-73.664672,41.022997],[-73.66417899999999,41.022286],[-73.664148,41.022256999999996],[-73.664074,41.022186999999995],[-73.66385799999999,41.021943],[-73.66360399999999,41.021665],[-73.663522,41.021564999999995],[-73.66351,41.021547],[-73.662756,41.020573],[-73.662739,41.020558],[-73.662672,41.020497],[-73.661847,41.019769],[-73.661735,41.01967],[-73.661716,41.019653],[-73.660454,41.018542],[-73.660309,41.018412999999995],[-73.660293,41.018398999999995],[-73.66026,41.01837],[-73.65956299999999,41.017754],[-73.659447,41.017651],[-73.659078,41.017268],[-73.658992,41.017178],[-73.658772,41.01683],[-73.65867899999999,41.016706],[-73.658189,41.016154],[-73.65813899999999,41.016096999999995],[-73.657872,41.015797],[-73.657372,41.015097],[-73.65690099999999,41.014525],[-73.65686699999999,41.014465],[-73.65629299999999,41.013445999999995],[-73.656204,41.013290999999995],[-73.656117,41.013135],[-73.65565,41.012678],[-73.655413,41.012445],[-73.65532,41.012336999999995],[-73.655255,41.012246],[-73.655241,41.011852],[-73.655276,41.011727],[-73.656065,41.008922999999996],[-73.656846,41.00721],[-73.657214,41.006403999999996],[-73.65769,41.005508999999996],[-73.657781,41.005336],[-73.65787399999999,41.005164],[-73.657916,41.005078999999995],[-73.65795899999999,41.004993999999996],[-73.65802,41.00487],[-73.658082,41.004746999999995],[-73.65855499999999,41.004017999999995],[-73.659691,41.001512],[-73.66013199999999,41.000685],[-73.660174,41.000620999999995],[-73.660268,41.000484],[-73.660241,41.000426],[-73.66020999999999,41.000357],[-73.660134,41.000085999999996],[-73.660057,40.999815999999996],[-73.659939,40.999401],[-73.659736,40.998681999999995],[-73.659727,40.99865],[-73.659416,40.997549],[-73.659309,40.997171],[-73.65938299999999,40.996511999999996],[-73.659494,40.995525],[-73.65950699999999,40.995433],[-73.659516,40.995368],[-73.659582,40.994909],[-73.65964799999999,40.994451999999995],[-73.659639,40.994339],[-73.65958499999999,40.99414],[-73.659486,40.993975],[-73.659106,40.993338],[-73.659042,40.993263],[-73.659032,40.993251],[-73.657972,40.991997],[-73.657228,40.990914],[-73.657799,40.990238],[-73.65863,40.989256999999995],[-73.658776,40.989129999999996],[-73.65888199999999,40.989022999999996],[-73.658911,40.988991],[-73.659291,40.98845],[-73.659474,40.988188],[-73.659531,40.988105999999995],[-73.659671,40.987908999999995],[-73.65938,40.987567999999996],[-73.65761499999999,40.985499],[-73.65738999999999,40.985234],[-73.656913,40.984674999999996],[-73.65677099999999,40.984508999999996],[-73.656699,40.984454],[-73.656423,40.984243],[-73.656412,40.984232999999996],[-73.656379,40.984207999999995],[-73.656368,40.984201],[-73.649832,40.979199],[-73.64802,40.977813999999995],[-73.646209,40.976428999999996],[-73.61289599999999,40.950952],[-73.61288499999999,40.950942999999995],[-73.612901,40.950934],[-73.612996,40.950877999999996],[-73.61309,40.950821],[-73.619446,40.947089],[-73.62295499999999,40.945028],[-73.628149,40.941978],[-73.694448,40.90305],[-73.698972,40.900394],[-73.70967399999999,40.894172999999995],[-73.7185,40.889044],[-73.73138999999999,40.881553],[-73.740597,40.876203],[-73.742499,40.875099],[-73.748004,40.871874],[-73.74806,40.871721],[-73.749483,40.872101],[-73.760988,40.875178],[-73.781202,40.880478],[-73.78226699999999,40.880728999999995],[-73.782838,40.880868],[-73.783408,40.881006],[-73.783519,40.881032999999995],[-73.78355499999999,40.881042],[-73.78370199999999,40.881077999999995],[-73.785797,40.8816],[-73.792942,40.883410999999995],[-73.794048,40.883717999999995],[-73.794311,40.883781],[-73.79486299999999,40.883914],[-73.796262,40.884308999999995],[-73.797102,40.884478],[-73.797302,40.884478],[-73.797348,40.88449],[-73.798295,40.884738999999996],[-73.799289,40.885007],[-73.801617,40.885632],[-73.801896,40.885707],[-73.802945,40.886019],[-73.80300199999999,40.886033999999995],[-73.804191,40.886348],[-73.80446599999999,40.88642],[-73.804604,40.886455999999995],[-73.80476999999999,40.886500000000005],[-73.804789,40.886505],[-73.805302,40.886579],[-73.805343,40.886584],[-73.805402,40.886596],[-73.80572599999999,40.886662],[-73.806395,40.886801],[-73.80757299999999,40.887102],[-73.808351,40.887361],[-73.80872,40.887481],[-73.809457,40.887603999999996],[-73.809923,40.887684],[-73.80994199999999,40.88769],[-73.8109,40.887982],[-73.810953,40.887997999999996],[-73.811065,40.888033],[-73.811101,40.888044],[-73.811266,40.888093999999995],[-73.812429,40.88838],[-73.812645,40.888436999999996],[-73.813617,40.888695999999996],[-73.81363999999999,40.888694],[-73.813659,40.888706],[-73.813761,40.888721],[-73.81504799999999,40.888951],[-73.815165,40.888999],[-73.81532899999999,40.889066],[-73.815603,40.889178],[-73.816104,40.889275999999995],[-73.816206,40.889316],[-73.81648299999999,40.88943],[-73.816611,40.889479],[-73.816732,40.889503],[-73.817596,40.889675],[-73.81761399999999,40.889679],[-73.81850299999999,40.889877999999996],[-73.818732,40.889939999999996],[-73.818929,40.889993],[-73.819419,40.890125],[-73.8195,40.890147],[-73.819558,40.890163],[-73.81971899999999,40.890206],[-73.820994,40.890543],[-73.821703,40.89073],[-73.822959,40.891056],[-73.823003,40.891078],[-73.823244,40.891199],[-73.82328199999999,40.891082],[-73.823302,40.890989],[-73.823256,40.890961],[-73.823205,40.890918],[-73.823132,40.890871],[-73.82311299999999,40.890777],[-73.82312,40.890648],[-73.823172,40.890544999999996],[-73.823303,40.890420999999996],[-73.823373,40.890415999999995],[-73.823527,40.890429999999995],[-73.823576,40.890426],[-73.823617,40.890412999999995],[-73.823634,40.890391],[-73.82365,40.890338],[-73.823661,40.89017],[-73.82367099999999,40.890136999999996],[-73.823689,40.890076],[-73.82368,40.890029999999996],[-73.82359799999999,40.889956],[-73.823573,40.889882],[-73.823555,40.889869999999995],[-73.82356,40.889857],[-73.823607,40.889852999999995],[-73.823781,40.889809],[-73.82396299999999,40.889762999999995],[-73.824017,40.88975],[-73.82403599999999,40.889823],[-73.824047,40.889866],[-73.82400899999999,40.889978],[-73.82402499999999,40.889978],[-73.82440299999999,40.889978],[-73.825002,40.890178],[-73.82524099999999,40.890243999999996],[-73.825256,40.890248],[-73.827224,40.890785],[-73.827269,40.890797],[-73.82794299999999,40.890927999999995],[-73.828125,40.891051],[-73.828716,40.891273999999996],[-73.830022,40.891686],[-73.83008699999999,40.8917],[-73.830818,40.891878999999996],[-73.830972,40.891935],[-73.83170299999999,40.892178],[-73.831856,40.892216999999995],[-73.832503,40.892376999999996],[-73.8327,40.892438],[-73.83271599999999,40.892443],[-73.833595,40.892706],[-73.835174,40.89317],[-73.835605,40.893315],[-73.836282,40.893530999999996],[-73.83733699999999,40.893814],[-73.837368,40.893820999999996],[-73.838407,40.894061],[-73.838985,40.895602],[-73.839411,40.896693],[-73.839615,40.89714],[-73.839655,40.897248999999995],[-73.839677,40.897323],[-73.839696,40.897385],[-73.83971799999999,40.897511],[-73.83972399999999,40.897633],[-73.83972,40.897694],[-73.839649,40.897891],[-73.83950999999999,40.898184],[-73.83939099999999,40.89841],[-73.839257,40.898707],[-73.839241,40.898744],[-73.839208,40.898818999999996],[-73.83914899999999,40.899060999999996],[-73.839154,40.899198999999996],[-73.83915499999999,40.899226],[-73.839185,40.89936],[-73.839221,40.899474999999995],[-73.839287,40.899594],[-73.83936299999999,40.899713],[-73.840036,40.900566999999995],[-73.840049,40.900585],[-73.840085,40.900634],[-73.840159,40.900735],[-73.840172,40.900753],[-73.84017899999999,40.900762],[-73.84018999999999,40.900777],[-73.84021,40.900804],[-73.840445,40.901123999999996],[-73.84056199999999,40.901284],[-73.84065,40.901413999999995],[-73.840729,40.901567],[-73.84078699999999,40.901693],[-73.84083199999999,40.901818999999996],[-73.840873,40.901979],[-73.840958,40.902516],[-73.840999,40.902812],[-73.841017,40.902978999999995],[-73.841048,40.903161999999995],[-73.841062,40.903214],[-73.84113599999999,40.903487],[-73.841281,40.903886],[-73.841291,40.903912999999996],[-73.841318,40.903987],[-73.841386,40.904174],[-73.84237399999999,40.904166],[-73.84339899999999,40.904171],[-73.84442,40.904171999999996],[-73.844702,40.904182999999996],[-73.844713,40.904624999999996],[-73.844728,40.904731999999996],[-73.844847,40.90531],[-73.84532,40.905581999999995],[-73.84540299999999,40.905604],[-73.846104,40.905777],[-73.846256,40.905842],[-73.84679899999999,40.906078],[-73.847071,40.906172999999995],[-73.848683,40.906743],[-73.848732,40.906763],[-73.848803,40.906791999999996],[-73.849126,40.906923],[-73.850225,40.907368],[-73.850331,40.907281999999995],[-73.85042299999999,40.907207],[-73.85045199999999,40.907182999999996],[-73.850518,40.907123999999996],[-73.850661,40.906925],[-73.851019,40.906501999999996],[-73.851057,40.906458],[-73.851304,40.906577999999996],[-73.851506,40.906645],[-73.852204,40.906878],[-73.852564,40.906968],[-73.85260099999999,40.906977],[-73.85279,40.907073],[-73.853528,40.907464999999995],[-73.85306899999999,40.908021],[-73.85271399999999,40.908446],[-73.852369,40.908879999999996],[-73.85207799999999,40.908887],[-73.852046,40.908958999999996],[-73.851872,40.909158999999995],[-73.851812,40.909228999999996],[-73.85163399999999,40.909425999999996],[-73.851484,40.909591999999996],[-73.851123,40.910008999999995],[-73.851379,40.910044],[-73.852184,40.909515],[-73.852678,40.909898999999996],[-73.8529,40.909915999999996],[-73.852935,40.909918999999995],[-73.853713,40.909447],[-73.85399699999999,40.909276],[-73.85403699999999,40.909231],[-73.85423399999999,40.909009999999995],[-73.854342,40.908974],[-73.85488099999999,40.908217],[-73.854796,40.908173],[-73.85476799999999,40.908159],[-73.854496,40.908017],[-73.854393,40.907962999999995],[-73.854295,40.907916],[-73.853804,40.907681],[-73.853802,40.907179],[-73.854007,40.906842],[-73.85410399999999,40.906679],[-73.854128,40.906675],[-73.854704,40.906577999999996],[-73.855104,40.906378],[-73.85531499999999,40.906262999999996],[-73.85553399999999,40.906144],[-73.85557399999999,40.906121999999996],[-73.855687,40.90606],[-73.85574,40.90606],[-73.855997,40.90606],[-73.85607399999999,40.90606],[-73.85610799999999,40.90606],[-73.85615299999999,40.906082],[-73.85622699999999,40.906119],[-73.856324,40.906166],[-73.856325,40.905966],[-73.856326,40.905801],[-73.856279,40.905727999999996],[-73.856186,40.905401999999995],[-73.856156,40.905297999999995],[-73.85612499999999,40.905192],[-73.856118,40.905167999999996],[-73.856151,40.905153],[-73.85631,40.905083],[-73.856394,40.905045],[-73.856434,40.905027],[-73.856697,40.90491],[-73.856956,40.904953],[-73.85710399999999,40.904979],[-73.857136,40.904984999999996],[-73.857321,40.905017],[-73.857449,40.904837],[-73.857587,40.904669],[-73.857449,40.904601],[-73.857404,40.904579],[-73.857232,40.904492999999995],[-73.857079,40.904416],[-73.857004,40.904378],[-73.857004,40.904168999999996],[-73.857004,40.904041],[-73.857004,40.903861],[-73.857004,40.903819999999996],[-73.85700299999999,40.903735999999995],[-73.857,40.903579],[-73.857199,40.902878],[-73.85770699999999,40.902572],[-73.857805,40.902539999999995],[-73.85782499999999,40.902533],[-73.85792,40.902494],[-73.858042,40.902443999999996],[-73.8582,40.902378999999996],[-73.858221,40.902335],[-73.858302,40.902077],[-73.858469,40.902159999999995],[-73.859014,40.902432999999995],[-73.85909699999999,40.902471],[-73.85911399999999,40.902471999999996],[-73.85960399999999,40.902178],[-73.859392,40.901894999999996],[-73.859303,40.901778],[-73.85901799999999,40.901492999999995],[-73.859003,40.901478],[-73.859037,40.901469999999996],[-73.859404,40.901378],[-73.859308,40.901137999999996],[-73.85921499999999,40.900906],[-73.85920399999999,40.900878],[-73.8593,40.900493999999995],[-73.85931,40.900479],[-73.85959,40.900513],[-73.859808,40.90054],[-73.859945,40.900560999999996],[-73.860006,40.900565],[-73.86010399999999,40.900577999999996],[-73.86025699999999,40.900616],[-73.860321,40.900638],[-73.86077499999999,40.900787],[-73.860956,40.900846],[-73.86158999999999,40.901050999999995],[-73.86204099999999,40.901202999999995],[-73.86240099999999,40.901340999999995],[-73.862557,40.901427],[-73.86264299999999,40.901474],[-73.86286,40.901525],[-73.86287899999999,40.901537999999995],[-73.86466899999999,40.901793],[-73.865256,40.901948999999995],[-73.865268,40.901962],[-73.865635,40.902086],[-73.866952,40.902474999999995],[-73.867876,40.902983],[-73.869046,40.903332999999996],[-73.87073099999999,40.903825999999995],[-73.87093999999999,40.903887],[-73.87273499999999,40.904415],[-73.872913,40.904467],[-73.873949,40.904767],[-73.874087,40.904807],[-73.874623,40.904959999999996],[-73.874797,40.90501],[-73.875559,40.905232],[-73.875599,40.905243999999996],[-73.876229,40.905429999999996],[-73.87645499999999,40.905497],[-73.876588,40.905539],[-73.877628,40.905854],[-73.877741,40.905888],[-73.877855,40.905922],[-73.878012,40.905964999999995],[-73.87818899999999,40.905983],[-73.87822,40.905983],[-73.87835,40.905983],[-73.878827,40.906188],[-73.879239,40.906365],[-73.879531,40.906441],[-73.880111,40.906591],[-73.880637,40.906745],[-73.880929,40.90683],[-73.88144299999999,40.907004],[-73.88182499999999,40.907134],[-73.882829,40.907382],[-73.882993,40.907423],[-73.88405399999999,40.907497],[-73.884106,40.907500999999996],[-73.88412699999999,40.907503],[-73.88424599999999,40.907512],[-73.884726,40.907685],[-73.884832,40.907723],[-73.885401,40.907976999999995],[-73.88601,40.907979],[-73.886124,40.908015999999996],[-73.88616499999999,40.90803],[-73.886237,40.908052],[-73.887984,40.908592999999996],[-73.88839399999999,40.908719999999995],[-73.89180499999999,40.909777999999996],[-73.891928,40.909808999999996],[-73.89220499999999,40.909878],[-73.892799,40.910058],[-73.896543,40.911293],[-73.89663399999999,40.911324],[-73.89725299999999,40.911654999999996],[-73.89735999999999,40.911671999999996],[-73.897424,40.911693],[-73.89811999999999,40.911798],[-73.898682,40.911871],[-73.89950499999999,40.911978],[-73.899789,40.912071999999995],[-73.89997,40.912132],[-73.900697,40.912380999999996],[-73.902106,40.912879],[-73.90245399999999,40.912979],[-73.903806,40.913353],[-73.90419399999999,40.91346],[-73.905911,40.913938],[-73.905947,40.913948],[-73.90830199999999,40.914609],[-73.908328,40.914615999999995],[-73.90881399999999,40.914747],[-73.90884,40.914753999999995],[-73.909471,40.914924],[-73.90949599999999,40.914930999999996],[-73.910006,40.915076],[-73.910279,40.915186999999996],[-73.910516,40.915282],[-73.910808,40.915372],[-73.91790499999999,40.917577],[-73.917737,40.919014],[-73.917681,40.919498999999995],[-73.915581,40.924898],[-73.913952,40.930130999999996],[-73.912281,40.935499],[-73.910581,40.941398],[-73.910539,40.941528],[-73.909241,40.945498],[-73.909235,40.945516],[-73.908289,40.948412],[-73.908283,40.948429],[-73.908005,40.949279],[-73.90797599999999,40.949368],[-73.907938,40.949483],[-73.907789,40.949939],[-73.90728,40.951498],[-73.907257,40.951561999999996],[-73.906088,40.954766],[-73.90487399999999,40.958093],[-73.904532,40.959030999999996],[-73.90431699999999,40.959621],[-73.904122,40.960155],[-73.90406399999999,40.960311999999995],[-73.903992,40.96051],[-73.903187,40.962717],[-73.89878,40.974798],[-73.898319,40.976178],[-73.898231,40.976441],[-73.89786699999999,40.977532],[-73.897504,40.978622],[-73.897336,40.979126],[-73.89724199999999,40.979408],[-73.897184,40.979582],[-73.89714599999999,40.979696],[-73.89712,40.979774],[-73.89710199999999,40.979828],[-73.897089,40.979867],[-73.897086,40.979876],[-73.89708,40.979895],[-73.896479,40.981701],[-73.893979,40.997205],[-73.893579,41.005297],[-73.890079,41.022597],[-73.889915,41.025749],[-73.889479,41.034096999999996],[-73.88938,41.037597],[-73.89027999999999,41.045196],[-73.89038,41.045795999999996],[-73.89268,41.053495999999996],[-73.89388,41.057896],[-73.89448,41.064596],[-73.89468,41.069796],[-73.8947,41.069936999999996],[-73.89471,41.070004],[-73.894713,41.070023],[-73.89473199999999,41.070164999999996],[-73.89473799999999,41.070206],[-73.894758,41.070342],[-73.89478,41.070496],[-73.894779,41.070572],[-73.89477699999999,41.070791],[-73.894706,41.077258],[-73.89468699999999,41.078959],[-73.89468,41.079595999999995],[-73.89488,41.082395999999996],[-73.893918,41.091924999999996],[-73.89377999999999,41.093295999999995],[-73.891845,41.104777],[-73.891531,41.106639],[-73.89141699999999,41.107318],[-73.890866,41.110583],[-73.89077999999999,41.111095999999996],[-73.888841,41.121821],[-73.88758,41.128795],[-73.88718,41.133095],[-73.88739699999999,41.136860999999996],[-73.88748,41.138295],[-73.888679,41.142371],[-73.88947999999999,41.145095],[-73.892481,41.150594999999996],[-73.895381,41.153994999999995],[-73.899681,41.157295],[-73.906581,41.161895],[-73.909281,41.164395]]]}}]}
