{"features":[{"geometry":{"coordinates":[[[-73.75035694599995,40.58953026700004],[-73.74268735699997,40.58679924100005],[-73.64090332399996,40.58283124400003],[-73.61087431399994,40.587711246000026],[-73.55909429799993,40.58203524600003],[-73.42380626199997,40.609858074000044],[-73.42534725899998,40.65182626500007],[-73.42388125899998,40.65598126500004],[-73.42787226199994,40.69629127300004],[-73.46226028299998,40.86671830500006],[-73.47608028799993,40.877119307000044],[-73.47730828999994,40.89925831100004],[-73.49706276799998,40.92280914500003],[-73.49994229899994,40.918174314000055],[-73.51500030299997,40.91282931300003],[-73.51926830499997,40.914306313000054],[-73.54806931299998,40.90870631100006],[-73.56617031999997,40.91580631100004],[-73.56997032099997,40.91540631100003],[-73.59517132899998,40.907306309000035],[-73.60187132999994,40.90280630800004],[-73.61757233499998,40.89790630600004],[-73.62697333799997,40.89940530600006],[-73.63377233999995,40.89820630600008],[-73.64107334199997,40.89260730400008],[-73.65437334599994,40.87820730100003],[-73.65587334499997,40.86390729800007],[-73.67557435099997,40.85700729600006],[-73.71367536399998,40.87010729700006],[-73.72957636899997,40.86650829600006],[-73.73067636899998,40.865408296000055],[-73.72667636799997,40.856808294000075],[-73.72827636799997,40.85290829400003],[-73.75440137499999,40.82684528800007],[-73.75403337399996,40.82094928600003],[-73.76915095099997,40.800199174000056],[-73.75029637099993,40.78248627900007],[-73.70163435299997,40.75250127500004],[-73.70002135199996,40.739398272000074],[-73.70764835399996,40.727804270000036],[-73.73032736099998,40.722165268000026],[-73.72697235899994,40.71072326600006],[-73.72586235699998,40.68323126000007],[-73.72810835699994,40.66535325700005],[-73.72487535499994,40.65345525500004],[-73.73673635799997,40.649108253000065],[-73.73996135899995,40.63515225000003],[-73.74329635999999,40.63805625100008],[-73.74800236099998,40.63463925000008],[-73.76742636699998,40.62661424800007],[-73.76876236699997,40.62436024700003],[-73.76672036599996,40.61501224600005],[-73.75473336199997,40.610413245000075],[-73.74563435899995,40.611764246000064],[-73.73718635499995,40.59297324200003],[-73.75035694599995,40.58953026700004]]],"type":"Polygon"},"properties":{"shapeGroup":"USA","shapeID":"52423323B42354579566723","shapeISO":"","shapeName":"Nassau","shapeType":"ADM2"},"type":"Feature"},{"geometry":{"coordinates":[[[[-72.03495884499995,41.25546642900008],[-72.03684684599995,41.249802428000066],[-72.00246183499996,41.252875430000074],[-71.97892682799994,41.26501043300004],[-71.93525981499994,41.280587437000065],[-71.92680281199995,41.29013044000004],[-71.98006182899996,41.280299436000064],[-71.99111783299998,41.28133943600005],[-72.00687283699995,41.27348843400006],[-72.01892684099994,41.27412243300006],[-72.02342284299993,41.271002433000035],[-72.03495884499995,41.25546642900008]]],[[[-72.14292987099998,41.097819395000045],[-72.14192187099997,41.09437939400004],[-72.13923386999994,41.09245939400006],[-72.12056086399997,41.09317939500005],[-72.10640085899996,41.08889139400003],[-72.10315285799999,41.08649239400006],[-72.09713685499997,41.07585239200006],[-72.09720085399994,41.05489238800004],[-72.09571185399994,41.05402838800006],[-72.08697585099998,41.05830038900007],[-72.08116785099998,41.09394839600003],[-72.08420785299995,41.101532398000074],[-72.12670486699994,41.11514739900008],[-72.12835286699993,41.10813939700006],[-72.13222586799998,41.104395397000076],[-72.14073787099994,41.10084339600007],[-72.14292987099998,41.097819395000045]]],[[[-72.21412089899997,41.18282540900003],[-72.21649789899993,41.170302407000065],[-72.19985989299994,41.160461405000035],[-72.18797588999996,41.16940840700005],[-72.18203388899997,41.17835340900007],[-72.16103488199997,41.188679412000056],[-72.15826588199997,41.19713441400006],[-72.18916389199995,41.193557412000075],[-72.21412089899997,41.18282540900003]]],[[[-73.42380626199997,40.609858074000044],[-73.35146623399999,40.630508263000024],[-73.32626322599998,40.63310826400004],[-73.30639721899996,40.62076426200008],[-73.26210720499995,40.62148426400006],[-73.20844118799994,40.630892268000025],[-73.05496414099997,40.66637928000006],[-73.01254612799994,40.679659284000024],[-72.92321510099998,40.713290294000046],[-72.86316508299996,40.732970300000034],[-72.76815305399998,40.76159530800004],[-72.75717705099999,40.76437930900005],[-72.75311304899998,40.76357930900008],[-72.74520904699995,40.76709931000005],[-72.57344199399995,40.81325932500005],[-72.46999696299997,40.84274833400008],[-72.39585093999995,40.866668341000036],[-72.11444885499998,40.97209337100003],[-72.02935782899993,40.99991737900007],[-71.93568980099997,41.03419038900006],[-71.90373679099997,41.04017439100005],[-71.87391078199994,41.05228639500007],[-71.85621477699993,41.07060639900004],[-71.85749477799999,41.07356639900007],[-71.86447077999998,41.07692640000005],[-71.86955878199996,41.07505439900007],[-71.88954378799997,41.07570939900006],[-71.89549678999998,41.077389399000026],[-71.89925679199996,41.080845400000044],[-71.91938579799995,41.08052539900007],[-71.93825080399995,41.07742139800007],[-71.95959581099999,41.07124539600005],[-71.96156381099996,41.064029394000045],[-71.96107880999995,41.054285392000054],[-71.96704081199994,41.04778039100006],[-71.99926082199994,41.03967738800003],[-72.01501382599997,41.02835638600004],[-72.03579283199997,41.02076738300008],[-72.04746883599995,41.022573383000065],[-72.05192883799998,41.020514383000034],[-72.04952683599998,41.00970538100006],[-72.05158583699995,41.00644538000006],[-72.05793483899998,41.004797379000024],[-72.06144883999997,41.00945038000003],[-72.07617584499997,41.00910138000006],[-72.07920884599997,41.00644537900007],[-72.08303984599996,40.99646137700006],[-72.09545684999995,40.99135737600005],[-72.10216085199994,40.99151737500006],[-72.10900885499996,40.994092376000026],[-72.11636885699994,40.99980437700003],[-72.13740986499994,41.02391638100005],[-72.13513786499993,41.03129238200006],[-72.13729786599998,41.039692384000034],[-72.15385787199995,41.051867386000026],[-72.16037087499996,41.05383538600006],[-72.16289887499994,41.05319538600003],[-72.17488287899994,41.04615538400003],[-72.17949087999995,41.038443382000025],[-72.18326688099995,41.03562738100004],[-72.19056388299998,41.03258738100004],[-72.20185988699996,41.03228338000008],[-72.21747689199998,41.040619381000056],[-72.22936489599994,41.04436338200003],[-72.24125289999995,41.04477838100007],[-72.26051590599997,41.04207338000003],[-72.27365791099999,41.05154138200004],[-72.28309391499994,41.06788238400003],[-72.27670991299993,41.076730386000065],[-72.28037391499998,41.08041038700003],[-72.29771892099996,41.08105038700006],[-72.31723892699995,41.088667387000044],[-72.33517793399994,41.10692539000007],[-72.33527193499998,41.120282393000025],[-72.32663093299993,41.13217039600005],[-72.31814692999995,41.13714239700005],[-72.31273492899999,41.138554397000064],[-72.30638192699996,41.13784839700003],[-72.30004492399996,41.132067396000025],[-72.30037492299994,41.112282393000044],[-72.26512491299997,41.128490397000064],[-72.25357290899996,41.13714639900007],[-72.23773190499998,41.15644240300003],[-72.23821190599995,41.15949840400003],[-72.24534890799998,41.16122540400005],[-72.26810091499993,41.154154402000074],[-72.27299791699994,41.15501840200005],[-72.27878991899996,41.15873040200006],[-72.29110992299996,41.15588240100004],[-72.31277592899994,41.14801039900004],[-72.33058393499994,41.14703939800006],[-72.35412394199994,41.13996039600005],[-72.40262595499996,41.096937386000036],[-72.41794595999994,41.087963384000034],[-72.44524296899993,41.086124383000026],[-72.46077897199996,41.06702037800005],[-72.47730697699996,41.05222037500005],[-72.52154898999999,41.03766037100007],[-72.54985399799995,41.019852366000066],[-72.56097500199996,41.015452365000044],[-72.56540700299996,41.009516364000035],[-72.58532800899997,40.99759536100004],[-72.63556302399996,40.981965356000046],[-72.66370803299998,40.97968535500007],[-72.68576203999999,40.980296354000075],[-72.70807004699998,40.97785935300004],[-72.74565705899994,40.96845335000006],[-72.77410506799998,40.96532234800003],[-72.82605808499994,40.96980234700004],[-72.88825110399995,40.96297034400004],[-72.91383511299995,40.96247434300005],[-72.95516412599994,40.96615434200004],[-72.99593213899993,40.96650634100007],[-73.04044615299995,40.964506339000025],[-73.04370215399996,40.96219333800008],[-73.08158316699996,40.97306633900007],[-73.11036917599995,40.971946338000066],[-73.14078618599996,40.96618633600008],[-73.14467418699996,40.95585033400005],[-73.14624318599994,40.93508233000006],[-73.14899518599998,40.92890632800004],[-73.22928621099999,40.90512932100006],[-73.29506023299996,40.92450532200007],[-73.33136124499998,40.92960532200004],[-73.34416224899996,40.92730532100006],[-73.34556224899995,40.92530532100005],[-73.35276225199993,40.92670532100004],[-73.36596225599999,40.93170532100004],[-73.37446325899998,40.937605322000024],[-73.39286326599995,40.95530532500004],[-73.39976326899995,40.955205325000065],[-73.40086326899996,40.954005325000026],[-73.40346326899999,40.94220532200006],[-73.40296426799995,40.92510531900007],[-73.40607526899998,40.920243318000075],[-73.42883727599997,40.92151431700006],[-73.42986427699998,40.929805319000025],[-73.43666527899995,40.93490532000004],[-73.46370928799996,40.93770531900003],[-73.47836629299997,40.94230532000006],[-73.48536629599994,40.94640532000005],[-73.49176629699997,40.94210531900006],[-73.49706276799998,40.92280914500003],[-73.47730828999994,40.89925831100004],[-73.47608028799993,40.877119307000044],[-73.46226028299998,40.86671830500006],[-73.42787226199994,40.69629127300004],[-73.42388125899998,40.65598126500004],[-73.42534725899998,40.65182626500007],[-73.42380626199997,40.609858074000044]]]],"type":"MultiPolygon"},"properties":{"shapeGroup":"USA","shapeID":"52423323B61185146991898","shapeISO":"","shapeName":"Suffolk","shapeType":"ADM2"},"type":"Feature"},{"geometry":{"coordinates":[[[-73.98258547899997,41.32170137600008],[-73.96448447099993,41.29970137200007],[-73.94658446499994,41.29100137100005],[-73.96688546999997,41.26720136600005],[-73.97078546999995,41.24790136200005],[-73.93148345499998,41.20500235500003],[-73.90928244499997,41.164403348000064],[-73.89248243899993,41.150603346000025],[-73.88758143599995,41.128803342000026],[-73.89378143599998,41.09330433500003],[-73.89477843499998,41.07079933000006],[-73.88938143099995,41.037605324000026],[-73.89398042999994,40.99720531600008],[-73.89648042999994,40.98170531300008],[-73.91790643299998,40.91758530000004],[-73.86000741299995,40.90057329800004],[-73.85267941099994,40.90990730000004],[-73.84707240899996,40.90618130000007],[-73.83840840599999,40.89406929800003],[-73.76716314999999,40.87680502500007],[-73.76717738199994,40.886307299000066],[-73.77538438499994,40.89203930000008],[-73.75677738099995,40.91260730400006],[-73.73177637299995,40.925007307000044],[-73.72174037099995,40.932045309000046],[-73.69797536299995,40.93960631200008],[-73.68647435999998,40.94520631300003],[-73.68327435899994,40.94900631400003],[-73.67807435799995,40.96280631700006],[-73.66447335399994,40.96720631800008],[-73.66207335399997,40.96620631800005],[-73.65997335299994,40.96840631800006],[-73.655973352,40.979605321000065],[-73.65733735299995,40.98517932200008],[-73.65967235399995,40.987917322000044],[-73.65937335499996,40.99950532500003],[-73.65467235399996,41.01170532700007],[-73.72777638299993,41.10070434200003],[-73.48271031099995,41.21276837200003],[-73.55096233799998,41.29543038600008],[-73.54472933999995,41.366383400000075],[-73.98258547899997,41.32170137600008]]],"type":"Polygon"},"properties":{"shapeGroup":"USA","shapeID":"52423323B83071826775288","shapeISO":"","shapeName":"Westchester","shapeType":"ADM2"},"type":"Feature"}],"type":"FeatureCollection"}
