{"features":[{"geometry":null,"id":"gap-source-batch:65911e15791d12ebb2ccacf5","properties":{"id":"gap-source-batch:65911e15791d12ebb2ccacf5","source_property":"subject_id","source_value":"gap-source-batch:65911e15791d12ebb2ccacf5","subject_id":"gap-source-batch:65911e15791d12ebb2ccacf5"},"type":"Feature"},{"geometry":null,"id":"gap-source-batch:74be953b1fb31c15200742da","properties":{"id":"gap-source-batch:74be953b1fb31c15200742da","source_property":"subject_id","source_value":"gap-source-batch:74be953b1fb31c15200742da","subject_id":"gap-source-batch:74be953b1fb31c15200742da"},"type":"Feature"},{"geometry":null,"id":"gb:KGZ:ADM2:92254566B28866404519709","properties":{"id":"gb:KGZ:ADM2:92254566B28866404519709","source_property":"subject_id","source_value":"gb:KGZ:ADM2:92254566B28866404519709","subject_id":"gb:KGZ:ADM2:92254566B28866404519709"},"type":"Feature"},{"geometry":null,"id":"gb:KGZ:ADM2:92254566B65149347501284","properties":{"id":"gb:KGZ:ADM2:92254566B65149347501284","source_property":"subject_id","source_value":"gb:KGZ:ADM2:92254566B65149347501284","subject_id":"gb:KGZ:ADM2:92254566B65149347501284"},"type":"Feature"},{"geometry":null,"id":"gb:KGZ:ADM2:92254566B65536554507768","properties":{"id":"gb:KGZ:ADM2:92254566B65536554507768","source_property":"subject_id","source_value":"gb:KGZ:ADM2:92254566B65536554507768","subject_id":"gb:KGZ:ADM2:92254566B65536554507768"},"type":"Feature"},{"geometry":null,"id":"gb:TJK:ADM2:16282066B17537121350265","properties":{"id":"gb:TJK:ADM2:16282066B17537121350265","source_property":"subject_id","source_value":"gb:TJK:ADM2:16282066B17537121350265","subject_id":"gb:TJK:ADM2:16282066B17537121350265"},"type":"Feature"},{"geometry":null,"id":"gb:TJK:ADM2:16282066B25952413622692","properties":{"id":"gb:TJK:ADM2:16282066B25952413622692","source_property":"subject_id","source_value":"gb:TJK:ADM2:16282066B25952413622692","subject_id":"gb:TJK:ADM2:16282066B25952413622692"},"type":"Feature"},{"geometry":null,"id":"gb:TJK:ADM2:16282066B48594859138803","properties":{"id":"gb:TJK:ADM2:16282066B48594859138803","source_property":"subject_id","source_value":"gb:TJK:ADM2:16282066B48594859138803","subject_id":"gb:TJK:ADM2:16282066B48594859138803"},"type":"Feature"},{"geometry":null,"id":"gb:TJK:ADM2:16282066B4928854450407","properties":{"id":"gb:TJK:ADM2:16282066B4928854450407","source_property":"subject_id","source_value":"gb:TJK:ADM2:16282066B4928854450407","subject_id":"gb:TJK:ADM2:16282066B4928854450407"},"type":"Feature"},{"geometry":null,"id":"gb:TJK:ADM2:16282066B70669453487294","properties":{"id":"gb:TJK:ADM2:16282066B70669453487294","source_property":"subject_id","source_value":"gb:TJK:ADM2:16282066B70669453487294","subject_id":"gb:TJK:ADM2:16282066B70669453487294"},"type":"Feature"},{"geometry":null,"id":"gb:TJK:ADM2:16282066B88100265425771","properties":{"id":"gb:TJK:ADM2:16282066B88100265425771","source_property":"subject_id","source_value":"gb:TJK:ADM2:16282066B88100265425771","subject_id":"gb:TJK:ADM2:16282066B88100265425771"},"type":"Feature"},{"geometry":null,"id":"physical-component:04431dc98d19b4236a143d2c0bb388fed2e41d4768356cf5a74ae4b9194fd9bf","properties":{"id":"physical-component:04431dc98d19b4236a143d2c0bb388fed2e41d4768356cf5a74ae4b9194fd9bf","source_property":"subject_id","source_value":"physical-component:04431dc98d19b4236a143d2c0bb388fed2e41d4768356cf5a74ae4b9194fd9bf","subject_id":"physical-component:04431dc98d19b4236a143d2c0bb388fed2e41d4768356cf5a74ae4b9194fd9bf"},"type":"Feature"},{"geometry":null,"id":"physical-component:0467413184087c1282e0b20ec7252d8dfe7e393e674b1902f9d2f8e5f10eeadd","properties":{"id":"physical-component:0467413184087c1282e0b20ec7252d8dfe7e393e674b1902f9d2f8e5f10eeadd","source_property":"subject_id","source_value":"physical-component:0467413184087c1282e0b20ec7252d8dfe7e393e674b1902f9d2f8e5f10eeadd","subject_id":"physical-component:0467413184087c1282e0b20ec7252d8dfe7e393e674b1902f9d2f8e5f10eeadd"},"type":"Feature"},{"geometry":null,"id":"physical-component:0b1a9310b0717d791b33e315035e22e83362b4b461283df57e6267d3d1d6c015","properties":{"id":"physical-component:0b1a9310b0717d791b33e315035e22e83362b4b461283df57e6267d3d1d6c015","source_property":"subject_id","source_value":"physical-component:0b1a9310b0717d791b33e315035e22e83362b4b461283df57e6267d3d1d6c015","subject_id":"physical-component:0b1a9310b0717d791b33e315035e22e83362b4b461283df57e6267d3d1d6c015"},"type":"Feature"},{"geometry":null,"id":"physical-component:0bf1093e551def6fa258252e87e67ca4c4dd1a3847416a39164226514713e842","properties":{"id":"physical-component:0bf1093e551def6fa258252e87e67ca4c4dd1a3847416a39164226514713e842","source_property":"subject_id","source_value":"physical-component:0bf1093e551def6fa258252e87e67ca4c4dd1a3847416a39164226514713e842","subject_id":"physical-component:0bf1093e551def6fa258252e87e67ca4c4dd1a3847416a39164226514713e842"},"type":"Feature"},{"geometry":null,"id":"physical-component:181f705ac58d42ae49ea4d70c75df34928b7c26a46e8b7ccc30895eee2455276","properties":{"id":"physical-component:181f705ac58d42ae49ea4d70c75df34928b7c26a46e8b7ccc30895eee2455276","source_property":"subject_id","source_value":"physical-component:181f705ac58d42ae49ea4d70c75df34928b7c26a46e8b7ccc30895eee2455276","subject_id":"physical-component:181f705ac58d42ae49ea4d70c75df34928b7c26a46e8b7ccc30895eee2455276"},"type":"Feature"},{"geometry":null,"id":"physical-component:1d82eb920d887e65e0b7feace4b6ce606ba72f0dd4b64d8872bc6ff17594c52c","properties":{"id":"physical-component:1d82eb920d887e65e0b7feace4b6ce606ba72f0dd4b64d8872bc6ff17594c52c","source_property":"subject_id","source_value":"physical-component:1d82eb920d887e65e0b7feace4b6ce606ba72f0dd4b64d8872bc6ff17594c52c","subject_id":"physical-component:1d82eb920d887e65e0b7feace4b6ce606ba72f0dd4b64d8872bc6ff17594c52c"},"type":"Feature"},{"geometry":null,"id":"physical-component:29c61a4079291f4cf9fa96ca41c3561405cef2d2ad8afe80aa526904848969c2","properties":{"id":"physical-component:29c61a4079291f4cf9fa96ca41c3561405cef2d2ad8afe80aa526904848969c2","source_property":"subject_id","source_value":"physical-component:29c61a4079291f4cf9fa96ca41c3561405cef2d2ad8afe80aa526904848969c2","subject_id":"physical-component:29c61a4079291f4cf9fa96ca41c3561405cef2d2ad8afe80aa526904848969c2"},"type":"Feature"},{"geometry":null,"id":"physical-component:658f2e100dd572e26c264f47481759420a413e73978799a8792e203637b3854b","properties":{"id":"physical-component:658f2e100dd572e26c264f47481759420a413e73978799a8792e203637b3854b","source_property":"subject_id","source_value":"physical-component:658f2e100dd572e26c264f47481759420a413e73978799a8792e203637b3854b","subject_id":"physical-component:658f2e100dd572e26c264f47481759420a413e73978799a8792e203637b3854b"},"type":"Feature"},{"geometry":null,"id":"physical-component:7450c83fcd14661b0c9115f0075f703ac96c64ea65ec0caa86702a1ef00db81e","properties":{"id":"physical-component:7450c83fcd14661b0c9115f0075f703ac96c64ea65ec0caa86702a1ef00db81e","source_property":"subject_id","source_value":"physical-component:7450c83fcd14661b0c9115f0075f703ac96c64ea65ec0caa86702a1ef00db81e","subject_id":"physical-component:7450c83fcd14661b0c9115f0075f703ac96c64ea65ec0caa86702a1ef00db81e"},"type":"Feature"},{"geometry":null,"id":"physical-component:804dfb19fcd6f3fc68de442ae08f4ca553de8687df65d70b72dc1a3fae258eb9","properties":{"id":"physical-component:804dfb19fcd6f3fc68de442ae08f4ca553de8687df65d70b72dc1a3fae258eb9","source_property":"subject_id","source_value":"physical-component:804dfb19fcd6f3fc68de442ae08f4ca553de8687df65d70b72dc1a3fae258eb9","subject_id":"physical-component:804dfb19fcd6f3fc68de442ae08f4ca553de8687df65d70b72dc1a3fae258eb9"},"type":"Feature"},{"geometry":null,"id":"physical-component:a133c2293fb153cd6628eb43b7518e55ea7db7f6c7f74178b854fd9641be86c5","properties":{"id":"physical-component:a133c2293fb153cd6628eb43b7518e55ea7db7f6c7f74178b854fd9641be86c5","source_property":"subject_id","source_value":"physical-component:a133c2293fb153cd6628eb43b7518e55ea7db7f6c7f74178b854fd9641be86c5","subject_id":"physical-component:a133c2293fb153cd6628eb43b7518e55ea7db7f6c7f74178b854fd9641be86c5"},"type":"Feature"},{"geometry":null,"id":"physical-component:bee4ff4185a3775db6d8c51fdc2da0b0674b7629615933378147c6d0b4e778d4","properties":{"id":"physical-component:bee4ff4185a3775db6d8c51fdc2da0b0674b7629615933378147c6d0b4e778d4","source_property":"subject_id","source_value":"physical-component:bee4ff4185a3775db6d8c51fdc2da0b0674b7629615933378147c6d0b4e778d4","subject_id":"physical-component:bee4ff4185a3775db6d8c51fdc2da0b0674b7629615933378147c6d0b4e778d4"},"type":"Feature"},{"geometry":null,"id":"physical-component:ca9c5207e4e4202ea32bd39636020e8f898783d03802fb3507efb816d2e525a3","properties":{"id":"physical-component:ca9c5207e4e4202ea32bd39636020e8f898783d03802fb3507efb816d2e525a3","source_property":"subject_id","source_value":"physical-component:ca9c5207e4e4202ea32bd39636020e8f898783d03802fb3507efb816d2e525a3","subject_id":"physical-component:ca9c5207e4e4202ea32bd39636020e8f898783d03802fb3507efb816d2e525a3"},"type":"Feature"},{"geometry":null,"id":"physical-component:d461dff8a46f322a5c4d5aa7c7ddaaaee64f4c205227d09feeb3b93420f33fa8","properties":{"id":"physical-component:d461dff8a46f322a5c4d5aa7c7ddaaaee64f4c205227d09feeb3b93420f33fa8","source_property":"subject_id","source_value":"physical-component:d461dff8a46f322a5c4d5aa7c7ddaaaee64f4c205227d09feeb3b93420f33fa8","subject_id":"physical-component:d461dff8a46f322a5c4d5aa7c7ddaaaee64f4c205227d09feeb3b93420f33fa8"},"type":"Feature"},{"geometry":null,"id":"physical-component:d76b0c2c3c68c11f128e13ad2a3528ae9bd624dedaed581e305431462cbfe7f9","properties":{"id":"physical-component:d76b0c2c3c68c11f128e13ad2a3528ae9bd624dedaed581e305431462cbfe7f9","source_property":"subject_id","source_value":"physical-component:d76b0c2c3c68c11f128e13ad2a3528ae9bd624dedaed581e305431462cbfe7f9","subject_id":"physical-component:d76b0c2c3c68c11f128e13ad2a3528ae9bd624dedaed581e305431462cbfe7f9"},"type":"Feature"}],"type":"FeatureCollection"}
