{"features":[{"geometry":{"coordinates":[[[-73.243723,40.910264],[-73.235341,40.907823],[-73.224599,40.908271],[-73.19608907934034,40.9149433363848],[-73.2293,40.9051],[-73.2510530418034,40.91151351080526],[-73.243723,40.910264]]],"type":"Polygon"},"id":"physical-component:0d5cd8f440225c82d59ce25614502e964386ee39735fb6b2e79d2fd87589f967","properties":{"administrative_assignment":null,"dateline_connected":false,"diagnostic_nearby_locations":[],"fragment_bindings":[{"feature_sha256":"40a10224c41af9e7008ce324c21d2cfb670a340a56a164092178c88871720985","id":"physical-gap:1461:29:92665b93aee633ae7587f2dbd2a262f41b830c3b08b464f88d02f64720bc499e"}],"measured_fragment_area_sum_m2":556249.4396576665,"measured_fragment_count":1,"positive_area_input_overlap":false,"touches_blocked_tile":false,"touches_domain_boundary":false,"touches_reference_shore":true,"unmeasured_fragment_ids":[],"water_status":"unverified"},"type":"Feature"},{"geometry":{"coordinates":[[[-72.084971,41.083543],[-72.081451,41.074879],[-72.086101,41.068189],[-72.08637699361502,41.06791209851125],[-72.08504447880766,41.08847089839602],[-72.084971,41.083543]]],"type":"Polygon"},"id":"physical-component:1df9d15457f298f714af8558b2b16db209a635f9fb3ec03a5dac44efa3a23ec4","properties":{"administrative_assignment":null,"dateline_connected":false,"diagnostic_nearby_locations":[],"fragment_bindings":[{"feature_sha256":"c9a708368d39e20beede233a3d2ebad58122db21265820af44a5da3b854f41d6","id":"physical-gap:1461:48:87edef5dd713c16861ac116979027289ea55516566ea0f63300dc403c890fc31"}],"measured_fragment_area_sum_m2":353896.84713241586,"measured_fragment_count":1,"positive_area_input_overlap":false,"touches_blocked_tile":false,"touches_domain_boundary":false,"touches_reference_shore":true,"unmeasured_fragment_ids":[],"water_status":"unverified"},"type":"Feature"},{"geometry":{"coordinates":[[[-73.76426,40.810032],[-73.755523,40.83279],[-73.74808064075333,40.83352305295776],[-73.7544,40.8268],[-73.76395447659472,40.809627765039224],[-73.76426,40.810032]]],"type":"Polygon"},"id":"physical-component:1e3ca3d7f1b45ca1cbb4fde683b982ff34c8cd6aecc2faddf0c268102e74e1e3","properties":{"administrative_assignment":null,"dateline_connected":false,"diagnostic_nearby_locations":[],"fragment_bindings":[{"feature_sha256":"fa76b68f7d430358d653f47214e8c42a11b6724a49936b02d8968f8671049d8d","id":"physical-gap:1461:21:f34329a6b1c367dba8f4b48b4cbff3de7927a6074e77977648ca76303e4ae9a6"}],"measured_fragment_area_sum_m2":620170.1138111089,"measured_fragment_count":1,"positive_area_input_overlap":false,"touches_blocked_tile":false,"touches_domain_boundary":false,"touches_reference_shore":true,"unmeasured_fragment_ids":[],"water_status":"unverified"},"type":"Feature"},{"geometry":{"coordinates":[[[-72.0107480743362,41.27551618686884],[-72.0189,41.2741],[-72.035,41.2555],[-72.0025,41.2529],[-71.98798150658402,41.26034380382768],[-71.988329,41.260085],[-71.998734,41.251666],[-72.022807,41.253487],[-72.038798,41.249447],[-72.036563,41.260865],[-72.026228,41.266904],[-72.02213,41.276858],[-72.011349,41.276208],[-72.0107480743362,41.27551618686884]]],"type":"Polygon"},"id":"physical-component:220fde3f67ccdeb3ce78c24dec30f25e23e07c6a251961c624b9cecd9e1d5de2","properties":{"administrative_assignment":null,"dateline_connected":false,"diagnostic_nearby_locations":[],"fragment_bindings":[{"feature_sha256":"4ad32b77da39602f573e2b8a0ee467fd0f93d1788dd0e668af88121c06366bbb","id":"physical-gap:1461:58:66b12f6d6d6bdc64abb0191a0d7a82bf7ee0f59f0b76ff1a85f1fec9918a30d7"}],"measured_fragment_area_sum_m2":1751993.2162539242,"measured_fragment_count":1,"positive_area_input_overlap":false,"touches_blocked_tile":false,"touches_domain_boundary":false,"touches_reference_shore":true,"unmeasured_fragment_ids":[],"water_status":"unverified"},"type":"Feature"},{"geometry":{"coordinates":[[[-72.304433,41.131944],[-72.33073497409055,41.12003548319875],[-72.3266,41.1322],[-72.3,41.1321],[-72.30011156447286,41.126577558593084],[-72.304433,41.131944]]],"type":"Polygon"},"id":"physical-component:2c7baec8900562907910e8aeacd785fbbd207d8c55f542827e8a99cbaad841ca","properties":{"administrative_assignment":null,"dateline_connected":false,"diagnostic_nearby_locations":[],"fragment_bindings":[{"feature_sha256":"b2c57423ead36e0370e28b0373eddb57c782e6f7d5b856c2940731848c345382","id":"physical-gap:1461:40:f77c0b7701ce0e2258788630180a6802fdf7229f105a561bbf5c6a2b71f0f2d4"}],"measured_fragment_area_sum_m2":1397749.5494093837,"measured_fragment_count":1,"positive_area_input_overlap":false,"touches_blocked_tile":false,"touches_domain_boundary":false,"touches_reference_shore":true,"unmeasured_fragment_ids":[],"water_status":"unverified"},"type":"Feature"},{"geometry":{"coordinates":[[[-73.632655,40.899586],[-73.57797030350382,40.9117010032545],[-73.6176,40.8979],[-73.6335603586523,40.898195562197266],[-73.632655,40.899586]]],"type":"Polygon"},"id":"physical-component:3addcf1688f537a931f845dc07a36d10065a3ef4124154b4a4c3ca7f8a872b48","properties":{"administrative_assignment":null,"dateline_connected":false,"diagnostic_nearby_locations":[],"fragment_bindings":[{"feature_sha256":"ea603913fc58fa19248be6043be4f20140c97bec8fa6eedf06f27c1d3336bc6f","id":"physical-gap:1461:24:020f429fb2d73a6ae0387b72a2426f4d62d12b87aaf1e06bc770bb425abdd75e"}],"measured_fragment_area_sum_m2":1389760.7242820677,"measured_fragment_count":1,"positive_area_input_overlap":false,"touches_blocked_tile":false,"touches_domain_boundary":false,"touches_reference_shore":true,"unmeasured_fragment_ids":[],"water_status":"unverified"},"type":"Feature"},{"geometry":{"coordinates":[[[-72.913477,40.712901],[-72.98167130974657,40.69129959678068],[-72.9232,40.7133],[-72.8250555136515,40.743883088326655],[-72.831532,40.741645],[-72.913477,40.712901]]],"type":"Polygon"},"id":"physical-component:3bd4c4c020ee3646ac7bdd4edb5246f42eb7284c832d09e77db2973cf3663baa","properties":{"administrative_assignment":null,"dateline_connected":false,"diagnostic_nearby_locations":[],"fragment_bindings":[{"feature_sha256":"497550731f65dc1e80526a2089f5610763c816f71287ed59465fa7ccae742fd3","id":"physical-gap:1461:6:ee6e1562b5729a55ca02056ec68b2136d344101cbc17415c9a5f5fb5b17535ba"}],"measured_fragment_area_sum_m2":2678859.88297588,"measured_fragment_count":1,"positive_area_input_overlap":false,"touches_blocked_tile":false,"touches_domain_boundary":false,"touches_reference_shore":true,"unmeasured_fragment_ids":[],"water_status":"unverified"},"type":"Feature"},{"geometry":{"coordinates":[[[-73.431304,40.933295],[-73.4333699667949,40.92925158924704],[-73.43603340718906,40.9337693235865],[-73.431304,40.933295]]],"type":"Polygon"},"id":"physical-component:4efaa659090038e509efd7ee5c874207eb602cfa1148f1ff1329a00a2e3e4789","properties":{"administrative_assignment":null,"dateline_connected":false,"diagnostic_nearby_locations":[],"fragment_bindings":[{"feature_sha256":"8789e4ff0c2bc80baf0d987bd02a1e305e2f6f178a34dd28d73b0adcce97423f","id":"physical-gap:1461:26:64a8414e54e044a776b7a102a33d98701bde240b886f97c027cb7e588faebe3a"}],"measured_fragment_area_sum_m2":94011.20360819278,"measured_fragment_count":1,"positive_area_input_overlap":false,"touches_blocked_tile":false,"touches_domain_boundary":false,"touches_reference_shore":true,"unmeasured_fragment_ids":[],"water_status":"unverified"},"type":"Feature"},{"geometry":{"coordinates":[[[-73.159495,40.930243],[-73.148101,40.945624],[-73.152821,40.96247],[-73.135365,40.968451],[-73.113149,40.973456],[-73.10282228004164,40.97062645722488],[-73.1408,40.9662],[-73.149,40.9289],[-73.17493984247342,40.92121172788459],[-73.159495,40.930243]]],"type":"Polygon"},"id":"physical-component:5ad1b17e738967f93f5853e612848035f5e327ca827a42754f14f9fc3cde8419","properties":{"administrative_assignment":null,"dateline_connected":false,"diagnostic_nearby_locations":[],"fragment_bindings":[{"feature_sha256":"d1b2c7aad1c4c76247589f887b2363518b2cd74868c01a16c8e56bc978ee8e87","id":"physical-gap:1461:30:2c2d0e0302068201c19322e2f9cd47dbabc28d521de001bce9ffdb1f3aae73f2"}],"measured_fragment_area_sum_m2":3734286.8872183887,"measured_fragment_count":1,"positive_area_input_overlap":false,"touches_blocked_tile":false,"touches_domain_boundary":false,"touches_reference_shore":true,"unmeasured_fragment_ids":[],"water_status":"unverified"},"type":"Feature"},{"geometry":{"coordinates":[[[-72.078431,41.099964],[-72.079034,41.094845],[-72.08482460706335,41.09186320530819],[-72.08424312024955,41.10083471614974],[-72.078431,41.099964]]],"type":"Polygon"},"id":"physical-component:5d2704040bde1a1f6d0c1611967c1db5d21925c538cafde7a213c06352425fa1","properties":{"administrative_assignment":null,"dateline_connected":false,"diagnostic_nearby_locations":[],"fragment_bindings":[{"feature_sha256":"8b34f2d0f596199c69858167d2ea1ae4ea22bfe2a283e1c0fe5bfcf6c03661bc","id":"physical-gap:1461:52:55ca9ee10188e96414414b761243a12a2a217e1fa7f1a9956e4d1841049ea43a"}],"measured_fragment_area_sum_m2":375504.3184814038,"measured_fragment_count":1,"positive_area_input_overlap":false,"touches_blocked_tile":false,"touches_domain_boundary":false,"touches_reference_shore":true,"unmeasured_fragment_ids":[],"water_status":"unverified"},"type":"Feature"},{"geometry":{"coordinates":[[[-72.696092,40.981018],[-72.63077977150417,40.983494941640856],[-72.6356,40.982],[-72.7081,40.9779],[-72.7741,40.9653],[-72.77810039502512,40.965646188031016],[-72.696092,40.981018]]],"type":"Polygon"},"id":"physical-component:61aab0fb0e7577153074a3f9c451a610234fa0becc1fe8fffffb9dff02c14dfc","properties":{"administrative_assignment":null,"dateline_connected":false,"diagnostic_nearby_locations":[],"fragment_bindings":[{"feature_sha256":"70582c6b67a796b4d67e77f51fafe02fcdae082e274d113070262acdf000c72e","id":"physical-gap:1461:34:00a7b2be233a5f1adb73643b273592eab7be48868d435feeeb11fbada64217a3"}],"measured_fragment_area_sum_m2":1901533.8512595878,"measured_fragment_count":1,"positive_area_input_overlap":false,"touches_blocked_tile":false,"touches_domain_boundary":false,"touches_reference_shore":true,"unmeasured_fragment_ids":[],"water_status":"unverified"},"type":"Feature"},{"geometry":{"coordinates":[[[-72.289459,41.16116],[-72.275543,41.162624],[-72.259999,41.160834],[-72.2472302508341,41.1557103107949],[-72.2681,41.1542],[-72.2788,41.1587],[-72.3128,41.148],[-72.33580668228662,41.1435434997992],[-72.289459,41.16116]]],"type":"Polygon"},"id":"physical-component:7038d5cd756212396c6a79db5fddff8e8a8498b82a6b33806b172cde40fd3e61","properties":{"administrative_assignment":null,"dateline_connected":false,"diagnostic_nearby_locations":[],"fragment_bindings":[{"feature_sha256":"fbb117b05f7a1884b521d3b4b4b26ff7f6195143d3e85b30ca51b2ff6b07d35f","id":"physical-gap:1461:38:0ef239550adb3077a9ce8250a0dd43932b02b0eea258b92f84475152523008b4"}],"measured_fragment_area_sum_m2":3480539.3274940397,"measured_fragment_count":1,"positive_area_input_overlap":false,"touches_blocked_tile":false,"touches_domain_boundary":false,"touches_reference_shore":true,"unmeasured_fragment_ids":[],"water_status":"unverified"},"type":"Feature"},{"geometry":{"coordinates":[[[-73.35096,40.930856],[-73.325901,40.929257],[-73.293184,40.924704],[-73.2832707281939,40.92101234235504],[-73.2951,40.9245],[-73.3314,40.9296],[-73.3528,40.9267],[-73.3661757578309,40.934291646336455],[-73.35096,40.930856]]],"type":"Polygon"},"id":"physical-component:7bbf331113650e658cb436223a5fd32d77f2db78bd875bab6e938cfbbc8e7e87","properties":{"administrative_assignment":null,"dateline_connected":false,"diagnostic_nearby_locations":[],"fragment_bindings":[{"feature_sha256":"c66321aa0b7d537831ad40102e51de7cfa1dae26ee5edd32bfbd8d3daeb6c07b","id":"physical-gap:1461:28:b4d02b89bff65205cff79fa88fd88b893126e7098810e377198345d10ccae724"}],"measured_fragment_area_sum_m2":904691.5215808171,"measured_fragment_count":1,"positive_area_input_overlap":false,"touches_blocked_tile":false,"touches_domain_boundary":false,"touches_reference_shore":true,"unmeasured_fragment_ids":[],"water_status":"unverified"},"type":"Feature"},{"geometry":{"coordinates":[[[-72.092789,41.061479],[-72.100823,41.054246],[-72.101021,41.067546],[-72.102585,41.081343],[-72.10623353894563,41.087363450631884],[-72.1032,41.0865],[-72.09027512529414,41.06400114403054],[-72.092789,41.061479]]],"type":"Polygon"},"id":"physical-component:7d8dce8a9315be3a3b1c2fcd6b7f282a06fdf2482e288691a1451152dd21319e","properties":{"administrative_assignment":null,"dateline_connected":false,"diagnostic_nearby_locations":[],"fragment_bindings":[{"feature_sha256":"31341c77d52233766d7f0733f75c9d0b62dfbdb8dc0072854092122d527a390b","id":"physical-gap:1461:49:e5d68bb994d3ed12319b8b87ae0ee6526ea69372d04bbaf4290018539df70557"}],"measured_fragment_area_sum_m2":1656514.0437196072,"measured_fragment_count":1,"positive_area_input_overlap":false,"touches_blocked_tile":false,"touches_domain_boundary":false,"touches_reference_shore":true,"unmeasured_fragment_ids":[],"water_status":"unverified"},"type":"Feature"},{"geometry":{"coordinates":[[[-73.410024,40.939887],[-73.407762,40.947162],[-73.401931,40.954404],[-73.395174,40.954368],[-73.379782,40.947013],[-73.37606817778332,40.93990626306621],[-73.4009,40.954],[-73.40429170741206,40.931953901821615],[-73.410024,40.939887]]],"type":"Polygon"},"id":"physical-component:865e780b790bfa12cdfb38c6fa88eec111dc2c2913469853e28d9f94382ea812","properties":{"administrative_assignment":null,"dateline_connected":false,"diagnostic_nearby_locations":[],"fragment_bindings":[{"feature_sha256":"c56d0be7d1b7b6bc535fb178dc9ef3183c44829166f6ad6b267f8b60ec35537c","id":"physical-gap:1461:27:4728d933a84d70e9c0c6b11e6ac4dd489450be4054f8cf2e6ff548b43837d707"}],"measured_fragment_area_sum_m2":1740057.6642366764,"measured_fragment_count":1,"positive_area_input_overlap":false,"touches_blocked_tile":false,"touches_domain_boundary":false,"touches_reference_shore":true,"unmeasured_fragment_ids":[],"water_status":"unverified"},"type":"Feature"},{"geometry":{"coordinates":[[[-72.327845,41.105056],[-72.322713,41.094572],[-72.31011251198429,41.087101463300804],[-72.3172,41.0887],[-72.33282689142897,41.104500523555956],[-72.327845,41.105056]]],"type":"Polygon"},"id":"physical-component:94a9ca93e19fada086cf060698084d033bb9995b65c3d832bd6d9635612c432b","properties":{"administrative_assignment":null,"dateline_connected":false,"diagnostic_nearby_locations":[],"fragment_bindings":[{"feature_sha256":"4e29ade7a5efdc2744a598e0b9144a5ea3977593c3a6cef30f30cddaa3211a1b","id":"physical-gap:1461:47:058bec5f0ac52cc3bd965697c1b695431ecf89658ab832d129178460e08c816e"}],"measured_fragment_area_sum_m2":431691.5724761345,"measured_fragment_count":1,"positive_area_input_overlap":false,"touches_blocked_tile":false,"touches_domain_boundary":false,"touches_reference_shore":true,"unmeasured_fragment_ids":[],"water_status":"unverified"},"type":"Feature"},{"geometry":{"coordinates":[[[-71.994004,41.283081],[-71.976809,41.284706],[-71.953888,41.286711],[-71.939757,41.292197],[-71.920732,41.291396],[-71.928001,41.281979],[-71.94654229224966,41.276577528461125],[-71.9353,41.2806],[-71.9268,41.2901],[-71.99629115108954,41.278027704479555],[-71.994004,41.283081]]],"type":"Polygon"},"id":"physical-component:9ad496ca9b29c51c464f7cf28469df69702f65da00d1517f7f28a71b88b93854","properties":{"administrative_assignment":null,"dateline_connected":false,"diagnostic_nearby_locations":[],"fragment_bindings":[{"feature_sha256":"4540b6b8cbfa20dd2320b8d7e7d9688eec3f96b4f71e8e779ee75db7863cab29","id":"physical-gap:1461:59:d0742ab6f7c7ed98ae0081797a95419f3117a985c53251b52ed85055abf00a1a"}],"measured_fragment_area_sum_m2":2503243.9114182154,"measured_fragment_count":1,"positive_area_input_overlap":false,"touches_blocked_tile":false,"touches_domain_boundary":false,"touches_reference_shore":true,"unmeasured_fragment_ids":[],"water_status":"unverified"},"type":"Feature"},{"geometry":{"coordinates":[[[-72.757239,40.760086],[-72.7991130414017,40.75196709742128],[-72.7682,40.7616],[-72.75715945781884,40.76453016442898],[-72.757239,40.760086]]],"type":"Polygon"},"id":"physical-component:a9508b456b2255dfc443dee9db07d52004ceffd276a1240184238e4fc9e69996","properties":{"administrative_assignment":null,"dateline_connected":false,"diagnostic_nearby_locations":[],"fragment_bindings":[{"feature_sha256":"9cfdf1df5804e900415976f8c3ab48f5ad1e0b48e01ab2c222daaeafe6c44b7b","id":"physical-gap:1461:9:35aed758d65291dcf5fe03a8afcf3da768c6ece08da1a91f02bde2afb1d77733"}],"measured_fragment_area_sum_m2":943438.2855802315,"measured_fragment_count":1,"positive_area_input_overlap":false,"touches_blocked_tile":false,"touches_domain_boundary":false,"touches_reference_shore":true,"unmeasured_fragment_ids":[],"water_status":"unverified"},"type":"Feature"},{"geometry":{"coordinates":[[[-73.008969,40.967066],[-72.95407119923001,40.96513939774447],[-72.9959,40.9665],[-73.0437,40.9622],[-73.0470353969343,40.9631592566381],[-73.008969,40.967066]]],"type":"Polygon"},"id":"physical-component:af3dbd85007c6a292e9fb5b1b5b4fa4d18f8dac246d2cbd341e53375d37cd089","properties":{"administrative_assignment":null,"dateline_connected":false,"diagnostic_nearby_locations":[],"fragment_bindings":[{"feature_sha256":"a4df5fc19c6c7ad5007ce7d104c4655c1774ab4e0fa4ee1d7c740c86ab1e1772","id":"physical-gap:1461:32:3b66371909a890af3da0ff08d102d69d2349039719e4ea14cc091effbed8bf45"}],"measured_fragment_area_sum_m2":648271.5932983704,"measured_fragment_count":1,"positive_area_input_overlap":false,"touches_blocked_tile":false,"touches_domain_boundary":false,"touches_reference_shore":true,"unmeasured_fragment_ids":[],"water_status":"unverified"},"type":"Feature"},{"geometry":{"coordinates":[[[-72.180043,41.047065],[-72.166866,41.056647],[-72.155385,41.054999],[-72.14622628630414,41.044407221293206],[-72.1629,41.0532],[-72.18143957982477,41.039412442440785],[-72.180043,41.047065]]],"type":"Polygon"},"id":"physical-component:b4d12d01304c262324cf85ab2a6109e8e04d8724e7d01eb5f43e37265b164219","properties":{"administrative_assignment":null,"dateline_connected":false,"diagnostic_nearby_locations":[],"fragment_bindings":[{"feature_sha256":"157f8f3823897cf62a7387177d2ab695772cfebab5cc19aa95938cc1b4754d3a","id":"physical-gap:1461:42:9d8c877d0228be37a305f12b5b3924ecbe85987b3f999143b1635b94f091ce2d"}],"measured_fragment_area_sum_m2":1564599.9804409463,"measured_fragment_count":1,"positive_area_input_overlap":false,"touches_blocked_tile":false,"touches_domain_boundary":false,"touches_reference_shore":true,"unmeasured_fragment_ids":[],"water_status":"unverified"},"type":"Feature"},{"geometry":{"coordinates":[[[-73.520463,40.917602],[-73.51854876793264,40.91452441295933],[-73.5481,40.9087],[-73.5632729709419,40.91465182838053],[-73.520463,40.917602]]],"type":"Polygon"},"id":"physical-component:bc664631a586f1e27ef51cbd4c204e2c76c76508cb908623cfd724b89380a3c9","properties":{"administrative_assignment":null,"dateline_connected":false,"diagnostic_nearby_locations":[],"fragment_bindings":[{"feature_sha256":"8f9cc6e10fcdd34323aaf756606d21192ee6dc6c6ba0fc1ac78d47ae0b2d56b1","id":"physical-gap:1461:25:98ad783699a534189b0823b95e5a3ab245159b74fd886738a5f331a8cf5157df"}],"measured_fragment_area_sum_m2":1878864.5820003042,"measured_fragment_count":1,"positive_area_input_overlap":false,"touches_blocked_tile":false,"touches_domain_boundary":false,"touches_reference_shore":true,"unmeasured_fragment_ids":[],"water_status":"unverified"},"type":"Feature"},{"geometry":{"coordinates":[[[-71.930904,41.078791],[-71.9033,41.084672],[-71.875111,41.07571],[-71.857411,41.071723],[-71.85805699791156,41.07089089049564],[-71.9194,41.0805],[-71.93022032041267,41.07799679154632],[-71.930904,41.078791]]],"type":"Polygon"},"id":"physical-component:bd883198a057109964cc5345182b6b5f2860e0804e3562ac6b614b4a2d7c3826","properties":{"administrative_assignment":null,"dateline_connected":false,"diagnostic_nearby_locations":[],"fragment_bindings":[{"feature_sha256":"17d1b4cc295d1136a9be9756fddcee5204d488059adb03b1b6d9ea152732868a","id":"physical-gap:1461:45:360ecda1788aa1ef1a98e37a932c54ad6ff510f122c18fb9f96a8c8625d70625"}],"measured_fragment_area_sum_m2":2061217.0570346112,"measured_fragment_count":1,"positive_area_input_overlap":false,"touches_blocked_tile":false,"touches_domain_boundary":false,"touches_reference_shore":true,"unmeasured_fragment_ids":[],"water_status":"unverified"},"type":"Feature"},{"geometry":{"coordinates":[[[-73.674387,40.958808],[-73.676991,40.954779],[-73.68192820454546,40.954779],[-73.6781,40.9628],[-73.66786566487382,40.96596642412744],[-73.674387,40.958808]]],"type":"Polygon"},"id":"physical-component:c2c8e5c5acf10e5acac71b2dbd2e6cabcbe3c3581eb623a532ca0207672d0189","properties":{"administrative_assignment":null,"dateline_connected":false,"diagnostic_nearby_locations":[],"fragment_bindings":[{"feature_sha256":"4c5601f938d7f3754fd2c6a4ed638aa32b248152c3c923828396ed53054cd077","id":"physical-gap:1461:150:7de632d67bd80fd913dc611bde7aa170e8a80a049f547f1b3d072d05c88da7b0"}],"measured_fragment_area_sum_m2":549581.3359418467,"measured_fragment_count":1,"positive_area_input_overlap":false,"touches_blocked_tile":false,"touches_domain_boundary":false,"touches_reference_shore":true,"unmeasured_fragment_ids":[],"water_status":"unverified"},"type":"Feature"},{"geometry":{"coordinates":[[[-72.049875,41.017686],[-72.011708,41.0421],[-71.992747,41.049628],[-71.97930751263053,41.0447135959038],[-71.9993,41.0397],[-72.0495,41.0097],[-72.07530198836172,41.00912018003681],[-72.049875,41.017686]]],"type":"Polygon"},"id":"physical-component:d2216da42120f0ab9794f3f93f25471a78be05306449fd0c47d63d1378a497c2","properties":{"administrative_assignment":null,"dateline_connected":false,"diagnostic_nearby_locations":[],"fragment_bindings":[{"feature_sha256":"466f0c5bc537ae235bd251dd65a92f00f0e95bd7cffacf70c5847c1fd1bdf59a","id":"physical-gap:1461:44:fa59b931bc6513387a575a6374a9ed4a0bcbaa8dddcb12843b7161d6b47de7d9"}],"measured_fragment_area_sum_m2":6152356.613727789,"measured_fragment_count":1,"positive_area_input_overlap":false,"touches_blocked_tile":false,"touches_domain_boundary":false,"touches_reference_shore":true,"unmeasured_fragment_ids":[],"water_status":"unverified"},"type":"Feature"},{"geometry":{"coordinates":[[[-72.131022,41.120472],[-72.11772950387126,41.1122294412388],[-72.1267,41.1151],[-72.12900513795601,41.11263834033092],[-72.131022,41.120472]]],"type":"Polygon"},"id":"physical-component:d25f41b84205be68248e012df2b562246641445878219e5b1b558186ee0c4e44","properties":{"administrative_assignment":null,"dateline_connected":false,"diagnostic_nearby_locations":[],"fragment_bindings":[{"feature_sha256":"34bfb7e2c7758bf3440280e564543f8266ff0111078587ae7aa59ee4fa43a226","id":"physical-gap:1461:51:b2c2f9f42535847483e723f49b060fb8b92271846d2aba7248dbeb1ce33e508e"}],"measured_fragment_area_sum_m2":274248.9171228838,"measured_fragment_count":1,"positive_area_input_overlap":false,"touches_blocked_tile":false,"touches_domain_boundary":false,"touches_reference_shore":true,"unmeasured_fragment_ids":[],"water_status":"unverified"},"type":"Feature"},{"geometry":{"coordinates":[[[-72.541819,40.820502],[-72.60528,40.80133],[-72.704442,40.776177],[-72.723955,40.770419],[-72.732004,40.769965],[-72.73336267987126,40.770845839069075],[-72.5734,40.8133],[-72.53222614425891,40.8250070731024],[-72.541819,40.820502]]],"type":"Polygon"},"id":"physical-component:d7bbc7721978ab1eb97340891ba6447601ace13bf7145687be979cf34ce4d311","properties":{"administrative_assignment":null,"dateline_connected":false,"diagnostic_nearby_locations":[],"fragment_bindings":[{"feature_sha256":"0281ce4343351be7ce96113cc8df66722f8076c4f519dee18376f473c5801535","id":"physical-gap:1461:13:e12a7ba0f1ba94f0e2cd381b2ce94d37abd514fb04581daaf1b91b8793226ca4"}],"measured_fragment_area_sum_m2":4929345.814300864,"measured_fragment_count":1,"positive_area_input_overlap":false,"touches_blocked_tile":false,"touches_domain_boundary":false,"touches_reference_shore":true,"unmeasured_fragment_ids":[],"water_status":"unverified"},"type":"Feature"},{"geometry":{"coordinates":[[[-73.389516,40.616767],[-73.57412,40.575093],[-73.57000602876649,40.583200084246506],[-73.5591,40.582],[-73.4238,40.6099],[-73.3515,40.6305],[-73.32863579859323,40.63285900490705],[-73.389516,40.616767]]],"type":"Polygon"},"id":"physical-component:e1e5980f4bf2115afa927e4db9f71ce40fa6e0ac1507274e2177b67d1163002b","properties":{"administrative_assignment":null,"dateline_connected":false,"diagnostic_nearby_locations":[],"fragment_bindings":[{"feature_sha256":"7cd9e13414a506f536ae1c12301aec065c48195398e7799612ad9a3761b4832e","id":"physical-gap:1461:5:3f331f1f0e3c9b88c25a1abdf4f897e151f035bc2a414329eaebea52b8b46ea3"}],"measured_fragment_area_sum_m2":5657960.265399418,"measured_fragment_count":1,"positive_area_input_overlap":false,"touches_blocked_tile":false,"touches_domain_boundary":false,"touches_reference_shore":true,"unmeasured_fragment_ids":[],"water_status":"unverified"},"type":"Feature"},{"geometry":{"coordinates":[[[-71.89514981267652,41.04367172035618],[-71.87930470483344,41.0501054721985],[-71.88497,41.045397],[-71.89514981267652,41.04367172035618]]],"type":"Polygon"},"id":"physical-component:e4585fcb416f8493c5fba83bbecc26fbf97cc1a80d1f12b99529f1a5aa0bc510","properties":{"administrative_assignment":null,"dateline_connected":false,"diagnostic_nearby_locations":[],"fragment_bindings":[{"feature_sha256":"a8340effe7bf4baf3c61d1c1c85aa9e1f3023de9d667df904805c0325e77a85a","id":"physical-gap:1461:10:bf97248e7b957c93a1cfd98638035e7c27d8ccae387201d47ecdec818b252e72"}],"measured_fragment_area_sum_m2":178137.8243802517,"measured_fragment_count":1,"positive_area_input_overlap":false,"touches_blocked_tile":false,"touches_domain_boundary":false,"touches_reference_shore":true,"unmeasured_fragment_ids":[],"water_status":"unverified"},"type":"Feature"},{"geometry":{"coordinates":[[[-73.581801,40.584486],[-73.63496436206648,40.58376948752914],[-73.6109,40.5877],[-73.58179295421964,40.584497101139995],[-73.581801,40.584486]]],"type":"Polygon"},"id":"physical-component:eddb906492f46099a07b0ca4baea9c991a0d2d4bf9e36b79c723d450f73509fd","properties":{"administrative_assignment":null,"dateline_connected":false,"diagnostic_nearby_locations":[],"fragment_bindings":[{"feature_sha256":"e9fe0c8398fd4dde1b0e2dbd9980f10c868e48ee938b02fd0c31881ab9a98438","id":"physical-gap:1461:14:fcb32dd4e922604613e45c6c1717d22c3f8863931f31efa911e2e1c1c810c106"}],"measured_fragment_area_sum_m2":902821.9780758617,"measured_fragment_count":1,"positive_area_input_overlap":false,"touches_blocked_tile":false,"touches_domain_boundary":false,"touches_reference_shore":true,"unmeasured_fragment_ids":[],"water_status":"unverified"},"type":"Feature"},{"geometry":{"coordinates":[[[-72.122874,41.017401],[-72.118153,41.006863],[-72.108998,41.00141],[-72.088043,41.004828],[-72.07668661125109,41.00865372957801],[-72.0955,40.9914],[-72.1164,40.9998],[-72.1374,41.0239],[-72.13733528453525,41.034125043430116],[-72.122874,41.017401]]],"type":"Polygon"},"id":"physical-component:f32b35fb8de66f53a0118e8b14c6abb745e36f7041a4b533925fb412df630cba","properties":{"administrative_assignment":null,"dateline_connected":false,"diagnostic_nearby_locations":[],"fragment_bindings":[{"feature_sha256":"ec5e7aff1e5292d6a1317810337a6281ec1e7ca8698617c54b4619ac91c1f3f3","id":"physical-gap:1461:43:329c91a2c8f1956c70c71d7c24323e0d1774ca800f5baeab3127186903d01373"}],"measured_fragment_area_sum_m2":4242470.355677544,"measured_fragment_count":1,"positive_area_input_overlap":false,"touches_blocked_tile":false,"touches_domain_boundary":false,"touches_reference_shore":true,"unmeasured_fragment_ids":[],"water_status":"unverified"},"type":"Feature"},{"geometry":{"coordinates":[[[-72.241689,41.146796],[-72.246897,41.135443],[-72.260243,41.125027],[-72.276194,41.117051],[-72.289459,41.113349],[-72.29179449862217,41.11624926692127],[-72.2651,41.1285],[-72.2437972919406,41.15019144360794],[-72.241689,41.146796]]],"type":"Polygon"},"id":"physical-component:fd82dda9164b11cdd30c2e329bed927aac031c881fab7c33cf311fe56700bbd5","properties":{"administrative_assignment":null,"dateline_connected":false,"diagnostic_nearby_locations":[],"fragment_bindings":[{"feature_sha256":"db7277e596f9e2d94b00af8339b5ebf468ada860b981e68ce1c4a817960011f0","id":"physical-gap:1461:39:423764daab9795b07ed4892e156141ea62c3633bdbf32cb73927cba2ed0ab2c4"}],"measured_fragment_area_sum_m2":3247470.808077482,"measured_fragment_count":1,"positive_area_input_overlap":false,"touches_blocked_tile":false,"touches_domain_boundary":false,"touches_reference_shore":true,"unmeasured_fragment_ids":[],"water_status":"unverified"},"type":"Feature"}],"type":"FeatureCollection"}
