{"type":"FeatureCollection","features":[{"type":"Feature","id":"geoBoundaries:CAN:ADM3:43193130B12141514689015","geometry":null,"properties":{"id":"geoBoundaries:CAN:ADM3:43193130B12141514689015","source_value":"43193130B12141514689015","source_property":"shapeID"}},{"type":"Feature","id":"geoBoundaries:CAN:ADM3:43193130B12591205224049","geometry":null,"properties":{"id":"geoBoundaries:CAN:ADM3:43193130B12591205224049","source_value":"43193130B12591205224049","source_property":"shapeID"}},{"type":"Feature","id":"geoBoundaries:CAN:ADM3:43193130B13342100698107","geometry":null,"properties":{"id":"geoBoundaries:CAN:ADM3:43193130B13342100698107","source_value":"43193130B13342100698107","source_property":"shapeID"}},{"type":"Feature","id":"geoBoundaries:CAN:ADM3:43193130B13542881351841","geometry":null,"properties":{"id":"geoBoundaries:CAN:ADM3:43193130B13542881351841","source_value":"43193130B13542881351841","source_property":"shapeID"}},{"type":"Feature","id":"geoBoundaries:CAN:ADM3:43193130B14290774659145","geometry":null,"properties":{"id":"geoBoundaries:CAN:ADM3:43193130B14290774659145","source_value":"43193130B14290774659145","source_property":"shapeID"}},{"type":"Feature","id":"geoBoundaries:CAN:ADM3:43193130B15572795013048","geometry":null,"properties":{"id":"geoBoundaries:CAN:ADM3:43193130B15572795013048","source_value":"43193130B15572795013048","source_property":"shapeID"}},{"type":"Feature","id":"geoBoundaries:CAN:ADM3:43193130B15668502554992","geometry":null,"properties":{"id":"geoBoundaries:CAN:ADM3:43193130B15668502554992","source_value":"43193130B15668502554992","source_property":"shapeID"}},{"type":"Feature","id":"geoBoundaries:CAN:ADM3:43193130B18247956425391","geometry":null,"properties":{"id":"geoBoundaries:CAN:ADM3:43193130B18247956425391","source_value":"43193130B18247956425391","source_property":"shapeID"}},{"type":"Feature","id":"geoBoundaries:CAN:ADM3:43193130B18597637340243","geometry":null,"properties":{"id":"geoBoundaries:CAN:ADM3:43193130B18597637340243","source_value":"43193130B18597637340243","source_property":"shapeID"}},{"type":"Feature","id":"geoBoundaries:CAN:ADM3:43193130B1928624142040","geometry":null,"properties":{"id":"geoBoundaries:CAN:ADM3:43193130B1928624142040","source_value":"43193130B1928624142040","source_property":"shapeID"}},{"type":"Feature","id":"geoBoundaries:CAN:ADM3:43193130B20950269413446","geometry":null,"properties":{"id":"geoBoundaries:CAN:ADM3:43193130B20950269413446","source_value":"43193130B20950269413446","source_property":"shapeID"}},{"type":"Feature","id":"geoBoundaries:CAN:ADM3:43193130B26995962418717","geometry":null,"properties":{"id":"geoBoundaries:CAN:ADM3:43193130B26995962418717","source_value":"43193130B26995962418717","source_property":"shapeID"}},{"type":"Feature","id":"geoBoundaries:CAN:ADM3:43193130B2772485207319","geometry":null,"properties":{"id":"geoBoundaries:CAN:ADM3:43193130B2772485207319","source_value":"43193130B2772485207319","source_property":"shapeID"}},{"type":"Feature","id":"geoBoundaries:CAN:ADM3:43193130B29432146532932","geometry":null,"properties":{"id":"geoBoundaries:CAN:ADM3:43193130B29432146532932","source_value":"43193130B29432146532932","source_property":"shapeID"}},{"type":"Feature","id":"geoBoundaries:CAN:ADM3:43193130B33495642174724","geometry":null,"properties":{"id":"geoBoundaries:CAN:ADM3:43193130B33495642174724","source_value":"43193130B33495642174724","source_property":"shapeID"}},{"type":"Feature","id":"geoBoundaries:CAN:ADM3:43193130B33792912870","geometry":null,"properties":{"id":"geoBoundaries:CAN:ADM3:43193130B33792912870","source_value":"43193130B33792912870","source_property":"shapeID"}},{"type":"Feature","id":"geoBoundaries:CAN:ADM3:43193130B35087153660221","geometry":null,"properties":{"id":"geoBoundaries:CAN:ADM3:43193130B35087153660221","source_value":"43193130B35087153660221","source_property":"shapeID"}},{"type":"Feature","id":"geoBoundaries:CAN:ADM3:43193130B3536991528911","geometry":null,"properties":{"id":"geoBoundaries:CAN:ADM3:43193130B3536991528911","source_value":"43193130B3536991528911","source_property":"shapeID"}},{"type":"Feature","id":"geoBoundaries:CAN:ADM3:43193130B35886579594118","geometry":null,"properties":{"id":"geoBoundaries:CAN:ADM3:43193130B35886579594118","source_value":"43193130B35886579594118","source_property":"shapeID"}},{"type":"Feature","id":"geoBoundaries:CAN:ADM3:43193130B37541401945135","geometry":null,"properties":{"id":"geoBoundaries:CAN:ADM3:43193130B37541401945135","source_value":"43193130B37541401945135","source_property":"shapeID"}},{"type":"Feature","id":"geoBoundaries:CAN:ADM3:43193130B38263156934804","geometry":null,"properties":{"id":"geoBoundaries:CAN:ADM3:43193130B38263156934804","source_value":"43193130B38263156934804","source_property":"shapeID"}},{"type":"Feature","id":"geoBoundaries:CAN:ADM3:43193130B41462517735660","geometry":null,"properties":{"id":"geoBoundaries:CAN:ADM3:43193130B41462517735660","source_value":"43193130B41462517735660","source_property":"shapeID"}},{"type":"Feature","id":"geoBoundaries:CAN:ADM3:43193130B42422825466963","geometry":null,"properties":{"id":"geoBoundaries:CAN:ADM3:43193130B42422825466963","source_value":"43193130B42422825466963","source_property":"shapeID"}},{"type":"Feature","id":"geoBoundaries:CAN:ADM3:43193130B42684500783199","geometry":null,"properties":{"id":"geoBoundaries:CAN:ADM3:43193130B42684500783199","source_value":"43193130B42684500783199","source_property":"shapeID"}},{"type":"Feature","id":"geoBoundaries:CAN:ADM3:43193130B42698646227552","geometry":null,"properties":{"id":"geoBoundaries:CAN:ADM3:43193130B42698646227552","source_value":"43193130B42698646227552","source_property":"shapeID"}},{"type":"Feature","id":"geoBoundaries:CAN:ADM3:43193130B42952333232399","geometry":null,"properties":{"id":"geoBoundaries:CAN:ADM3:43193130B42952333232399","source_value":"43193130B42952333232399","source_property":"shapeID"}},{"type":"Feature","id":"geoBoundaries:CAN:ADM3:43193130B51062932449598","geometry":null,"properties":{"id":"geoBoundaries:CAN:ADM3:43193130B51062932449598","source_value":"43193130B51062932449598","source_property":"shapeID"}},{"type":"Feature","id":"geoBoundaries:CAN:ADM3:43193130B51102265154077","geometry":null,"properties":{"id":"geoBoundaries:CAN:ADM3:43193130B51102265154077","source_value":"43193130B51102265154077","source_property":"shapeID"}},{"type":"Feature","id":"geoBoundaries:CAN:ADM3:43193130B51121353420267","geometry":null,"properties":{"id":"geoBoundaries:CAN:ADM3:43193130B51121353420267","source_value":"43193130B51121353420267","source_property":"shapeID"}},{"type":"Feature","id":"geoBoundaries:CAN:ADM3:43193130B57448521707098","geometry":null,"properties":{"id":"geoBoundaries:CAN:ADM3:43193130B57448521707098","source_value":"43193130B57448521707098","source_property":"shapeID"}},{"type":"Feature","id":"geoBoundaries:CAN:ADM3:43193130B59620495937513","geometry":null,"properties":{"id":"geoBoundaries:CAN:ADM3:43193130B59620495937513","source_value":"43193130B59620495937513","source_property":"shapeID"}},{"type":"Feature","id":"geoBoundaries:CAN:ADM3:43193130B67619845912536","geometry":null,"properties":{"id":"geoBoundaries:CAN:ADM3:43193130B67619845912536","source_value":"43193130B67619845912536","source_property":"shapeID"}},{"type":"Feature","id":"geoBoundaries:CAN:ADM3:43193130B6769578185820","geometry":null,"properties":{"id":"geoBoundaries:CAN:ADM3:43193130B6769578185820","source_value":"43193130B6769578185820","source_property":"shapeID"}},{"type":"Feature","id":"geoBoundaries:CAN:ADM3:43193130B6936154177536","geometry":null,"properties":{"id":"geoBoundaries:CAN:ADM3:43193130B6936154177536","source_value":"43193130B6936154177536","source_property":"shapeID"}},{"type":"Feature","id":"geoBoundaries:CAN:ADM3:43193130B70051524273903","geometry":null,"properties":{"id":"geoBoundaries:CAN:ADM3:43193130B70051524273903","source_value":"43193130B70051524273903","source_property":"shapeID"}},{"type":"Feature","id":"geoBoundaries:CAN:ADM3:43193130B70598927626158","geometry":null,"properties":{"id":"geoBoundaries:CAN:ADM3:43193130B70598927626158","source_value":"43193130B70598927626158","source_property":"shapeID"}},{"type":"Feature","id":"geoBoundaries:CAN:ADM3:43193130B71777413441135","geometry":null,"properties":{"id":"geoBoundaries:CAN:ADM3:43193130B71777413441135","source_value":"43193130B71777413441135","source_property":"shapeID"}},{"type":"Feature","id":"geoBoundaries:CAN:ADM3:43193130B74589218000783","geometry":null,"properties":{"id":"geoBoundaries:CAN:ADM3:43193130B74589218000783","source_value":"43193130B74589218000783","source_property":"shapeID"}},{"type":"Feature","id":"geoBoundaries:CAN:ADM3:43193130B74957897296367","geometry":null,"properties":{"id":"geoBoundaries:CAN:ADM3:43193130B74957897296367","source_value":"43193130B74957897296367","source_property":"shapeID"}},{"type":"Feature","id":"geoBoundaries:CAN:ADM3:43193130B75129139790615","geometry":null,"properties":{"id":"geoBoundaries:CAN:ADM3:43193130B75129139790615","source_value":"43193130B75129139790615","source_property":"shapeID"}},{"type":"Feature","id":"geoBoundaries:CAN:ADM3:43193130B80621580105703","geometry":null,"properties":{"id":"geoBoundaries:CAN:ADM3:43193130B80621580105703","source_value":"43193130B80621580105703","source_property":"shapeID"}},{"type":"Feature","id":"geoBoundaries:CAN:ADM3:43193130B81295403287390","geometry":null,"properties":{"id":"geoBoundaries:CAN:ADM3:43193130B81295403287390","source_value":"43193130B81295403287390","source_property":"shapeID"}},{"type":"Feature","id":"geoBoundaries:CAN:ADM3:43193130B85027406099042","geometry":null,"properties":{"id":"geoBoundaries:CAN:ADM3:43193130B85027406099042","source_value":"43193130B85027406099042","source_property":"shapeID"}},{"type":"Feature","id":"geoBoundaries:CAN:ADM3:43193130B86291824675233","geometry":null,"properties":{"id":"geoBoundaries:CAN:ADM3:43193130B86291824675233","source_value":"43193130B86291824675233","source_property":"shapeID"}},{"type":"Feature","id":"geoBoundaries:CAN:ADM3:43193130B92702532338216","geometry":null,"properties":{"id":"geoBoundaries:CAN:ADM3:43193130B92702532338216","source_value":"43193130B92702532338216","source_property":"shapeID"}},{"type":"Feature","id":"geoBoundaries:CAN:ADM3:43193130B93000956745319","geometry":null,"properties":{"id":"geoBoundaries:CAN:ADM3:43193130B93000956745319","source_value":"43193130B93000956745319","source_property":"shapeID"}},{"type":"Feature","id":"geoBoundaries:CAN:ADM3:43193130B93489942578002","geometry":null,"properties":{"id":"geoBoundaries:CAN:ADM3:43193130B93489942578002","source_value":"43193130B93489942578002","source_property":"shapeID"}},{"type":"Feature","id":"geoBoundaries:CAN:ADM3:43193130B93614945094540","geometry":null,"properties":{"id":"geoBoundaries:CAN:ADM3:43193130B93614945094540","source_value":"43193130B93614945094540","source_property":"shapeID"}},{"type":"Feature","id":"geoBoundaries:CAN:ADM3:43193130B95000363291297","geometry":null,"properties":{"id":"geoBoundaries:CAN:ADM3:43193130B95000363291297","source_value":"43193130B95000363291297","source_property":"shapeID"}},{"type":"Feature","id":"geoBoundaries:CAN:ADM3:43193130B95007972695894","geometry":null,"properties":{"id":"geoBoundaries:CAN:ADM3:43193130B95007972695894","source_value":"43193130B95007972695894","source_property":"shapeID"}},{"type":"Feature","id":"geoBoundaries:CAN:ADM3:43193130B95302560466471","geometry":null,"properties":{"id":"geoBoundaries:CAN:ADM3:43193130B95302560466471","source_value":"43193130B95302560466471","source_property":"shapeID"}},{"type":"Feature","id":"geoBoundaries:CAN:ADM3:43193130B95482261790988","geometry":null,"properties":{"id":"geoBoundaries:CAN:ADM3:43193130B95482261790988","source_value":"43193130B95482261790988","source_property":"shapeID"}},{"type":"Feature","id":"geoBoundaries:CAN:ADM3:43193130B95651081318383","geometry":null,"properties":{"id":"geoBoundaries:CAN:ADM3:43193130B95651081318383","source_value":"43193130B95651081318383","source_property":"shapeID"}},{"type":"Feature","id":"geoBoundaries:CAN:ADM3:43193130B95822942987880","geometry":null,"properties":{"id":"geoBoundaries:CAN:ADM3:43193130B95822942987880","source_value":"43193130B95822942987880","source_property":"shapeID"}},{"type":"Feature","id":"geoBoundaries:CAN:ADM3:43193130B96239326387532","geometry":null,"properties":{"id":"geoBoundaries:CAN:ADM3:43193130B96239326387532","source_value":"43193130B96239326387532","source_property":"shapeID"}},{"type":"Feature","id":"geoBoundaries:CAN:ADM3:43193130B97464514276511","geometry":null,"properties":{"id":"geoBoundaries:CAN:ADM3:43193130B97464514276511","source_value":"43193130B97464514276511","source_property":"shapeID"}},{"type":"Feature","id":"geoBoundaries:CAN:ADM3:43193130B9756217679681","geometry":null,"properties":{"id":"geoBoundaries:CAN:ADM3:43193130B9756217679681","source_value":"43193130B9756217679681","source_property":"shapeID"}},{"type":"Feature","id":"geoBoundaries:CAN:ADM3:43193130B98354556834582","geometry":null,"properties":{"id":"geoBoundaries:CAN:ADM3:43193130B98354556834582","source_value":"43193130B98354556834582","source_property":"shapeID"}}]}
