{"type":"FeatureCollection","features":[{"type":"Feature","id":"WHSE_LEGAL_ADMIN_BOUNDARIES.ABMS_MUNICIPALITIES_SP.9","geometry":{"type":"Polygon","coordinates":[[[-127.06941054,54.68062395],[-127.06581898,54.67960292],[-127.06582116,54.68099983],[-127.06579545,54.68099953],[-127.06576048,54.68099942],[-127.06531636,54.68099285],[-127.06489658,54.68098633],[-127.06489368,54.68098745],[-127.06451181,54.6809832],[-127.06407163,54.68097775],[-127.06387364,54.68097606],[-127.06364407,54.68097342],[-127.06257913,54.68096209],[-127.06162489,54.68095097],[-127.06140435,54.68094934],[-127.059563,54.68091818],[-127.05956129,54.6773674],[-127.053437,54.67729987],[-127.0470726,54.67716439],[-127.04707971,54.67897305],[-127.04712917,54.68078864],[-127.04712157,54.68132731],[-127.04711734,54.68176184],[-127.04711581,54.68185815],[-127.04711164,54.68223108],[-127.04710379,54.68301721],[-127.0471008,54.68327591],[-127.04709884,54.68347078],[-127.04709697,54.68360742],[-127.04709366,54.68364435],[-127.04709189,54.68385715],[-127.04709387,54.68385936],[-127.04709407,54.6838706],[-127.04708893,54.68431294],[-127.0470877,54.68444879],[-127.04694753,54.68806985],[-127.04694279,54.68864121],[-127.04693613,54.68955264],[-127.04693464,54.68983936],[-127.0469276,54.69066815],[-127.04692767,54.69067039],[-127.04692976,54.6906771],[-127.04692462,54.69183363],[-127.04611779,54.69183208],[-127.04510181,54.69183445],[-127.04446285,54.69183975],[-127.04387793,54.69083576],[-127.04384435,54.69078045],[-127.04380966,54.69072538],[-127.04377971,54.69067934],[-127.04374901,54.69063348],[-127.04370984,54.69057682],[-127.04366951,54.69052045],[-127.04363848,54.69047834],[-127.04360683,54.6904364],[-127.04356987,54.69038873],[-127.04353208,54.69034127],[-127.04349281,54.69029327],[-127.04345268,54.69024553],[-127.04338763,54.69017068],[-127.04334926,54.69012792],[-127.04331018,54.69008539],[-127.0432685,54.69004106],[-127.04322608,54.68999697],[-127.0431776,54.68994779],[-127.04312815,54.68989893],[-127.04308327,54.68985561],[-127.04303764,54.68981257],[-127.04299489,54.68977307],[-127.04295151,54.68973384],[-127.04286995,54.68966207],[-127.04280351,54.68960552],[-127.04273577,54.6895495],[-127.04267273,54.68949873],[-127.04260861,54.68944843],[-127.04255831,54.68940987],[-127.04250738,54.68937157],[-127.04244188,54.68932342],[-127.04237542,54.68927572],[-127.0423123,54.68923149],[-127.04224831,54.6891877],[-127.04218275,54.68914382],[-127.04211634,54.68910039],[-127.04203974,54.68905153],[-127.04196209,54.68900324],[-127.04188624,54.68895727],[-127.04180941,54.68891186],[-127.04174533,54.68887484],[-127.04168062,54.6888382],[-127.04160118,54.68879425],[-127.04152083,54.68875089],[-127.04144889,54.68871299],[-127.04137621,54.68867555],[-127.04130255,54.68863844],[-127.0412282,54.68860179],[-127.04116194,54.68856982],[-127.04109515,54.68853824],[-127.04101463,54.688501],[-127.04093334,54.6884643],[-127.04086153,54.6884326],[-127.04078915,54.68840133],[-127.03501953,54.68593513],[-127.03493517,54.6859085],[-127.0347458,54.68586051],[-127.03456416,54.68581348],[-127.03418582,54.68573313],[-127.03398805,54.68569647],[-127.03383849,54.68568265],[-127.03386229,54.68817508],[-127.03388127,54.69548688],[-127.03386581,54.69909889],[-127.03779131,54.69909577],[-127.03780213,54.69920762],[-127.03781632,54.69931935],[-127.03783382,54.69943091],[-127.03785467,54.69954229],[-127.03787884,54.69965344],[-127.03790635,54.69976432],[-127.03793715,54.69987492],[-127.03796705,54.69997239],[-127.03799957,54.70006957],[-127.03803465,54.70016646],[-127.03807233,54.70026301],[-127.03811256,54.70035922],[-127.03815538,54.70045506],[-127.03820073,54.7005505],[-127.0382489,54.70064623],[-127.03829959,54.70074151],[-127.03835283,54.70083633],[-127.03840859,54.70093066],[-127.03846685,54.70102449],[-127.03852761,54.70111777],[-127.03859082,54.70121051],[-127.03865722,54.70130364],[-127.03872611,54.70139615],[-127.03879749,54.70148802],[-127.03887132,54.70157926],[-127.03894761,54.7016698],[-127.03902633,54.70175965],[-127.03910744,54.70184877],[-127.0391967,54.70194312],[-127.03928866,54.70203659],[-127.03938328,54.70212916],[-127.03948057,54.70222081],[-127.03958047,54.70231152],[-127.03968297,54.70240123],[-127.03978802,54.70248996],[-127.04012347,54.70271434],[-127.04046435,54.702714],[-127.04054277,54.70277015],[-127.0406223,54.70282578],[-127.04085354,54.7027136],[-127.04603364,54.70270821],[-127.0463494,54.70270654],[-127.04638256,54.70972507],[-127.04800059,54.70972282],[-127.04804264,54.71080657],[-127.04806027,54.71121893],[-127.04866624,54.71121834],[-127.05009051,54.71121579],[-127.05161045,54.71121338],[-127.05160895,54.71080098],[-127.05261706,54.71079939],[-127.05261401,54.70996497],[-127.05304127,54.70987088],[-127.05598072,54.70986691],[-127.05754072,54.70986445],[-127.05914172,54.70986109],[-127.05988659,54.71068033],[-127.06031391,54.71068033],[-127.06457249,54.71067043],[-127.06567351,54.71067043],[-127.06563813,54.71057879],[-127.06440643,54.70962314],[-127.06369696,54.70889395],[-127.06349519,54.70846526],[-127.06314497,54.70806078],[-127.06183557,54.70687726],[-127.06006509,54.7056795],[-127.05836739,54.70471816],[-127.05770325,54.70422681],[-127.05702622,54.70404451],[-127.05656268,54.70383515],[-127.05579506,54.70331389],[-127.05545434,54.70296354],[-127.05527412,54.70285957],[-127.05511932,54.70268581],[-127.05467748,54.70238816],[-127.05380567,54.7019965],[-127.05329496,54.70170596],[-127.05305895,54.70153932],[-127.05294606,54.70133566],[-127.05237987,54.70079446],[-127.05220835,54.70041705],[-127.05234299,54.6999257],[-127.05309269,54.69849437],[-127.05337112,54.69767117],[-127.05354141,54.69736355],[-127.05355012,54.69707855],[-127.05506432,54.69683949],[-127.05574674,54.69672909],[-127.05517847,54.69554953],[-127.05512167,54.69543107],[-127.05501657,54.69521334],[-127.05593867,54.69524717],[-127.05642336,54.69534687],[-127.05675546,54.69534116],[-127.05700985,54.69528704],[-127.05755065,54.69505917],[-127.05785084,54.69479855],[-127.05793997,54.69464758],[-127.05858382,54.69418899],[-127.05925711,54.6934313],[-127.05943043,54.69309946],[-127.05952142,54.69250129],[-127.05972681,54.69228908],[-127.06036099,54.69210679],[-127.06159303,54.69198716],[-127.06216772,54.69187321],[-127.06327229,54.69199855],[-127.06410049,54.6920427],[-127.06597074,54.69195297],[-127.06703,54.69175928],[-127.06780071,54.69155134],[-127.06823255,54.6913548],[-127.06838279,54.69123517],[-127.06862447,54.69115969],[-127.06917825,54.69080221],[-127.06966403,54.69059143],[-127.06992819,54.69041768],[-127.0701498,54.69008868],[-127.07021186,54.6898252],[-127.07017426,54.68917576],[-127.07020775,54.68905898],[-127.07182873,54.68810904],[-127.0719758,54.68807179],[-127.07197521,54.68801652],[-127.07197908,54.68801536],[-127.07203875,54.685755],[-127.0720411,54.68540223],[-127.07204985,54.68540222],[-127.0720853,54.68214667],[-127.07208838,54.68190701],[-127.07209151,54.68160354],[-127.07209322,54.6813997],[-127.07209453,54.68129442],[-127.07209674,54.68118693],[-127.07209881,54.68106819],[-127.06905266,54.68103511],[-127.06913387,54.68099283],[-127.07207515,54.67950804],[-127.07223794,54.67941224],[-127.07223794,54.67918418],[-127.07555722,54.67751268],[-127.07647826,54.6770523],[-127.07810471,54.67623374],[-127.07816748,54.67620163],[-127.07822926,54.67616884],[-127.07829004,54.67613545],[-127.07834978,54.67610146],[-127.07840849,54.67606687],[-127.07846733,54.67603093],[-127.07852389,54.67599515],[-127.07857936,54.67595879],[-127.07863376,54.67592191],[-127.07868698,54.67588447],[-127.07873908,54.67584646],[-127.07879005,54.67580796],[-127.07883985,54.67576891],[-127.07888844,54.67572939],[-127.07893584,54.6756894],[-127.07898205,54.67564891],[-127.07902701,54.67560798],[-127.07907078,54.6755666],[-127.07911321,54.67552476],[-127.0791544,54.67548251],[-127.07921344,54.67541881],[-127.07925099,54.67537688],[-127.07924807,54.67537549],[-127.07628679,54.67396689],[-127.07633379,54.67393293],[-127.08082356,54.67393137],[-127.08163505,54.67310772],[-127.07920034,54.67195072],[-127.07260135,54.66879809],[-127.07210873,54.66856368],[-127.07211517,54.6667452],[-127.07213416,54.66277905],[-127.07211578,54.65944654],[-127.05966172,54.65945126],[-127.04717279,54.65949663],[-127.04714625,54.66672339],[-127.0505699,54.66673299],[-127.06109122,54.66673609],[-127.06944146,54.67071009],[-127.06884179,54.67113341],[-127.07030264,54.67182854],[-127.07090235,54.67140522],[-127.07194101,54.67189942],[-127.07193268,54.67487518],[-127.07192534,54.67750243],[-127.07192293,54.67836109],[-127.07192031,54.67929085],[-127.07184887,54.67938256],[-127.07032147,54.68016076],[-127.06941054,54.68062395]]]},"geometry_name":"SHAPE","properties":{"LGL_ADMIN_AREA_ID":9,"ADMIN_AREA_NAME":"The Corporation of the Village of Telkwa","ADMIN_AREA_ABBREVIATION":"Telkwa","ADMIN_AREA_BOUNDARY_TYPE":"LGL","ADMIN_AREA_GROUP_NAME":"Regional District of Bulkley-Nechako","CHANGE_REQUESTED_ORG":"HMA","UPDATE_TYPE":null,"WHEN_UPDATED":null,"MAP_STATUS":"Not Appended","OIC_MO_NUMBER":"1217","OIC_MO_YEAR":"2003","OIC_MO_TYPE":"OIC","WEBSITE_URL":null,"IMAGE_URL":null,"AFFECTED_ADMIN_AREA_ABRVN":null,"FEATURE_AREA_SQM":6805661.2457,"FEATURE_LENGTH_M":23265.9658,"OBJECTID":36807,"SE_ANNO_CAD_DATA":null}},{"type":"Feature","id":"WHSE_LEGAL_ADMIN_BOUNDARIES.ABMS_MUNICIPALITIES_SP.8","geometry":{"type":"Polygon","coordinates":[[[-127.13405615,54.77475399],[-127.13406615,54.77598699],[-127.13749955,54.77661163],[-127.14050538,54.77945881],[-127.13523814,54.77966089],[-127.13515253,54.77966504],[-127.13503883,54.77967506],[-127.13495439,54.77968591],[-127.13492627,54.77969066],[-127.13489909,54.77969427],[-127.13484384,54.77970374],[-127.13478961,54.77971543],[-127.13476246,54.77972016],[-127.13473636,54.77972712],[-127.13470924,54.77973297],[-127.13460482,54.77976082],[-127.13457971,54.77976888],[-127.13455458,54.77977584],[-127.13452948,54.77978393],[-127.13450441,54.7797931],[-127.13448029,54.77980116],[-127.13445522,54.77981035],[-127.13443208,54.77981953],[-127.13440799,54.7798287],[-127.13438486,54.77983788],[-127.13431559,54.77986876],[-127.13429346,54.77987904],[-127.13427233,54.77988933],[-127.13425024,54.77990072],[-127.13420801,54.77992351],[-127.13416773,54.77994629],[-127.13414763,54.77995879],[-127.1341285,54.77997128],[-127.13409785,54.77999058],[-127.13406272,54.78001548],[-127.13404795,54.7800263],[-127.13403362,54.78003713],[-127.13401966,54.780048],[-127.13400585,54.78005905],[-127.13398028,54.78008046],[-127.13395579,54.78010224],[-127.13393308,54.78012367],[-127.13392206,54.78013452],[-127.13391116,54.78014562],[-127.13389116,54.78016692],[-127.1338721,54.78018857],[-127.13385383,54.78021064],[-127.13384486,54.78022204],[-127.13383619,54.7802335],[-127.13381973,54.7802564],[-127.13381326,54.78026589],[-127.13380125,54.78028439],[-127.13378974,54.78030329],[-127.13377867,54.78032277],[-127.13376775,54.78034355],[-127.13375794,54.78036388],[-127.1337532,54.78037436],[-127.13374521,54.78039323],[-127.13374141,54.7804029],[-127.13373454,54.78042165],[-127.13372836,54.78044035],[-127.13372063,54.7804673],[-127.1337162,54.78048548],[-127.13371426,54.78049446],[-127.1337106,54.78051328],[-127.13370759,54.78053244],[-127.13370523,54.78055177],[-127.13370412,54.78056332],[-127.13370177,54.78060918],[-127.13370276,54.78064495],[-127.13370485,54.78066453],[-127.13371048,54.78068561],[-127.13390641,54.7821717],[-127.13433391,54.78213434],[-127.134969,54.7820712],[-127.1352657,54.7820399],[-127.1364891,54.7818163],[-127.1374842,54.7817864],[-127.138172,54.7817522],[-127.1382488,54.7817437],[-127.13988,54.7817779],[-127.1402429,54.7817024],[-127.1404143,54.7816611],[-127.140851,54.7816397],[-127.1411452,54.781654],[-127.14145426,54.78167838],[-127.1419815,54.7817479],[-127.1425508,54.7818733],[-127.1427972,54.7819132],[-127.1430147,54.7819431],[-127.1435264,54.7819872],[-127.1441916,54.7820684],[-127.1445596,54.7821823],[-127.1448181,54.7822763],[-127.1457168,54.7827036],[-127.1460477,54.7829243],[-127.1464121,54.783118],[-127.146611,54.7832206],[-127.1468514,54.7833858],[-127.147421,54.7838529],[-127.1482163,54.7848356],[-127.1482924,54.7851874],[-127.1483366,54.7852871],[-127.1484633,54.7855591],[-127.1485594,54.7858568],[-127.1486474,54.7863168],[-127.1487189,54.7867669],[-127.1487413,54.7876655],[-127.14872,54.7880971],[-127.1486209,54.7885628],[-127.1486712,54.7888419],[-127.1487942,54.7891866],[-127.1488101,54.7892137],[-127.1490461,54.7894686],[-127.1492445,54.7895882],[-127.1496099,54.7897563],[-127.1497492,54.7897762],[-127.1506818,54.7897719],[-127.1510568,54.7897506],[-127.1512277,54.7897264],[-127.1514175,54.7896665],[-127.1516872,54.7895355],[-127.1520563,54.7892806],[-127.1522532,54.7890769],[-127.1524901,54.7886582],[-127.1526684,54.7884816],[-127.1528151,54.7883492],[-127.1529608,54.7882423],[-127.1532797,54.7880586],[-127.1537854,54.7878777],[-127.1543204,54.787751],[-127.1549192,54.7875801],[-127.1554359,54.7874718],[-127.1557356,54.7873778],[-127.1561457,54.7872938],[-127.1563159,54.7872867],[-127.1565017,54.7873081],[-127.1566868,54.7873465],[-127.1570989,54.7875231],[-127.1573612,54.7875901],[-127.1576538,54.7876399],[-127.1579626,54.7876627],[-127.1581329,54.7877011],[-127.1584253,54.7877595],[-127.1592244,54.7879689],[-127.1600582,54.788117],[-127.160527,54.7883933],[-127.1607664,54.7886226],[-127.1608659,54.7888035],[-127.1610904,54.7893461],[-127.1611279,54.7895355],[-127.1610891,54.7907846],[-127.1611055,54.7911079],[-127.1611908,54.7912716],[-127.1612042,54.7912987],[-127.161459,54.7915266],[-127.1616371,54.7917089],[-127.162119,54.7924181],[-127.1622774,54.7927072],[-127.1623789,54.792844],[-127.1626718,54.7932442],[-127.16270182,54.79348784],[-127.16340146,54.79330596],[-127.1639884,54.79311226],[-127.16472241,54.7931557],[-127.16470267,54.79331718],[-127.16402062,54.79352409],[-127.16343763,54.79354864],[-127.16352713,54.79436091],[-127.16353591,54.79436194],[-127.1635404,54.79448397],[-127.1636144,54.79448217],[-127.16367183,54.79447937],[-127.16376961,54.79442356],[-127.16388935,54.79435076],[-127.16389183,54.79433506],[-127.16385628,54.7943186],[-127.16384403,54.79429967],[-127.16384902,54.79426938],[-127.16387812,54.79423103],[-127.16394375,54.79417442],[-127.16401952,54.79413226],[-127.16410442,54.79410232],[-127.16415423,54.79407162],[-127.16419021,54.79403544],[-127.16418788,54.79398844],[-127.16414397,54.79395188],[-127.16410874,54.79391302],[-127.16411717,54.79386702],[-127.16416038,54.79384421],[-127.16422994,54.79382339],[-127.16428626,54.79381613],[-127.16440889,54.79381163],[-127.16450944,54.79381739],[-127.16458872,54.79383007],[-127.1646938,54.79385821],[-127.16474644,54.79385884],[-127.16485792,54.79383874],[-127.16498261,54.79380284],[-127.16504441,54.79378321],[-127.16508741,54.79375369],[-127.16513495,54.79367821],[-127.16517391,54.7936431],[-127.16521879,54.79361133],[-127.16525476,54.79364233],[-127.16531345,54.79371796],[-127.16535326,54.79381502],[-127.16541033,54.79386822],[-127.16546886,54.79390464],[-127.16556853,54.79394849],[-127.16565598,54.79397341],[-127.1657372,54.79398497],[-127.1659736,54.79400514],[-127.16620907,54.79402756],[-127.16626076,54.79402818],[-127.16631206,54.79401649],[-127.16641059,54.79398643],[-127.16647866,54.79398131],[-127.16654014,54.79398409],[-127.16653917,54.79422266],[-127.16560657,54.79422141],[-127.16563364,54.79526833],[-127.16362705,54.79526491],[-127.16364685,54.79544616],[-127.1672215,54.79545153],[-127.16682964,54.79639939],[-127.1663036,54.79722196],[-127.16572625,54.79812565],[-127.16531671,54.79876455],[-127.16585824,54.80001044],[-127.16615563,54.80072891],[-127.16687129,54.80087443],[-127.16915463,54.80334139],[-127.17030392,54.80334617],[-127.17030629,54.80353033],[-127.17031268,54.80460107],[-127.16998748,54.80450946],[-127.16958201,54.80450995],[-127.16919297,54.80450579],[-127.16988769,54.80822427],[-127.16988468,54.80828813],[-127.16996378,54.80829298],[-127.17006973,54.8083166],[-127.17037105,54.80835407],[-127.17082124,54.80841588],[-127.17115586,54.80845862],[-127.17159311,54.80851048],[-127.17175301,54.80854588],[-127.17198544,54.8085605],[-127.17244353,54.80859196],[-127.172809,54.80865569],[-127.17296946,54.80867657],[-127.17314901,54.8087163],[-127.1736351,54.80877215],[-127.17381672,54.80881633],[-127.17396995,54.80885631],[-127.17408434,54.80890225],[-127.17412813,54.80893321],[-127.17413292,54.80896341],[-127.17416366,54.80901576],[-127.17420755,54.80905004],[-127.17422565,54.80906891],[-127.17425717,54.80908092],[-127.17431569,54.80908149],[-127.17438059,54.80906743],[-127.17444582,54.80906456],[-127.1745026,54.80910658],[-127.17452579,54.80916685],[-127.174561,54.80923819],[-127.17469123,54.80936015],[-127.17482885,54.80946636],[-127.17497252,54.80958034],[-127.17511535,54.80969882],[-127.17523627,54.80983542],[-127.17535976,54.81002688],[-127.1754716,54.81011877],[-127.17549446,54.81020144],[-127.17549608,54.81029103],[-127.17551386,54.81033127],[-127.1754934,54.81076043],[-127.17544651,54.8108358],[-127.17534442,54.81108092],[-127.17513619,54.81153315],[-127.17505943,54.81194715],[-127.17496499,54.81232213],[-127.17491392,54.8124447],[-127.17488379,54.81254913],[-127.17482138,54.81264942],[-127.17473302,54.81272978],[-127.1746085,54.8127724],[-127.17452757,54.81283925],[-127.17446499,54.81293505],[-127.17442078,54.81305756],[-127.17429092,54.81322006],[-127.17414309,54.81333346],[-127.17398411,54.81343242],[-127.17372486,54.8135704],[-127.17347503,54.81366351],[-127.17338195,54.81371479],[-127.1731476,54.81390518],[-127.17283751,54.81417357],[-127.17269172,54.81425671],[-127.17249338,54.81434372],[-127.1722906,54.81441172],[-127.17215794,54.81447682],[-127.17208377,54.81454249],[-127.17206579,54.81466251],[-127.1721436,54.81786827],[-127.17213867,54.81796798],[-127.17220841,54.82518895],[-127.17231162,54.83241856],[-127.17861728,54.83240997],[-127.17862882,54.83600277],[-127.18483783,54.83597237],[-127.18582979,54.83596845],[-127.18607459,54.83596721],[-127.19112506,54.83594764],[-127.19108843,54.83233493],[-127.19100803,54.82579722],[-127.19089884,54.82569862],[-127.19084567,54.8256476],[-127.19079443,54.82559659],[-127.19074412,54.82554441],[-127.19069482,54.82549225],[-127.1906484,54.82543896],[-127.19060296,54.82538563],[-127.19055844,54.82533118],[-127.19051688,54.8252767],[-127.19047624,54.82522221],[-127.19043759,54.82516658],[-127.19039814,54.82507965],[-127.19036276,54.825024],[-127.19032908,54.82496798],[-127.19029707,54.82491164],[-127.19026678,54.824855],[-127.19023818,54.82479806],[-127.19021132,54.82474083],[-127.19018618,54.82468335],[-127.19016279,54.82462563],[-127.19014114,54.82456767],[-127.19012126,54.82450951],[-127.1901031,54.82445115],[-127.1900867,54.82439261],[-127.19007207,54.82433394],[-127.1900592,54.82427511],[-127.19004816,54.82421617],[-127.19003887,54.82415712],[-127.19003133,54.824098],[-127.1900256,54.82403881],[-127.19002165,54.82397955],[-127.1900195,54.82392028],[-127.19001909,54.82386098],[-127.19002052,54.8238017],[-127.19002374,54.82374223],[-127.1897505,54.82350133],[-127.18963826,54.82310505],[-127.19049123,54.82254054],[-127.19053167,54.82248685],[-127.19057352,54.82243378],[-127.19061696,54.82238112],[-127.19066198,54.8223289],[-127.19070855,54.82227713],[-127.19075664,54.82222585],[-127.19080627,54.82217504],[-127.19085738,54.82212473],[-127.19091,54.82207495],[-127.19096411,54.82202569],[-127.19101968,54.82197698],[-127.19107667,54.82192884],[-127.19113511,54.82188125],[-127.1912113,54.82182128],[-127.19128918,54.82176206],[-127.19136877,54.82170359],[-127.19145004,54.82164591],[-127.19153297,54.82158901],[-127.19161751,54.82153292],[-127.19551564,54.81921418],[-127.19635816,54.81792041],[-127.19728239,54.81792044],[-127.19728239,54.81831462],[-127.19728999,54.81900019],[-127.20087423,54.81898682],[-127.20087891,54.81898678],[-127.20110368,54.8187038],[-127.20110946,54.81867532],[-127.20111401,54.8186576],[-127.20112911,54.81845857],[-127.20119703,54.81832254],[-127.20124288,54.81823496],[-127.20131687,54.81809989],[-127.20134824,54.81804612],[-127.20136254,54.81802052],[-127.20141116,54.81795059],[-127.20144521,54.81790009],[-127.20158245,54.81780926],[-127.19727691,54.81782497],[-127.196877,54.81782497],[-127.196877,54.8173078],[-127.19687082,54.81670374],[-127.19089468,54.8167291],[-127.19087125,54.81508621],[-127.1908594,54.81423323],[-127.19081963,54.81062728],[-127.19050668,54.8106289],[-127.19035318,54.81063022],[-127.18457055,54.8106745],[-127.17828282,54.81071465],[-127.17822877,54.80683106],[-127.17816578,54.80349118],[-127.17190962,54.80352661],[-127.17190164,54.80348776],[-127.17185433,54.79636625],[-127.17185438,54.79630018],[-127.1718537,54.79627666],[-127.17185208,54.79618708],[-127.17181449,54.79373131],[-127.17180856,54.79372914],[-127.17180684,54.79363492],[-127.17242216,54.79381945],[-127.1752392,54.79398098],[-127.17590807,54.79397954],[-127.17740448,54.79344185],[-127.17739235,54.7930454],[-127.17766678,54.79276878],[-127.17909254,54.79235923],[-127.17933636,54.79208087],[-127.17944736,54.79216326],[-127.17997011,54.79192755],[-127.18081163,54.79255341],[-127.18073435,54.79254294],[-127.17994384,54.79243404],[-127.17918484,54.79277284],[-127.17963204,54.79310677],[-127.18076351,54.79395049],[-127.1811435,54.79378109],[-127.18175007,54.79423222],[-127.18194131,54.79437487],[-127.18252303,54.79480832],[-127.1828129,54.79502504],[-127.18310374,54.79524178],[-127.18339457,54.79545737],[-127.1835002,54.795537],[-127.18434998,54.79553779],[-127.18435974,54.79614025],[-127.18435621,54.79632061],[-127.18436568,54.79741587],[-127.18452948,54.79741877],[-127.18510251,54.79741773],[-127.18510339,54.79748157],[-127.18510538,54.79754985],[-127.18511149,54.79796083],[-127.18518767,54.7979657],[-127.18576458,54.79796465],[-127.18607641,54.79789668],[-127.18665429,54.7978956],[-127.18672632,54.79795874],[-127.18672737,54.79789489],[-127.18673002,54.79768542],[-127.18672996,54.79761598],[-127.18673105,54.79755325],[-127.18672618,54.7975533],[-127.18672612,54.79748498],[-127.18730305,54.79748391],[-127.18774694,54.79723323],[-127.18781869,54.79728742],[-127.18789142,54.7973416],[-127.18817842,54.79755834],[-127.18836876,54.7977021],[-127.19011209,54.79899566],[-127.1902955,54.799135],[-127.19076305,54.79892666],[-127.19082369,54.7989003],[-127.19129319,54.79869193],[-127.19154536,54.79858421],[-127.19201485,54.79837584],[-127.19207548,54.79834947],[-127.19254497,54.7981411],[-127.19279453,54.79802607],[-127.1908446,54.79658509],[-127.19066214,54.79644461],[-127.19097959,54.7963038],[-127.19120851,54.79620162],[-127.19140248,54.7962016],[-127.19152817,54.79620104],[-127.19669446,54.79617783],[-127.19685618,54.79617627],[-127.19677755,54.79320327],[-127.19670245,54.79315518],[-127.19665508,54.79312442],[-127.19661419,54.79309958],[-127.1965571,54.79306311],[-127.19650295,54.79302815],[-127.1964278,54.79297887],[-127.19633502,54.79291692],[-127.19626233,54.79286755],[-127.1961794,54.79281037],[-127.19610143,54.79275577],[-127.19603119,54.79270589],[-127.19595379,54.79265009],[-127.19588875,54.79260257],[-127.19582508,54.79255539],[-127.19104617,54.78899186],[-127.18416975,54.78386463],[-127.18416996,54.78378873],[-127.18625457,54.78378873],[-127.18631889,54.78378924],[-127.19667802,54.78376181],[-127.196686,54.78360156],[-127.19668832,54.78311771],[-127.19668981,54.78243897],[-127.19668455,54.78216127],[-127.19667662,54.78179174],[-127.19666004,54.78179191],[-127.1904222,54.7817863],[-127.19041671,54.78056669],[-127.19045889,54.77821206],[-127.18415982,54.77819329],[-127.18414352,54.77458708],[-127.18171648,54.7745936],[-127.18109901,54.77345377],[-127.18031065,54.77199638],[-127.1778309,54.76741588],[-127.17629776,54.76740477],[-127.17494446,54.76741659],[-127.17156069,54.76742644],[-127.16278036,54.76745257],[-127.1626719,54.76737184],[-127.15903594,54.7646526],[-127.15903087,54.76344683],[-127.15903236,54.76024612],[-127.15903073,54.76015541],[-127.159025,54.75954396],[-127.15901971,54.75894706],[-127.15901526,54.75851703],[-127.15901297,54.75823145],[-127.15900644,54.75762559],[-127.15899363,54.75632094],[-127.15898859,54.75576771],[-127.15898279,54.75518762],[-127.15895551,54.75518678],[-127.15895458,54.75491461],[-127.15895427,54.75490342],[-127.15895195,54.75461673],[-127.15897727,54.75461761],[-127.15896205,54.7530677],[-127.15563937,54.7530855],[-127.15563928,54.75308215],[-127.15235862,54.75308267],[-127.14759503,54.75310478],[-127.14643596,54.75310912],[-127.14642449,54.74950412],[-127.14641224,54.74745039],[-127.14640345,54.74588907],[-127.13664104,54.74590773],[-127.13582898,54.74589826],[-127.13598883,54.74628991],[-127.13616847,54.74672839],[-127.13610349,54.74673684],[-127.13622002,54.74700567],[-127.13630589,54.74718745],[-127.13639659,54.74736915],[-127.13649411,54.74754968],[-127.13659645,54.74772906],[-127.13670362,54.74790727],[-127.1368166,54.7480843],[-127.1369354,54.74826015],[-127.13698102,54.74832582],[-127.13705903,54.74843485],[-127.1371875,54.74860839],[-127.13732176,54.74878073],[-127.13746084,54.74895081],[-127.13760576,54.74912082],[-127.13775548,54.74928854],[-127.13791003,54.74945512],[-127.1380694,54.7496194],[-127.13823359,54.74978253],[-127.1384036,54.74994446],[-127.13857742,54.75010414],[-127.13875705,54.75026152],[-127.13894053,54.75041773],[-127.13912881,54.75057167],[-127.13932192,54.75072443],[-127.13952706,54.75088589],[-127.13957948,54.75086243],[-127.14079227,54.75177038],[-127.14073245,54.75178832],[-127.14136713,54.75226293],[-127.14142407,54.75224283],[-127.14248626,54.7530362],[-127.13395008,54.75305273],[-127.13397521,54.75778238],[-127.13397564,54.7577894],[-127.13397714,54.75780341],[-127.13397808,54.75832161],[-127.13398844,54.76027241],[-127.13367779,54.76027301],[-127.12824717,54.76027794],[-127.12796288,54.76027832],[-127.12715238,54.76028054],[-127.1271412,54.760315],[-127.1269444,54.7605101],[-127.1267592,54.7608135],[-127.1267492,54.7610642],[-127.1268425,54.7617407],[-127.1268972,54.761876],[-127.1270016,54.7620027],[-127.1272533,54.7622762],[-127.1274008,54.7624143],[-127.1277631,54.7626436],[-127.128449,54.7632745],[-127.1294103,54.7639995],[-127.1297398,54.7642843],[-127.1302874,54.7645435],[-127.130637,54.7647286],[-127.1309435,54.7648412],[-127.1311087,54.7649252],[-127.1320176,54.7654778],[-127.1321977,54.7656074],[-127.132498,54.7657997],[-127.1328734,54.766103],[-127.1331217,54.7664477],[-127.1333897,54.7667396],[-127.133661,54.7672566],[-127.13377225,54.76749568],[-127.13390055,54.76749127],[-127.1340323,54.76749116],[-127.13403708,54.76959557],[-127.13404369,54.77018238],[-127.13403902,54.77018914],[-127.1340554,54.77472712],[-127.13405615,54.77475399]]]},"geometry_name":"SHAPE","properties":{"LGL_ADMIN_AREA_ID":8,"ADMIN_AREA_NAME":"Town of Smithers","ADMIN_AREA_ABBREVIATION":"Smithers","ADMIN_AREA_BOUNDARY_TYPE":"LGL","ADMIN_AREA_GROUP_NAME":"Regional District of Bulkley-Nechako","CHANGE_REQUESTED_ORG":"HMA","UPDATE_TYPE":null,"WHEN_UPDATED":null,"MAP_STATUS":"Not Appended","OIC_MO_NUMBER":"119","OIC_MO_YEAR":"2003","OIC_MO_TYPE":"OIC","WEBSITE_URL":null,"IMAGE_URL":null,"AFFECTED_ADMIN_AREA_ABRVN":null,"FEATURE_AREA_SQM":15850427.0043,"FEATURE_LENGTH_M":37165.23,"OBJECTID":36806,"SE_ANNO_CAD_DATA":null}}],"totalFeatures":2,"numberMatched":2,"numberReturned":2,"timeStamp":"2026-10-03T19:14:50.603Z","crs":{"type":"name","properties":{"name":"urn:ogc:def:crs:CRS::84"}}}