{"features":[{"geometry":{"coordinates":[[[18.3885,-8.0203],[18.3811,-8.0239],[18.379444444444445,-8.0239],[18.386,-8.018],[18.398,-8.013],[18.391,-8.0],[18.4812,-8.0],[18.4812,-8.0019],[18.4738,-8.0019],[18.4664,-8.0092],[18.433,-8.0203],[18.3885,-8.0203]]],"type":"Polygon"},"id":"physical-component:021fd4e137bfb491d460efb7193c9d4c90fa355aa6011d5ce17076df7df0869a","properties":{"administrative_assignment":null,"dateline_connected":false,"diagnostic_nearby_locations":[],"fragment_bindings":[{"feature_sha256":"9dcfa98fd19746f6120ec47cacbeea4b798189a31664b692b208c9a432c47f5e","id":"physical-gap:759:38:9451bcd7e25a151e0cb827f86307b6c4c3c447003b1bb55333fcc3b3dbc2d141"}],"measured_fragment_area_sum_m2":16781294.52350784,"measured_fragment_count":1,"positive_area_input_overlap":false,"touches_blocked_tile":false,"touches_domain_boundary":false,"touches_reference_shore":false,"unmeasured_fragment_ids":[],"water_status":"unverified"},"type":"Feature"},{"geometry":{"coordinates":[[[18.7667,-7.9762],[18.7667,-7.9248],[18.76467298951049,-7.92277298951049],[18.7756,-7.9222],[18.78,-7.922],[18.783,-7.959],[18.791,-7.981],[18.8,-7.993],[18.8,-7.9968390625],[18.7667,-7.9762]]],"type":"Polygon"},"id":"physical-component:4a0bb7b34741b7705e900ddde2f988ab4827ffea2b80954fc9cb6797146f1f88","properties":{"administrative_assignment":null,"dateline_connected":false,"diagnostic_nearby_locations":[],"fragment_bindings":[{"feature_sha256":"1bfe0a49fb29e0b71c9e5266b8759e5d92c3b4594e6a56c86a00ddcdaa55b56f","id":"physical-gap:759:39:5a6899278f6ee42d9b66033e365116f5fbf9f9d87c3d77bcc7dbb78135d1014a"}],"measured_fragment_area_sum_m2":13679639.830412803,"measured_fragment_count":1,"positive_area_input_overlap":false,"touches_blocked_tile":false,"touches_domain_boundary":false,"touches_reference_shore":false,"unmeasured_fragment_ids":[],"water_status":"unverified"},"type":"Feature"},{"geometry":{"coordinates":[[[17.7572,-8.1014],[17.781840350877193,-8.112],[17.7729,-8.112],[17.7655,-8.1194],[17.7433,-8.1231],[17.7321,-8.112],[17.7136,-8.1047],[17.6951,-8.1047],[17.687909717325045,-8.101152793880356],[17.7211,-8.0969],[17.7287,-8.0965],[17.7572,-8.1014]]],"type":"Polygon"},"id":"physical-component:4ceb0de66be41e24e9e2f640442ec3ae3690a7d134d73cfbe2a6ac01edf098d4","properties":{"administrative_assignment":null,"dateline_connected":false,"diagnostic_nearby_locations":[],"fragment_bindings":[{"feature_sha256":"910c3988fabc15237e89fd6704a385861d697e7245a96914600a20fdd9b5671b","id":"physical-gap:759:19:d57c8d5906975fb117822cc04521c6b2c53de49d0739dbd063f7d857ebf36ca1"}],"measured_fragment_area_sum_m2":13121388.97368118,"measured_fragment_count":1,"positive_area_input_overlap":false,"touches_blocked_tile":false,"touches_domain_boundary":false,"touches_reference_shore":false,"unmeasured_fragment_ids":[],"water_status":"unverified"},"type":"Feature"},{"geometry":{"coordinates":[[[17.8479,-8.0853],[17.885,-8.079],[17.94,-8.082],[17.959,-8.091],[17.971566666666668,-8.1084],[17.9361,-8.1084],[17.925,-8.0974],[17.9027,-8.0863],[17.8545,-8.0863],[17.8397,-8.0937],[17.8211,-8.0937],[17.8174,-8.0974],[17.816304305317846,-8.0974],[17.816276000000002,-8.0974],[17.8179,-8.0953],[17.8252,-8.0915],[17.8479,-8.0853]]],"type":"Polygon"},"id":"physical-component:7b457906483432e330c121d5feec77b0eb96e63299da2719873cad13c35a24b0","properties":{"administrative_assignment":null,"dateline_connected":false,"diagnostic_nearby_locations":[],"fragment_bindings":[{"feature_sha256":"c6c298e43af9acb9fa3f7862c5c2b15591a4a58257093fc1a22fbf2dfd66089a","id":"physical-gap:759:18:90636176fd4de6c05388c0a37ceefa710b8280e31103af5aa58bd35f46fc5a38"}],"measured_fragment_area_sum_m2":18478322.503735572,"measured_fragment_count":1,"positive_area_input_overlap":false,"touches_blocked_tile":false,"touches_domain_boundary":false,"touches_reference_shore":false,"unmeasured_fragment_ids":[],"water_status":"unverified"},"type":"Feature"},{"geometry":{"coordinates":[[[19.4957,-7.3109],[19.4957,-7.329869447185959],[19.4957,-7.330600000000001],[19.49,-7.323],[19.488,-7.302],[19.489,-7.298],[19.489514285714286,-7.297614285714285],[19.48967426311867,-7.297774263118668],[19.491,-7.2991],[19.4957,-7.3109]]],"type":"Polygon"},"id":"physical-component:939bc3dbbf1a6ecf3734d8f1ebbc901f522b1935dc51301afb66ca702c8383ec","properties":{"administrative_assignment":null,"dateline_connected":false,"diagnostic_nearby_locations":[],"fragment_bindings":[{"feature_sha256":"482f47167b81ee96a3b1e045641b37462aa4b3247a196454bfb3adb9dab99f6d","id":"physical-gap:759:45:d914eab8f54b46144d05d6dc65823000c9c4ebfa624da265821825c812c6a8f6"}],"measured_fragment_area_sum_m2":1927335.4338173436,"measured_fragment_count":1,"positive_area_input_overlap":false,"touches_blocked_tile":false,"touches_domain_boundary":false,"touches_reference_shore":false,"unmeasured_fragment_ids":[],"water_status":"unverified"},"type":"Feature"},{"geometry":{"coordinates":[[[19.3557,-7.8989],[19.3533,-7.906],[19.35250475285171,-7.907184410646389],[19.343,-7.902],[19.355,-7.867],[19.3604,-7.863400000000001],[19.3604,-7.863573174078838],[19.3604,-7.866],[19.35582463495675,-7.877487086704326],[19.3557,-7.8778],[19.3557,-7.8793775077720944],[19.3557,-7.8989]]],"type":"Polygon"},"id":"physical-component:a4338eeba714b43b93c9959104be85591f256ce0374958558229c80e46b37e17","properties":{"administrative_assignment":null,"dateline_connected":false,"diagnostic_nearby_locations":[],"fragment_bindings":[{"feature_sha256":"68d264f03a68b6a08137c11cc80fe175a7f47c69dde20886bd795dee8a86a58f","id":"physical-gap:759:40:ad0e7f32f96f40ee34963b22d5d1ffb2d0dda888b6a415114084e844877c2ca0"}],"measured_fragment_area_sum_m2":3617478.196380983,"measured_fragment_count":1,"positive_area_input_overlap":false,"touches_blocked_tile":false,"touches_domain_boundary":false,"touches_reference_shore":false,"unmeasured_fragment_ids":[],"water_status":"unverified"},"type":"Feature"},{"geometry":{"coordinates":[[[19.5005,-7.3744],[19.5005,-7.379763986713749],[19.5005,-7.380380952380951],[19.494,-7.368],[19.4981,-7.362077777777777],[19.4981,-7.3635046475292905],[19.4981,-7.372],[19.5005,-7.3744]]],"type":"Polygon"},"id":"physical-component:d2ac6f596c024aa333f12ec66e1f542a5ef8f984b8ca5a9fcfbd3f6135c9440a","properties":{"administrative_assignment":null,"dateline_connected":false,"diagnostic_nearby_locations":[],"fragment_bindings":[{"feature_sha256":"ea8928070ea28a524a13a3bc7768f4a9d86ceda9d4091fb55cf81c42cc481a62","id":"physical-gap:759:44:465667535ab5036c81757dcdf4fa25f5fc94020bb92e9235d2a514ff03d672c4"}],"measured_fragment_area_sum_m2":487164.535379332,"measured_fragment_count":1,"positive_area_input_overlap":false,"touches_blocked_tile":false,"touches_domain_boundary":false,"touches_reference_shore":false,"unmeasured_fragment_ids":[],"water_status":"unverified"},"type":"Feature"},{"geometry":{"coordinates":[[[17.583,-8.1291],[17.604148375451263,-8.128651624548738],[17.5987,-8.1341],[17.5873,-8.138],[17.576252308822177,-8.128624391811254],[17.583,-8.1291]]],"type":"Polygon"},"id":"physical-component:d70ba927292a3f812f481885193f21b099328f0697ff13fea7585dac7a8118c2","properties":{"administrative_assignment":null,"dateline_connected":false,"diagnostic_nearby_locations":[],"fragment_bindings":[{"feature_sha256":"bf0ada62355de4863d10627885e709108fe01d5d1c9a9d2442d83fc219471ba9","id":"physical-gap:759:20:58a4c920b56908538bfbf7db14fc55b360442a08df39b3c78ad1783398f052b9"}],"measured_fragment_area_sum_m2":1761373.5000769368,"measured_fragment_count":1,"positive_area_input_overlap":false,"touches_blocked_tile":false,"touches_domain_boundary":false,"touches_reference_shore":false,"unmeasured_fragment_ids":[],"water_status":"unverified"},"type":"Feature"},{"geometry":{"coordinates":[[[18.0992,-8.1157],[18.0288,-8.1084],[17.98752,-8.1084],[18.0,-8.098],[18.1,-8.099],[18.103,-8.087],[18.087,-8.068],[18.098,-8.04],[18.135,-8.035],[18.153,-8.009],[18.209,-7.994],[18.217,-7.989],[18.261,-7.994],[18.294,-7.988],[18.302,-8.012],[18.354,-8.027],[18.365,-8.021],[18.370316666666664,-8.0239],[18.369436954780525,-8.0239],[18.3662,-8.0239],[18.3662,-8.0276],[18.3477,-8.0313],[18.3143,-8.0349],[18.2884,-8.0129],[18.2476,-8.0019],[18.2105,-8.0019],[18.1994,-8.0056],[18.1845,-8.0276],[18.1089270316362,-8.102523875383989],[18.103,-8.1084],[18.0992,-8.1157]]],"type":"Polygon"},"id":"physical-component:dfa4e25a97eff43fac2b408cdc2db1d7e45439931b47951ef18a233b9910e8ec","properties":{"administrative_assignment":null,"dateline_connected":false,"diagnostic_nearby_locations":[],"fragment_bindings":[{"feature_sha256":"93c092b400232230e131d739681b96abe836a9052598a4776d014e7a7ccc7ad1","id":"physical-gap:759:37:fb00b077b07d95336ee6ecdbc5a228cf15a017832f949f546d5f8ef4352a5d26"}],"measured_fragment_area_sum_m2":98299173.9565019,"measured_fragment_count":1,"positive_area_input_overlap":false,"touches_blocked_tile":false,"touches_domain_boundary":false,"touches_reference_shore":false,"unmeasured_fragment_ids":[],"water_status":"unverified"},"type":"Feature"},{"geometry":{"coordinates":[[[19.51,-7.4991],[19.4957,-7.525],[19.4933,-7.5274],[19.493,-7.525],[19.485,-7.505],[19.496,-7.5],[19.512,-7.489],[19.5123,-7.488700000000001],[19.5123,-7.488701254897138],[19.5123,-7.4897],[19.51,-7.4921],[19.51,-7.4991]]],"type":"Polygon"},"id":"physical-component:eded93368ac9537653931967882e67115d076d812fadb42837a53fd619926de1","properties":{"administrative_assignment":null,"dateline_connected":false,"diagnostic_nearby_locations":[],"fragment_bindings":[{"feature_sha256":"ef77cc1479546f985836dd4eecad96b193fcce18ae26094b1501ebdc25e223d8","id":"physical-gap:759:43:30948e67e12d5aaa45b6ab9e4b87ad5237a9b96cdb03681b2f02e31e4c8ef518"}],"measured_fragment_area_sum_m2":4955408.355979411,"measured_fragment_count":1,"positive_area_input_overlap":false,"touches_blocked_tile":false,"touches_domain_boundary":false,"touches_reference_shore":false,"unmeasured_fragment_ids":[],"water_status":"unverified"},"type":"Feature"}],"type":"FeatureCollection"}
