{"features":[{"geometry":{"coordinates":[[[17.8479,-8.0853],[17.885,-8.079],[17.94,-8.082],[17.959,-8.091],[17.971566666666668,-8.1084],[17.9361,-8.1084],[17.925,-8.0974],[17.9027,-8.0863],[17.8545,-8.0863],[17.8397,-8.0937],[17.8211,-8.0937],[17.8174,-8.0974],[17.816304305317846,-8.0974],[17.816276000000002,-8.0974],[17.8179,-8.0953],[17.8252,-8.0915],[17.8479,-8.0853]]],"type":"Polygon"},"id":"physical-gap:759:18:90636176fd4de6c05388c0a37ceefa710b8280e31103af5aa58bd35f46fc5a38","properties":{"administrative_assignment":null,"area_m2":18478322.503735572,"exact_location_contacts":[{"geometry":{"coordinates":[[[17.885,-8.079],[17.94,-8.082]],[[17.94,-8.082],[17.959,-8.091]],[[17.959,-8.091],[17.971566666666668,-8.1084]]],"type":"MultiLineString"},"id":"gb:COD:ADM2:63176286B37251946319002","input_path":"data/geography/part-5.json","kind":"positive-length-boundary","name":"Kahemba","reference_year":"2019","source":"https://github.com/wmgeolab/geoBoundaries/raw/9469f09/releaseData/gbOpen/COD/ADM2/geoBoundaries-COD-ADM2.geojson"},{"geometry":{"coordinates":[[[17.8479,-8.0853],[17.885,-8.079]],[[17.816276000000002,-8.0974],[17.8179,-8.0953]],[[17.8179,-8.0953],[17.8252,-8.0915]],[[17.8252,-8.0915],[17.8479,-8.0853]]],"type":"MultiLineString"},"id":"gb:COD:ADM2:63176286B94968684087840","input_path":"data/geography/part-5.json","kind":"positive-length-boundary","name":"Kasongo-Lunda","reference_year":"2019","source":"https://github.com/wmgeolab/geoBoundaries/raw/9469f09/releaseData/gbOpen/COD/ADM2/geoBoundaries-COD-ADM2.geojson"},{"geometry":{"coordinates":[[[17.971566666666668,-8.1084],[17.9361,-8.1084]],[[17.9361,-8.1084],[17.925,-8.0974]],[[17.925,-8.0974],[17.9027,-8.0863]],[[17.9027,-8.0863],[17.8545,-8.0863]],[[17.8545,-8.0863],[17.8397,-8.0937]],[[17.8397,-8.0937],[17.8211,-8.0937]],[[17.8211,-8.0937],[17.8174,-8.0974]],[[17.8174,-8.0974],[17.816304305317846,-8.0974]],[[17.816304305317846,-8.0974],[17.816276000000002,-8.0974]]],"type":"MultiLineString"},"id":"gb:AGO:ADM2:16411231B62076307190429","input_path":"data/geography/part-29.json","kind":"positive-length-boundary","name":"Cuango","reference_year":"2018","source":"https://github.com/wmgeolab/geoBoundaries/raw/9469f09/releaseData/gbHumanitarian/AGO/ADM2/geoBoundaries-AGO-ADM2.geojson"}],"original_planar_area":0.0015158901999999422,"status":"uncovered-physical-reference-candidate","tile":[15,-10,20,-5],"touches_reference_shore":false,"water_diagnostics":[],"water_status":"unverified"},"type":"Feature"},{"geometry":{"coordinates":[[[17.7572,-8.1014],[17.781840350877193,-8.112],[17.7729,-8.112],[17.7655,-8.1194],[17.7433,-8.1231],[17.7321,-8.112],[17.7136,-8.1047],[17.6951,-8.1047],[17.687909717325045,-8.101152793880356],[17.7211,-8.0969],[17.7287,-8.0965],[17.7572,-8.1014]]],"type":"Polygon"},"id":"physical-gap:759:19:d57c8d5906975fb117822cc04521c6b2c53de49d0739dbd063f7d857ebf36ca1","properties":{"administrative_assignment":null,"area_m2":13121388.97368118,"exact_location_contacts":[{"geometry":{"coordinates":[[[17.7572,-8.1014],[17.781840350877193,-8.112]],[[17.687909717325045,-8.101152793880356],[17.7211,-8.0969]],[[17.7211,-8.0969],[17.7287,-8.0965]],[[17.7287,-8.0965],[17.7572,-8.1014]]],"type":"MultiLineString"},"id":"gb:COD:ADM2:63176286B94968684087840","input_path":"data/geography/part-5.json","kind":"positive-length-boundary","name":"Kasongo-Lunda","reference_year":"2019","source":"https://github.com/wmgeolab/geoBoundaries/raw/9469f09/releaseData/gbOpen/COD/ADM2/geoBoundaries-COD-ADM2.geojson"},{"geometry":{"coordinates":[[[17.781840350877193,-8.112],[17.7729,-8.112]],[[17.7729,-8.112],[17.7655,-8.1194]],[[17.7655,-8.1194],[17.7433,-8.1231]],[[17.7433,-8.1231],[17.7321,-8.112]],[[17.7321,-8.112],[17.7136,-8.1047]],[[17.7136,-8.1047],[17.6951,-8.1047]]],"type":"MultiLineString"},"id":"gb:AGO:ADM2:16411231B62076307190429","input_path":"data/geography/part-29.json","kind":"positive-length-boundary","name":"Cuango","reference_year":"2018","source":"https://github.com/wmgeolab/geoBoundaries/raw/9469f09/releaseData/gbHumanitarian/AGO/ADM2/geoBoundaries-AGO-ADM2.geojson"}],"original_planar_area":0.0010764696416368262,"status":"uncovered-physical-reference-candidate","tile":[15,-10,20,-5],"touches_reference_shore":false,"water_diagnostics":[],"water_status":"unverified"},"type":"Feature"},{"geometry":{"coordinates":[[[17.583,-8.1291],[17.604148375451263,-8.128651624548738],[17.5987,-8.1341],[17.5873,-8.138],[17.576252308822177,-8.128624391811254],[17.583,-8.1291]]],"type":"Polygon"},"id":"physical-gap:759:20:58a4c920b56908538bfbf7db14fc55b360442a08df39b3c78ad1783398f052b9","properties":{"administrative_assignment":null,"area_m2":1761373.5000769368,"exact_location_contacts":[{"geometry":{"coordinates":[[[17.583,-8.1291],[17.604148375451263,-8.128651624548738]],[[17.576252308822177,-8.128624391811254],[17.583,-8.1291]]],"type":"MultiLineString"},"id":"gb:COD:ADM2:63176286B94968684087840","input_path":"data/geography/part-5.json","kind":"positive-length-boundary","name":"Kasongo-Lunda","reference_year":"2019","source":"https://github.com/wmgeolab/geoBoundaries/raw/9469f09/releaseData/gbOpen/COD/ADM2/geoBoundaries-COD-ADM2.geojson"},{"geometry":{"coordinates":[[[17.604148375451263,-8.128651624548738],[17.5987,-8.1341]],[[17.5987,-8.1341],[17.5873,-8.138]],[[17.5873,-8.138],[17.576252308822177,-8.128624391811254]]],"type":"MultiLineString"},"id":"gb:AGO:ADM2:16411231B62076307190429","input_path":"data/geography/part-29.json","kind":"positive-length-boundary","name":"Cuango","reference_year":"2018","source":"https://github.com/wmgeolab/geoBoundaries/raw/9469f09/releaseData/gbHumanitarian/AGO/ADM2/geoBoundaries-AGO-ADM2.geojson"}],"original_planar_area":0.00014451035405609213,"status":"uncovered-physical-reference-candidate","tile":[15,-10,20,-5],"touches_reference_shore":false,"water_diagnostics":[],"water_status":"unverified"},"type":"Feature"},{"geometry":{"coordinates":[[[18.0992,-8.1157],[18.0288,-8.1084],[17.98752,-8.1084],[18.0,-8.098],[18.1,-8.099],[18.103,-8.087],[18.087,-8.068],[18.098,-8.04],[18.135,-8.035],[18.153,-8.009],[18.209,-7.994],[18.217,-7.989],[18.261,-7.994],[18.294,-7.988],[18.302,-8.012],[18.354,-8.027],[18.365,-8.021],[18.370316666666664,-8.0239],[18.369436954780525,-8.0239],[18.3662,-8.0239],[18.3662,-8.0276],[18.3477,-8.0313],[18.3143,-8.0349],[18.2884,-8.0129],[18.2476,-8.0019],[18.2105,-8.0019],[18.1994,-8.0056],[18.1845,-8.0276],[18.1089270316362,-8.102523875383989],[18.103,-8.1084],[18.0992,-8.1157]]],"type":"Polygon"},"id":"physical-gap:759:37:fb00b077b07d95336ee6ecdbc5a228cf15a017832f949f546d5f8ef4352a5d26","properties":{"administrative_assignment":null,"area_m2":98299173.9565019,"exact_location_contacts":[{"geometry":{"coordinates":[[[17.98752,-8.1084],[18.0,-8.098]],[[18.0,-8.098],[18.1,-8.099]],[[18.1,-8.099],[18.103,-8.087]],[[18.103,-8.087],[18.087,-8.068]],[[18.087,-8.068],[18.098,-8.04]],[[18.098,-8.04],[18.135,-8.035]],[[18.135,-8.035],[18.153,-8.009]],[[18.153,-8.009],[18.209,-7.994]],[[18.209,-7.994],[18.217,-7.989]],[[18.217,-7.989],[18.261,-7.994]],[[18.261,-7.994],[18.294,-7.988]],[[18.294,-7.988],[18.302,-8.012]],[[18.302,-8.012],[18.354,-8.027]],[[18.354,-8.027],[18.365,-8.021]],[[18.365,-8.021],[18.370316666666664,-8.0239]]],"type":"MultiLineString"},"id":"gb:COD:ADM2:63176286B37251946319002","input_path":"data/geography/part-5.json","kind":"positive-length-boundary","name":"Kahemba","reference_year":"2019","source":"https://github.com/wmgeolab/geoBoundaries/raw/9469f09/releaseData/gbOpen/COD/ADM2/geoBoundaries-COD-ADM2.geojson"},{"geometry":{"coordinates":[[[18.370316666666664,-8.0239],[18.369436954780525,-8.0239]],[[18.369436954780525,-8.0239],[18.3662,-8.0239]],[[18.3662,-8.0239],[18.3662,-8.0276]],[[18.3662,-8.0276],[18.3477,-8.0313]],[[18.3477,-8.0313],[18.3143,-8.0349]],[[18.3143,-8.0349],[18.2884,-8.0129]],[[18.2884,-8.0129],[18.2476,-8.0019]],[[18.2476,-8.0019],[18.2105,-8.0019]],[[18.2105,-8.0019],[18.1994,-8.0056]],[[18.1994,-8.0056],[18.1845,-8.0276]],[[18.1845,-8.0276],[18.1089270316362,-8.102523875383989]]],"type":"MultiLineString"},"id":"gb:AGO:ADM2:16411231B80406676016894","input_path":"data/geography/part-29.json","kind":"positive-length-boundary","name":"Caungula","reference_year":"2018","source":"https://github.com/wmgeolab/geoBoundaries/raw/9469f09/releaseData/gbHumanitarian/AGO/ADM2/geoBoundaries-AGO-ADM2.geojson"},{"geometry":{"coordinates":[[[18.0992,-8.1157],[18.0288,-8.1084]],[[18.0288,-8.1084],[17.98752,-8.1084]],[[18.1089270316362,-8.102523875383989],[18.103,-8.1084]],[[18.103,-8.1084],[18.0992,-8.1157]]],"type":"MultiLineString"},"id":"gb:AGO:ADM2:16411231B62076307190429","input_path":"data/geography/part-29.json","kind":"positive-length-boundary","name":"Cuango","reference_year":"2018","source":"https://github.com/wmgeolab/geoBoundaries/raw/9469f09/releaseData/gbHumanitarian/AGO/ADM2/geoBoundaries-AGO-ADM2.geojson"}],"original_planar_area":0.008063205166666552,"status":"uncovered-physical-reference-candidate","tile":[15,-10,20,-5],"touches_reference_shore":false,"water_diagnostics":[],"water_status":"unverified"},"type":"Feature"},{"geometry":{"coordinates":[[[18.3885,-8.0203],[18.3811,-8.0239],[18.379444444444445,-8.0239],[18.386,-8.018],[18.398,-8.013],[18.391,-8.0],[18.4812,-8.0],[18.4812,-8.0019],[18.4738,-8.0019],[18.4664,-8.0092],[18.433,-8.0203],[18.3885,-8.0203]]],"type":"Polygon"},"id":"physical-gap:759:38:9451bcd7e25a151e0cb827f86307b6c4c3c447003b1bb55333fcc3b3dbc2d141","properties":{"administrative_assignment":null,"area_m2":16781294.52350784,"exact_location_contacts":[{"geometry":{"coordinates":[[[18.379444444444445,-8.0239],[18.386,-8.018]],[[18.386,-8.018],[18.398,-8.013]],[[18.398,-8.013],[18.391,-8.0]],[[18.391,-8.0],[18.4812,-8.0]]],"type":"MultiLineString"},"id":"gb:COD:ADM2:63176286B37251946319002","input_path":"data/geography/part-5.json","kind":"positive-length-boundary","name":"Kahemba","reference_year":"2019","source":"https://github.com/wmgeolab/geoBoundaries/raw/9469f09/releaseData/gbOpen/COD/ADM2/geoBoundaries-COD-ADM2.geojson"},{"geometry":{"coordinates":[[[18.3885,-8.0203],[18.3811,-8.0239]],[[18.3811,-8.0239],[18.379444444444445,-8.0239]],[[18.4812,-8.0],[18.4812,-8.0019]],[[18.4812,-8.0019],[18.4738,-8.0019]],[[18.4738,-8.0019],[18.4664,-8.0092]],[[18.4664,-8.0092],[18.433,-8.0203]],[[18.433,-8.0203],[18.3885,-8.0203]]],"type":"MultiLineString"},"id":"gb:AGO:ADM2:16411231B80406676016894","input_path":"data/geography/part-29.json","kind":"positive-length-boundary","name":"Caungula","reference_year":"2018","source":"https://github.com/wmgeolab/geoBoundaries/raw/9469f09/releaseData/gbHumanitarian/AGO/ADM2/geoBoundaries-AGO-ADM2.geojson"}],"original_planar_area":0.0013763988888889338,"status":"uncovered-physical-reference-candidate","tile":[15,-10,20,-5],"touches_reference_shore":false,"water_diagnostics":[],"water_status":"unverified"},"type":"Feature"},{"geometry":{"coordinates":[[[18.7667,-7.9762],[18.7667,-7.9248],[18.76467298951049,-7.92277298951049],[18.7756,-7.9222],[18.78,-7.922],[18.783,-7.959],[18.791,-7.981],[18.8,-7.993],[18.8,-7.9968390625],[18.7667,-7.9762]]],"type":"Polygon"},"id":"physical-gap:759:39:5a6899278f6ee42d9b66033e365116f5fbf9f9d87c3d77bcc7dbb78135d1014a","properties":{"administrative_assignment":null,"area_m2":13679639.830412803,"exact_location_contacts":[{"geometry":{"coordinates":[[[18.7756,-7.9222],[18.78,-7.922]],[[18.78,-7.922],[18.783,-7.959]],[[18.783,-7.959],[18.791,-7.981]],[[18.791,-7.981],[18.8,-7.993]],[[18.8,-7.993],[18.8,-7.9968390625]]],"type":"MultiLineString"},"id":"gb:COD:ADM2:63176286B37251946319002","input_path":"data/geography/part-5.json","kind":"positive-length-boundary","name":"Kahemba","reference_year":"2019","source":"https://github.com/wmgeolab/geoBoundaries/raw/9469f09/releaseData/gbOpen/COD/ADM2/geoBoundaries-COD-ADM2.geojson"},{"geometry":{"coordinates":[[[18.7667,-7.9762],[18.7667,-7.9248]],[[18.7667,-7.9248],[18.76467298951049,-7.92277298951049]],[[18.8,-7.9968390625],[18.7667,-7.9762]]],"type":"MultiLineString"},"id":"gb:AGO:ADM2:16411231B80406676016894","input_path":"data/geography/part-29.json","kind":"positive-length-boundary","name":"Caungula","reference_year":"2018","source":"https://github.com/wmgeolab/geoBoundaries/raw/9469f09/releaseData/gbHumanitarian/AGO/ADM2/geoBoundaries-AGO-ADM2.geojson"}],"original_planar_area":0.0011218657009397506,"status":"uncovered-physical-reference-candidate","tile":[15,-10,20,-5],"touches_reference_shore":false,"water_diagnostics":[],"water_status":"unverified"},"type":"Feature"},{"geometry":{"coordinates":[[[19.3557,-7.8989],[19.3533,-7.906],[19.35250475285171,-7.907184410646389],[19.343,-7.902],[19.355,-7.867],[19.3604,-7.863400000000001],[19.3604,-7.863573174078838],[19.3604,-7.866],[19.35582463495675,-7.877487086704326],[19.3557,-7.8778],[19.3557,-7.8793775077720944],[19.3557,-7.8989]]],"type":"Polygon"},"id":"physical-gap:759:40:ad0e7f32f96f40ee34963b22d5d1ffb2d0dda888b6a415114084e844877c2ca0","properties":{"administrative_assignment":null,"area_m2":3617478.196380983,"exact_location_contacts":[{"geometry":{"coordinates":[[[19.35250475285171,-7.907184410646389],[19.343,-7.902]],[[19.343,-7.902],[19.355,-7.867]],[[19.355,-7.867],[19.3604,-7.863400000000001]]],"type":"MultiLineString"},"id":"gb:COD:ADM2:63176286B37251946319002","input_path":"data/geography/part-5.json","kind":"positive-length-boundary","name":"Kahemba","reference_year":"2019","source":"https://github.com/wmgeolab/geoBoundaries/raw/9469f09/releaseData/gbOpen/COD/ADM2/geoBoundaries-COD-ADM2.geojson"},{"geometry":{"coordinates":[[[19.3557,-7.8989],[19.3533,-7.906]],[[19.3533,-7.906],[19.35250475285171,-7.907184410646389]],[[19.3604,-7.863400000000001],[19.3604,-7.863573174078838]],[[19.3604,-7.863573174078838],[19.3604,-7.866]],[[19.3604,-7.866],[19.35582463495675,-7.877487086704326]],[[19.35582463495675,-7.877487086704326],[19.3557,-7.8778]],[[19.3557,-7.8778],[19.3557,-7.8793775077720944]],[[19.3557,-7.8793775077720944],[19.3557,-7.8989]]],"type":"MultiLineString"},"id":"gb:AGO:ADM2:16411231B71421381230719","input_path":"data/geography/part-29.json","kind":"positive-length-boundary","name":"Cuilo","reference_year":"2018","source":"https://github.com/wmgeolab/geoBoundaries/raw/9469f09/releaseData/gbHumanitarian/AGO/ADM2/geoBoundaries-AGO-ADM2.geojson"}],"original_planar_area":0.00029662020912542487,"status":"uncovered-physical-reference-candidate","tile":[15,-10,20,-5],"touches_reference_shore":false,"water_diagnostics":[],"water_status":"unverified"},"type":"Feature"},{"geometry":{"coordinates":[[[19.51,-7.4991],[19.4957,-7.525],[19.4933,-7.5274],[19.493,-7.525],[19.485,-7.505],[19.496,-7.5],[19.512,-7.489],[19.5123,-7.488700000000001],[19.5123,-7.488701254897138],[19.5123,-7.4897],[19.51,-7.4921],[19.51,-7.4991]]],"type":"Polygon"},"id":"physical-gap:759:43:30948e67e12d5aaa45b6ab9e4b87ad5237a9b96cdb03681b2f02e31e4c8ef518","properties":{"administrative_assignment":null,"area_m2":4955408.355979411,"exact_location_contacts":[{"geometry":{"coordinates":[[[19.493,-7.525],[19.485,-7.505]],[[19.485,-7.505],[19.496,-7.5]],[[19.496,-7.5],[19.512,-7.489]],[[19.512,-7.489],[19.5123,-7.488700000000001]]],"type":"MultiLineString"},"id":"gb:COD:ADM2:63176286B37251946319002","input_path":"data/geography/part-5.json","kind":"positive-length-boundary","name":"Kahemba","reference_year":"2019","source":"https://github.com/wmgeolab/geoBoundaries/raw/9469f09/releaseData/gbOpen/COD/ADM2/geoBoundaries-COD-ADM2.geojson"},{"geometry":{"coordinates":[[[19.51,-7.4991],[19.4957,-7.525]],[[19.4957,-7.525],[19.4933,-7.5274]],[[19.5123,-7.488700000000001],[19.5123,-7.488701254897138]],[[19.5123,-7.488701254897138],[19.5123,-7.4897]],[[19.5123,-7.4897],[19.51,-7.4921]],[[19.51,-7.4921],[19.51,-7.4991]]],"type":"MultiLineString"},"id":"gb:AGO:ADM2:16411231B71421381230719","input_path":"data/geography/part-29.json","kind":"positive-length-boundary","name":"Cuilo","reference_year":"2018","source":"https://github.com/wmgeolab/geoBoundaries/raw/9469f09/releaseData/gbHumanitarian/AGO/ADM2/geoBoundaries-AGO-ADM2.geojson"}],"original_planar_area":0.0004059700000000627,"status":"uncovered-physical-reference-candidate","tile":[15,-10,20,-5],"touches_reference_shore":false,"water_diagnostics":[],"water_status":"unverified"},"type":"Feature"},{"geometry":{"coordinates":[[[19.5005,-7.3744],[19.5005,-7.379763986713749],[19.5005,-7.380380952380951],[19.494,-7.368],[19.4981,-7.362077777777777],[19.4981,-7.3635046475292905],[19.4981,-7.372],[19.5005,-7.3744]]],"type":"Polygon"},"id":"physical-gap:759:44:465667535ab5036c81757dcdf4fa25f5fc94020bb92e9235d2a514ff03d672c4","properties":{"administrative_assignment":null,"area_m2":487164.535379332,"exact_location_contacts":[{"geometry":{"coordinates":[[[19.5005,-7.380380952380951],[19.494,-7.368]],[[19.494,-7.368],[19.4981,-7.362077777777777]]],"type":"MultiLineString"},"id":"gb:COD:ADM2:63176286B37251946319002","input_path":"data/geography/part-5.json","kind":"positive-length-boundary","name":"Kahemba","reference_year":"2019","source":"https://github.com/wmgeolab/geoBoundaries/raw/9469f09/releaseData/gbOpen/COD/ADM2/geoBoundaries-COD-ADM2.geojson"},{"geometry":{"coordinates":[[[19.5005,-7.3744],[19.5005,-7.379763986713749]],[[19.5005,-7.379763986713749],[19.5005,-7.380380952380951]],[[19.4981,-7.362077777777777],[19.4981,-7.3635046475292905]],[[19.4981,-7.3635046475292905],[19.4981,-7.372]],[[19.4981,-7.372],[19.5005,-7.3744]]],"type":"MultiLineString"},"id":"gb:AGO:ADM2:16411231B71421381230719","input_path":"data/geography/part-29.json","kind":"positive-length-boundary","name":"Cuilo","reference_year":"2018","source":"https://github.com/wmgeolab/geoBoundaries/raw/9469f09/releaseData/gbHumanitarian/AGO/ADM2/geoBoundaries-AGO-ADM2.geojson"}],"original_planar_area":3.989865079365681e-05,"status":"uncovered-physical-reference-candidate","tile":[15,-10,20,-5],"touches_reference_shore":false,"water_diagnostics":[],"water_status":"unverified"},"type":"Feature"},{"geometry":{"coordinates":[[[19.4957,-7.3109],[19.4957,-7.329869447185959],[19.4957,-7.330600000000001],[19.49,-7.323],[19.488,-7.302],[19.489,-7.298],[19.489514285714286,-7.297614285714285],[19.48967426311867,-7.297774263118668],[19.491,-7.2991],[19.4957,-7.3109]]],"type":"Polygon"},"id":"physical-gap:759:45:d914eab8f54b46144d05d6dc65823000c9c4ebfa624da265821825c812c6a8f6","properties":{"administrative_assignment":null,"area_m2":1927335.4338173436,"exact_location_contacts":[{"geometry":{"coordinates":[[[19.4957,-7.330600000000001],[19.49,-7.323]],[[19.49,-7.323],[19.488,-7.302]],[[19.488,-7.302],[19.489,-7.298]],[[19.489,-7.298],[19.489514285714286,-7.297614285714285]]],"type":"MultiLineString"},"id":"gb:COD:ADM2:63176286B37251946319002","input_path":"data/geography/part-5.json","kind":"positive-length-boundary","name":"Kahemba","reference_year":"2019","source":"https://github.com/wmgeolab/geoBoundaries/raw/9469f09/releaseData/gbOpen/COD/ADM2/geoBoundaries-COD-ADM2.geojson"},{"geometry":{"coordinates":[[[19.4957,-7.3109],[19.4957,-7.329869447185959]],[[19.4957,-7.329869447185959],[19.4957,-7.330600000000001]],[[19.48967426311867,-7.297774263118668],[19.491,-7.2991]],[[19.491,-7.2991],[19.4957,-7.3109]]],"type":"MultiLineString"},"id":"gb:AGO:ADM2:16411231B71421381230719","input_path":"data/geography/part-29.json","kind":"positive-length-boundary","name":"Cuilo","reference_year":"2018","source":"https://github.com/wmgeolab/geoBoundaries/raw/9469f09/releaseData/gbHumanitarian/AGO/ADM2/geoBoundaries-AGO-ADM2.geojson"}],"original_planar_area":0.000157828571428587,"status":"uncovered-physical-reference-candidate","tile":[15,-10,20,-5],"touches_reference_shore":false,"water_diagnostics":[],"water_status":"unverified"},"type":"Feature"}],"type":"FeatureCollection"}
