{"type":"FeatureCollection","features":[{"type":"Feature","properties":{"shapeName":"Sechura","shapeISO":"","shapeID":"86281439B13089313750619","shapeGroup":"PER","shapeType":"ADM2"},"geometry":{"type":"Polygon","coordinates":[[[-80.09236894099996,-5.79509126499994],[-80.09249071099998,-5.795100684999966],[-80.09267491599996,-5.795114934999958],[-80.09478165899998,-5.794312907999938],[-80.09601070299993,-5.793773056999953],[-80.09669667499998,-5.793472071999929],[-80.09838831199994,-5.79272982599997],[-80.09885506399996,-5.79251880299995],[-80.09948569099998,-5.792233688999943],[-80.09961545299996,-5.792184903999953],[-80.10010538199998,-5.792000710999957],[-80.10090319399995,-5.791700765999963],[-80.10147132099996,-5.791487171999961],[-80.10258257199996,-5.791069383999968],[-80.10282131199995,-5.790979625999967],[-80.10455508399997,-5.790242862999946],[-80.10594525699997,-5.789591035999933],[-80.10626702699994,-5.789440163999927],[-80.10917904399997,-5.787907161999954],[-80.10942446799999,-5.787631504999979],[-80.10964774399997,-5.787380725999981],[-80.11056347499994,-5.786159416999965],[-80.11103743799998,-5.785563872999944],[-80.11134345699998,-5.785179350999954],[-80.11141316599998,-5.785091760999933],[-80.11154724599999,-5.784981522999942],[-80.11166204399996,-5.784887138999977],[-80.11235721799994,-5.78439506899997],[-80.11246709299996,-5.784317294999937],[-80.11293535399994,-5.784069084999942],[-80.11388651799996,-5.783558040999935],[-80.11396399699998,-5.783511647999944],[-80.11502070699999,-5.782878879999942],[-80.11537837299994,-5.782661803999929],[-80.11769747699998,-5.781187540999952],[-80.11862635999995,-5.780516198999976],[-80.11893242499997,-5.780294991999938],[-80.11978490699994,-5.779613418999929],[-80.12072146099996,-5.779087695999976],[-80.12137365699994,-5.778741743999944],[-80.12193359999998,-5.778444724999929],[-80.12240712099998,-5.778193547999933],[-80.12268958999994,-5.778043713999978],[-80.12316833199998,-5.777754505999951],[-80.12380181499998,-5.777371818999939],[-80.12394535799996,-5.777250214999981],[-80.12416842099998,-5.77706124599996],[-80.12428493499993,-5.776962538999953],[-80.12555021599997,-5.775840783999968],[-80.12598327199998,-5.775456849999955],[-80.12647645699997,-5.775046503999931],[-80.12686164399997,-5.774726012999963],[-80.12716565499994,-5.77452],[-80.12786421399994,-5.774046618999932],[-80.12883010699994,-5.773447705999956],[-80.12959912299993,-5.77306406699995],[-80.13080121299998,-5.772464376999949],[-80.13625970599998,-5.769265289999964],[-80.13663687699994,-5.768945174999942],[-80.13710562099999,-5.768547338999952],[-80.13791084599995,-5.767831013999967],[-80.13878198199995,-5.76703424699997],[-80.13924995899998,-5.766505470999959],[-80.13933851799999,-5.766405405999933],[-80.14032030399994,-5.765614477999975],[-80.14069923899996,-5.765189598999939],[-80.14134489499997,-5.764967898999942],[-80.14138761499999,-5.764944119999939],[-80.14207342899994,-5.764703595999947],[-80.14217754899994,-5.764667078999935],[-80.14231153699996,-5.764635977999944],[-80.14336723899999,-5.764273473999936],[-80.14426230599997,-5.764173953999943],[-80.14550791999994,-5.763835904999951],[-80.14563663699994,-5.763800971999956],[-80.14667538099997,-5.763348570999938],[-80.14740655799994,-5.763018833999979],[-80.14862486399994,-5.761935598999969],[-80.14933818899993,-5.76153259299997],[-80.14973828099994,-5.761164062999967],[-80.15017314799996,-5.76092878999998],[-80.15177564199996,-5.760010072999933],[-80.15278515699998,-5.759515624999949],[-80.15310010899998,-5.759407202999967],[-80.15497208799997,-5.758762771999955],[-80.15507343399997,-5.758708700999932],[-80.15613533999993,-5.758142131999932],[-80.15676488899999,-5.757851125999935],[-80.15766793699999,-5.757433695999964],[-80.15932479299994,-5.756667813999968],[-80.16053144099999,-5.756068272999926],[-80.16177119999998,-5.755452275999971],[-80.16181024599996,-5.755433622999931],[-80.16328960399994,-5.754726894999976],[-80.16359704599995,-5.754580020999981],[-80.16452625099998,-5.754245569999966],[-80.16482663199997,-5.754091656999947],[-80.16508708599997,-5.753996938999933],[-80.16541585099998,-5.75387737899996],[-80.16618634299994,-5.753573383999935],[-80.16712106099999,-5.753161108999961],[-80.16896601799994,-5.752347350999969],[-80.16996432799993,-5.751815127999976],[-80.17078767299995,-5.751376179999966],[-80.17213395799996,-5.750543431999972],[-80.17221327099998,-5.750485351999941],[-80.17389026599994,-5.749257310999951],[-80.17437541299995,-5.748843020999971],[-80.17490031599993,-5.748394779999956],[-80.175462741,-5.747888216999968],[-80.17735736399999,-5.746679723999932],[-80.17818160399997,-5.745633268999939],[-80.17839148299998,-5.745463703999974],[-80.17932200799999,-5.744473330999938],[-80.18003916799995,-5.743437883999945],[-80.18081043399997,-5.742208269999935],[-80.18094769499999,-5.741989435999926],[-80.18178515599999,-5.740753905999952],[-80.18188539299996,-5.740584958999932],[-80.18218654499998,-5.74029420599993],[-80.18232460499996,-5.740160911999965],[-80.18242911399994,-5.740077624999969],[-80.18304912699995,-5.739583511999967],[-80.18335650499995,-5.739335002999951],[-80.18347807999999,-5.739254071999937],[-80.18419064399995,-5.738779723999926],[-80.18542017099998,-5.737771040999974],[-80.18822318799994,-5.735468598999944],[-80.18907220699998,-5.734722958999953],[-80.18987485999997,-5.734034202999965],[-80.19011149199997,-5.733831147999979],[-80.19170686999996,-5.732559374999937],[-80.19319545699994,-5.73175525399995],[-80.19339676699997,-5.731646507999926],[-80.19410280099999,-5.731273860999977],[-80.19466965099997,-5.73097467499997],[-80.19534034399999,-5.730605258999958],[-80.19636688099996,-5.730039842999929],[-80.196506748,-5.729956050999931],[-80.19812274899994,-5.728987932999928],[-80.19972513199997,-5.727913837999949],[-80.20210580499997,-5.725833041999977],[-80.20267984799995,-5.725373677999926],[-80.20292820699996,-5.725174934999927],[-80.20326001499996,-5.724909413999967],[-80.20536741999996,-5.723360069999956],[-80.20555019199998,-5.723232476999954],[-80.20689735599996,-5.722292019999941],[-80.20755413899997,-5.721833515999947],[-80.20769652999996,-5.721777503999931],[-80.20846230499995,-5.721336146999931],[-80.20865903199996,-5.721239655999966],[-80.20872612999995,-5.72120674599995],[-80.21015934699994,-5.720503773999951],[-80.21106637499997,-5.720065699999964],[-80.21210457899997,-5.719920685999966],[-80.21241818899995,-5.719891202999975],[-80.21271868999997,-5.719862951999971],[-80.21403619899996,-5.719824418999963],[-80.21439272399994,-5.719813990999967],[-80.21454845999995,-5.719810352999957],[-80.21557696499997,-5.719786322999937],[-80.21603033799994,-5.719669789999955],[-80.21696638199995,-5.719392830999936],[-80.21704445799998,-5.71935711499998],[-80.21766856899995,-5.71907161799993],[-80.21866340899999,-5.718560429999968],[-80.21873541899998,-5.718514780999953],[-80.21950476899997,-5.718027064999944],[-80.22029749299998,-5.717443119999928],[-80.22067551799995,-5.717164652999941],[-80.22133015299994,-5.716787532999945],[-80.22181674699993,-5.716507215999968],[-80.22205068799997,-5.716416231999972],[-80.22267976599994,-5.716171570999961],[-80.22346641399997,-5.715929905999928],[-80.22500526499994,-5.715457151999942],[-80.22524932499994,-5.715354027999979],[-80.22581712099998,-5.715114110999934],[-80.22655552399993,-5.714816044999964],[-80.22662695299994,-5.714800780999951],[-80.22677782299996,-5.714770528999964],[-80.22702753199997,-5.714676348999944],[-80.22808275699998,-5.71427836099997],[-80.22882737699996,-5.713997518999975],[-80.22927760099998,-5.713827710999965],[-80.22941660999999,-5.713775281999972],[-80.23223107099994,-5.71271375799995],[-80.23272216599997,-5.712534363999964],[-80.23326957299997,-5.712334397999939],[-80.23568078999995,-5.711555731999965],[-80.23584373899996,-5.711503108999977],[-80.23700730199994,-5.711282978999975],[-80.23734262999994,-5.711219538999956],[-80.23792554499994,-5.71115803999993],[-80.23843925699998,-5.711103839999964],[-80.23921544399997,-5.711012704999973],[-80.24025459699999,-5.710890694999932],[-80.24127591099995,-5.710770774999958],[-80.24139375199996,-5.710729354999955],[-80.24281168499994,-5.710230965999926],[-80.24356533499997,-5.709668156999953],[-80.24448740699995,-5.708878583999933],[-80.24452796699995,-5.708819981999966],[-80.24530765699996,-5.707693481999968],[-80.24550550699996,-5.707375383999931],[-80.24590832199993,-5.706727752999939],[-80.24598433399996,-5.70657891999997],[-80.24647261799998,-5.705622855999934],[-80.24673814699997,-5.705089569999927],[-80.24748812599995,-5.703583318999961],[-80.24810965999995,-5.702335026999947],[-80.24837081199996,-5.701810523999939],[-80.24868138199997,-5.701237976999948],[-80.24989488399996,-5.699000823999938],[-80.25051742099998,-5.697909034999952],[-80.25098902099995,-5.697081949999927],[-80.25109640499994,-5.696893620999958],[-80.25145411699998,-5.696374378999963],[-80.25203380299996,-5.695532925999942],[-80.25205589399997,-5.69540847899998],[-80.25267790399994,-5.694874771999935],[-80.253401694,-5.694419731999972],[-80.25355371499995,-5.694375463999961],[-80.25357510099997,-5.694358676999968],[-80.25403834699995,-5.694217543999969],[-80.25476946099997,-5.69410133599996],[-80.25518610999995,-5.694101874999944],[-80.25544194699995,-5.694102204999979],[-80.25677981499996,-5.694075173999977],[-80.25714513799994,-5.694067790999952],[-80.25783135499995,-5.694024614999933],[-80.25828553599996,-5.693996037999966],[-80.25893991799995,-5.693835430999968],[-80.25929458399997,-5.693748383999946],[-80.26009918699998,-5.69332473399993],[-80.26068449999997,-5.69290080199994],[-80.26154783999993,-5.692272204999938],[-80.26215239299995,-5.691905162999944],[-80.262294,-5.691819188999943],[-80.26319357699998,-5.691432265999936],[-80.26414410599995,-5.691213814999969],[-80.26489002099999,-5.690951169999948],[-80.26527043699997,-5.690702702999943],[-80.26556302499995,-5.69054198799995],[-80.26638255499995,-5.68986939499996],[-80.26643964899995,-5.689833567999926],[-80.26752375999996,-5.689153275999956],[-80.26782525199997,-5.688985007999975],[-80.26802116399995,-5.688875665999944],[-80.26874671899998,-5.688565267999934],[-80.26899386599996,-5.688459536999972],[-80.26987216899994,-5.688199836999956],[-80.27111443799998,-5.687832514999968],[-80.27133768899995,-5.687756242999967],[-80.27258896899997,-5.687328749999949],[-80.27432189399997,-5.686736697999947],[-80.27485123899999,-5.686555846999966],[-80.27632471899994,-5.685980169999937],[-80.27810260399997,-5.685285556999929],[-80.27879302199995,-5.685015810999971],[-80.27949476299995,-5.684722982999972],[-80.28057748199996,-5.684271176999971],[-80.28145969299999,-5.683799333999957],[-80.28232525499999,-5.68333639399998],[-80.28325455199996,-5.682839361999925],[-80.28408845399997,-5.68234248899995],[-80.28418144299997,-5.682294923999962],[-80.28498809599995,-5.681882306999967],[-80.28523046899994,-5.681775390999974],[-80.28535989399995,-5.681714400999965],[-80.28610650799999,-5.68136256899993],[-80.28696974199994,-5.68095577899993],[-80.28772745899994,-5.680598711999949],[-80.28787890599995,-5.680527343999927],[-80.28808055899998,-5.680375939999976],[-80.28817345599998,-5.680306191999932],[-80.28903990999999,-5.679983542999935],[-80.28909986899998,-5.679950876999953],[-80.28984449399996,-5.679545201999929],[-80.29025926499997,-5.679329264999978],[-80.29121955799997,-5.678829316999952],[-80.29217168499997,-5.678372564999961],[-80.29271157099998,-5.678113570999926],[-80.29272620699999,-5.678098944999931],[-80.29289912499996,-5.678035553999962],[-80.29415950899994,-5.677573499999937],[-80.29565084099994,-5.677414230999943],[-80.29710543199997,-5.677420402999928],[-80.29807027199996,-5.677424494999968],[-80.29834803399996,-5.677424831999929],[-80.29998535999994,-5.677426816999969],[-80.30167964899994,-5.676967270999967],[-80.30197419499996,-5.676887379999926],[-80.30273514499999,-5.676775388999943],[-80.30315854299994,-5.676713074999952],[-80.30400650199994,-5.676655335999953],[-80.30432084899996,-5.676633930999969],[-80.30523466799997,-5.676626782999961],[-80.30594357399997,-5.67662123599996],[-80.30611337999994,-5.676646250999966],[-80.30664516299998,-5.676724588999946],[-80.30693449899996,-5.676810844999977],[-80.30743430899997,-5.676959844999942],[-80.30803917499998,-5.677220381999973],[-80.30855939599996,-5.677444457999968],[-80.30940616199996,-5.677725959999975],[-80.31030567999994,-5.678024997999955],[-80.31070152399997,-5.678107381999951],[-80.31165030199998,-5.678304843999967],[-80.31223638499995,-5.678342237999971],[-80.31305362599994,-5.678394379999929],[-80.31327289099994,-5.678396636999935],[-80.31419407199996,-5.678406119999977],[-80.31466170599998,-5.678410932999952],[-80.31549612799995,-5.678466836999974],[-80.31566303299996,-5.678478018999954],[-80.31590668899997,-5.678496557999949],[-80.31643000399998,-5.678536375999954],[-80.31666665699998,-5.678554381999959],[-80.31722713499994,-5.678597024999931],[-80.31766790999995,-5.678656992999947],[-80.31798720699999,-5.67870043299996],[-80.31818754899996,-5.678755670999976],[-80.31827323999994,-5.678779296999949],[-80.31883645799996,-5.678934584999979],[-80.31905405499998,-5.678994578999948],[-80.31978473499998,-5.67922975099998],[-80.32028091799998,-5.679339469999945],[-80.32038396299998,-5.679362255999933],[-80.32060937699998,-5.679446006999967],[-80.32083073699994,-5.679528251999955],[-80.32096538699994,-5.679578278999941],[-80.32105615099994,-5.679612001999942],[-80.32171378799995,-5.679803151999977],[-80.32177933199995,-5.679812241999969],[-80.32248948699998,-5.679935076999925],[-80.44784960899995,-5.633472655999981],[-80.50230468699993,-5.614117187999966],[-80.53462958799997,-5.601605451999944],[-80.53534859199993,-5.593309959999942],[-80.53752704599998,-5.568173931999979],[-80.55256607399997,-5.49234450299997],[-80.552580875,-5.492269863999979],[-80.56757067199999,-5.486871257999951],[-80.59146230799996,-5.479368981999926],[-80.59150953499994,-5.479368213999976],[-80.60151953999997,-5.479205516999968],[-80.63678821699995,-5.485591382999928],[-80.64513935799994,-5.48710314799996],[-80.64519005499994,-5.487112324999941],[-80.64503795099995,-5.486016819999975],[-80.64525602099997,-5.484772472999964],[-80.64553623899997,-5.48343482699994],[-80.64632966099998,-5.47946740499998],[-80.64690051899998,-5.475795772999959],[-80.64692187399999,-5.474285674999976],[-80.64701577699998,-5.471928821999938],[-80.64705377599995,-5.469971639999926],[-80.64729869099995,-5.467450978999977],[-80.64754326999997,-5.465499530999978],[-80.64827476799996,-5.463467052999931],[-80.64849581799996,-5.462583183999925],[-80.64868144199994,-5.461840963999975],[-80.64868205799996,-5.460783850999974],[-80.64843938099995,-5.459482647999948],[-80.64782530299993,-5.457668115999979],[-80.64714315399993,-5.455903968999962],[-80.64665761899994,-5.453626826999937],[-80.64665852199994,-5.452081816999964],[-80.64682237799997,-5.449398473999963],[-80.64704928299994,-5.44776827499993],[-80.64724992899994,-5.446529294999948],[-80.64658624399993,-5.446214742999928],[-80.64296674199994,-5.445010805999971],[-80.64222703299998,-5.444764757999963],[-80.64332246199996,-5.443551901999967],[-80.64428692599995,-5.442189023999958],[-80.64431699599999,-5.43673285899996],[-80.64611472299998,-5.436123940999948],[-80.64855149299996,-5.435390903999973],[-80.65010642299995,-5.434923138999977],[-80.65128575299997,-5.434568360999947],[-80.65143414599999,-5.434523718999969],[-80.65146041699995,-5.434515816999976],[-80.65160880899998,-5.434471175999931],[-80.65235148099998,-5.434247754999944],[-80.65247360299998,-5.434211016999939],[-80.65296280099994,-5.434063849999973],[-80.65369511299997,-5.433843544999945],[-80.65473945099995,-5.433636577999948],[-80.65490376799994,-5.433604013999968],[-80.65538005899998,-5.433509622999964],[-80.65587527899999,-5.433411477999925],[-80.65748664099993,-5.433092131999956],[-80.65862246699999,-5.432867026999929],[-80.66096681199997,-5.43240240199998],[-80.66294652899995,-5.432010035999951],[-80.66696868999998,-5.431017131999965],[-80.66913976399996,-5.430481171999929],[-80.67489584499998,-5.429293507999944],[-80.67776787299994,-5.428700893999974],[-80.67886388499994,-5.428474738999967],[-80.68012665599997,-5.428214171999969],[-80.68099068499998,-5.428035881999961],[-80.68292964899996,-5.427660844999934],[-80.68560926099997,-5.427142538999931],[-80.69037772899998,-5.426336833999926],[-80.69037680599996,-5.428146107999964],[-80.69750417499995,-5.427048382999942],[-80.69832568599998,-5.426766229999942],[-80.69938980599994,-5.42640075099996],[-80.70063278399994,-5.425973838999937],[-80.70236010399998,-5.425380569999959],[-80.70376518199998,-5.424905167999952],[-80.70416132099996,-5.424785672999974],[-80.72070538299994,-5.419794890999981],[-80.72089139099995,-5.419738775999974],[-80.71977303999995,-5.417648541999938],[-80.72205436999997,-5.416981178999947],[-80.72375434299994,-5.416483384999935],[-80.72332058699999,-5.414446102999932],[-80.72306838399999,-5.412671028999966],[-80.72299827999996,-5.411697493999952],[-80.72361066299999,-5.411650103999932],[-80.72589886899993,-5.411494242999936],[-80.72671787699994,-5.411277365999979],[-80.72766963699996,-5.410432948999926],[-80.73100594499994,-5.409408553999981],[-80.73152781499994,-5.409054303999937],[-80.73171668099997,-5.408926099999974],[-80.73235536599998,-5.407972911999934],[-80.73357196399996,-5.407333778999941],[-80.73790433799996,-5.405201346999945],[-80.73820293499995,-5.405704587999935],[-80.73841944999998,-5.406296074999943],[-80.73847922299996,-5.407321984999953],[-80.73952826399994,-5.407661452999946],[-80.74104253599995,-5.408290729999976],[-80.74168470899997,-5.408557592999955],[-80.74349448099997,-5.409351191999974],[-80.74389388499998,-5.410294134999958],[-80.74429513599995,-5.411241436999944],[-80.74434946199995,-5.411369692999926],[-80.74486730299998,-5.411763977999954],[-80.74515842199997,-5.411767747999932],[-80.74614844099995,-5.411780565999948],[-80.74698284699997,-5.412330170999951],[-80.74767151999998,-5.412783782999952],[-80.74903049599999,-5.41349069599994],[-80.74914759099994,-5.413653859999954],[-80.74917645199997,-5.41361576099996],[-80.74980663999997,-5.412783882999975],[-80.74997434699998,-5.41272756799998],[-80.75057598699993,-5.412146996999979],[-80.75149157899995,-5.411721040999964],[-80.75198711099995,-5.411402842999962],[-80.75243423499995,-5.410944314999938],[-80.75305898999994,-5.410653151999952],[-80.75372329699996,-5.410702769999943],[-80.75404238299996,-5.410814610999978],[-80.75469944499997,-5.410563778999972],[-80.75523248899998,-5.410192864999942],[-80.75547643999994,-5.409984768999948],[-80.75572945099998,-5.409704260999945],[-80.75585642899995,-5.409463567999978],[-80.75599777699995,-5.409180535999951],[-80.75610656999999,-5.408989411999926],[-80.75617225499997,-5.408853075999957],[-80.75596763699997,-5.408517269999948],[-80.75550258499999,-5.40833491099994],[-80.75480996999994,-5.408365697999955],[-80.75406675399995,-5.408656814999972],[-80.75356184899994,-5.408664721999969],[-80.75300680399994,-5.408528043999979],[-80.75269502099997,-5.407211142999927],[-80.75257162699995,-5.40608859699995],[-80.75246432899996,-5.405111766999937],[-80.75207315399996,-5.403398996999954],[-80.75192695799996,-5.402758873999971],[-80.75190519699999,-5.402663590999964],[-80.77221250299993,-5.400231142999928],[-80.77234937699995,-5.400249451999969],[-80.77318069499995,-5.40036065299995],[-80.78337326699994,-5.40110556299993],[-80.85102838799997,-5.406040760999929],[-80.93951768099998,-5.36101733199996],[-80.95923954299997,-5.350980155999935],[-80.95975805499995,-5.350716252999973],[-80.96108224899996,-5.350446675999933],[-80.97219923999995,-5.352599598999973],[-80.97452148999997,-5.355837848999954],[-80.98014061499998,-5.363814472999934],[-80.98528511499995,-5.37093559799996],[-80.98715236499999,-5.373714847999963],[-80.98748048999994,-5.374433598999929],[-80.98760936499997,-5.375705097999969],[-80.98907611499999,-5.378845723999973],[-80.99395111499996,-5.388460973999941],[-80.99353711499998,-5.38879097399996],[-80.98943948999994,-5.392935598999941],[-80.98716411499998,-5.395548848999965],[-80.98629886499998,-5.39684372399995],[-80.98555661499995,-5.397765598999968],[-80.98426761499996,-5.398986348999927],[-80.98161323999994,-5.401265598999942],[-80.98034961499997,-5.40283197399998],[-80.97945511499995,-5.403664098999968],[-80.97895898999997,-5.404269473999932],[-80.97570886499994,-5.40779884899996],[-80.97503123999996,-5.408792973999937],[-80.97460736499994,-5.409562473999927],[-80.97327348999994,-5.411054723999939],[-80.97186323999995,-5.412339848999977],[-80.96941798999995,-5.413886723999951],[-80.96861323999997,-5.41458197399993],[-80.96832223999996,-5.414962848999949],[-80.96783786499998,-5.415458973999932],[-80.96379298999994,-5.419033098999932],[-80.96241211499995,-5.420064473999957],[-80.96115823999997,-5.420841848999942],[-80.95990236499995,-5.421718723999959],[-80.95847661499994,-5.423085973999946],[-80.95764648999995,-5.424244223999949],[-80.95718548999997,-5.425193348999926],[-80.955101615,-5.427644473999976],[-80.95405273999995,-5.428630848999944],[-80.95232036499993,-5.42993359899998],[-80.95101948999996,-5.431308598999976],[-80.95052348999997,-5.431951223999931],[-80.94954886499994,-5.432999973999927],[-80.94898823999995,-5.43375972399997],[-80.94842773999994,-5.43468159899993],[-80.94771486499997,-5.435634723999954],[-80.94701173999994,-5.436328098999979],[-80.94620698999995,-5.437279348999937],[-80.94557611499994,-5.437929723999957],[-80.94308398999993,-5.441249973999959],[-80.94219923999998,-5.442236348999927],[-80.94178323999995,-5.44286909899995],[-80.94105273999998,-5.44376372399995],[-80.94043948999996,-5.444378848999975],[-80.93963473999997,-5.445337848999941],[-80.93849798999997,-5.44648634899994],[-80.93753123999994,-5.447915973999955],[-80.93661911499998,-5.449607473999947],[-80.93584373999994,-5.450476598999956],[-80.93452536499996,-5.451624973999969],[-80.93281836499995,-5.454048848999946],[-80.93216011499999,-5.455134723999947],[-80.93121486499996,-5.45629884899995],[-80.93021873999999,-5.45752347399997],[-80.92954098999996,-5.458671848999927],[-80.92887298999995,-5.459984348999967],[-80.92813286499995,-5.461113223999973],[-80.92743748999999,-5.462408223999944],[-80.92566798999997,-5.464615223999942],[-80.92512298999998,-5.465220723999948],[-80.92351949,-5.467537223999955],[-80.92321098999997,-5.467898473999981],[-80.92220898999994,-5.470023473999959],[-80.92113473999996,-5.471607473999939],[-80.92000386499996,-5.473460973999977],[-80.91934773999998,-5.474292973999979],[-80.91857036499994,-5.475605473999963],[-80.91469736499994,-5.480706973999929],[-80.91362298999996,-5.482812473999957],[-80.91259373999998,-5.484099598999933],[-80.91156448999999,-5.485654348999958],[-80.90980273999998,-5.489617223999971],[-80.90944136499996,-5.490267598999935],[-80.90824998999994,-5.491951223999934],[-80.90600973999994,-5.495543098999974],[-80.90545898999994,-5.496248098999956],[-80.90484573999998,-5.497324223999954],[-80.90430273999993,-5.498572223999929],[-80.90357223999996,-5.499910098999976],[-80.90044536499994,-5.506056598999976],[-80.89758398999999,-5.511453098999937],[-80.89770123999995,-5.511861348999957],[-80.89761911499994,-5.512728348999929],[-80.89725786499997,-5.51392384899998],[-80.89688861499997,-5.516138723999973],[-80.89679686499994,-5.516746098999931],[-80.89668948999997,-5.517361348999941],[-80.89641011499998,-5.518056598999976],[-80.89613861499998,-5.518761723999944],[-80.89584961499997,-5.520056598999929],[-80.89554298999997,-5.521078098999965],[-80.89508211499998,-5.52208184899996],[-80.89469336499997,-5.523113223999928],[-80.89378911499995,-5.525484348999953],[-80.89341011499994,-5.526179723999974],[-80.89284961499999,-5.527076223999927],[-80.89256048999994,-5.527970723999942],[-80.89248048999997,-5.528351598999961],[-80.89229098999994,-5.528794973999936],[-80.89170311499998,-5.529753848999974],[-80.89051948999997,-5.531353473999957],[-80.88999611499997,-5.532210973999952],[-80.88867773999993,-5.534484348999968],[-80.88791011499995,-5.536195348999968],[-80.88766598999996,-5.536953098999959],[-80.88719723999998,-5.538482473999977],[-80.88644936499998,-5.539867223999977],[-80.88614848999998,-5.540417973999979],[-80.88568161499995,-5.541558598999927],[-80.88494136499997,-5.543068348999952],[-80.88466798999997,-5.543693348999966],[-80.88445898999998,-5.544460973999946],[-80.88435161499996,-5.544921848999934],[-80.88405273999996,-5.54565622399997],[-80.88354486499998,-5.546615223999936],[-80.88276348999995,-5.547697223999933],[-80.88264261499995,-5.547917973999972],[-80.88238286499995,-5.548396473999958],[-80.88184173999997,-5.549337848999926],[-80.88159573999997,-5.549644473999933],[-80.88146098999994,-5.550044973999945],[-80.88125386499996,-5.551081973999942],[-80.88114448999994,-5.551744098999961],[-80.88090036499995,-5.552402348999976],[-80.88071098999995,-5.552982473999975],[-80.88015036499996,-5.554339848999973],[-80.87983398999995,-5.554972598999939],[-80.87937498999997,-5.555876973999943],[-80.87891411499999,-5.557314473999952],[-80.87861523999999,-5.558001973999978],[-80.87850786499996,-5.558300723999935],[-80.87850586499997,-5.55887109899993],[-80.87848048999996,-5.55915234899993],[-80.87825386499998,-5.559830098999953],[-80.87781048999994,-5.560445348999963],[-80.87746873999998,-5.560880848999943],[-80.87708011499996,-5.561683598999934],[-80.87680861499996,-5.562498098999981],[-80.87657423999997,-5.563945348999937],[-80.87638473999993,-5.564578098999959],[-80.87585936499994,-5.566035098999976],[-80.87556248999994,-5.566824223999959],[-80.87474023999994,-5.568603473999929],[-80.87445123999998,-5.569074223999962],[-80.87368361499995,-5.570205098999963],[-80.87287111499995,-5.571037098999966],[-80.87251761499994,-5.571490223999945],[-80.87165823999999,-5.574140473999933],[-80.87118161499995,-5.575677723999945],[-80.87102736499997,-5.576429723999979],[-80.87092773999996,-5.576863223999965],[-80.87026761499999,-5.57864447399993],[-80.86990623999998,-5.580455098999948],[-80.86955661499996,-5.58257034899998],[-80.86920111499995,-5.583501973999944],[-80.86856048999994,-5.584841848999929],[-80.86772848999993,-5.58732622399998],[-80.86719536499999,-5.588451223999925],[-80.86686123999993,-5.588984348999929],[-80.86661723999998,-5.589382848999946],[-80.86630061499994,-5.590150348999941],[-80.86590423999996,-5.592701223999939],[-80.86520699,-5.59650972399993],[-80.86488298999996,-5.598771473999932],[-80.86470111499995,-5.599578098999928],[-80.86441211499994,-5.600283223999952],[-80.86424023999996,-5.600706973999934],[-80.86413286499999,-5.600960973999975],[-80.86371673999997,-5.602562473999967],[-80.86353511499993,-5.603603473999954],[-80.86324611499998,-5.604507848999958],[-80.86296674,-5.605140473999938],[-80.86261311499999,-5.605917973999965],[-80.86246873999994,-5.606605473999934],[-80.86240623999998,-5.607726598999932],[-80.86214448999993,-5.608984348999968],[-80.86169136499996,-5.609906223999928],[-80.86027348999994,-5.612855473999957],[-80.85921673999997,-5.615859348999948],[-80.85876561499998,-5.617417973999977],[-80.85847461499998,-5.618011723999928],[-80.85789648999997,-5.619134723999935],[-80.85720111499995,-5.621005848999971],[-80.85642386499995,-5.622869098999956],[-80.85511523999998,-5.625240223999981],[-80.85496098999994,-5.625873098999932],[-80.85476173999996,-5.626949223999929],[-80.85440036499995,-5.628406223999946],[-80.85426561499997,-5.629029473999935],[-80.85400198999997,-5.631236348999948],[-80.85321673999994,-5.633136723999939],[-80.85303511499995,-5.633734473999937],[-80.85254686499997,-5.635488223999971],[-80.85238473999993,-5.636265598999955],[-80.85227736499996,-5.636835973999951],[-80.85219536499994,-5.63731622399996],[-80.85219536499994,-5.637867223999933],[-80.85185161499999,-5.64074409899996],[-80.85174223999996,-5.641648473999965],[-80.85168748999996,-5.643765598999948],[-80.85130861499994,-5.645765598999958],[-80.85126173999998,-5.646333973999958],[-80.85108986499995,-5.649691348999966],[-80.85113473999996,-5.652296848999981],[-80.85094536499997,-5.654294973999981],[-80.85061911499997,-5.655669973999977],[-80.85043749,-5.65650197399998],[-80.85048236499995,-5.658628848999967],[-80.85050973999995,-5.659933598999942],[-80.85041798999998,-5.661441348999972],[-80.85028323999995,-5.662482473999944],[-80.85022848999995,-5.663550723999947],[-80.85038286499997,-5.665015598999958],[-80.85075973999994,-5.668027348999942],[-80.85074223999999,-5.669890598999928],[-80.85062498999997,-5.671537098999977],[-80.85070511499998,-5.673798848999979],[-80.85094723999998,-5.676558598999975],[-80.85099223999998,-5.677626973999963],[-80.85126361499994,-5.679335973999969],[-80.85132423999994,-5.679867223999963],[-80.85130661499994,-5.682474598999931],[-80.85136123999996,-5.685859348999941],[-80.85151361499999,-5.690001973999927],[-80.85189261499994,-5.693421848999947],[-80.85228911499996,-5.696171848999938],[-80.85263086499998,-5.697410098999967],[-80.85283023999995,-5.698369098999933],[-80.85289261499997,-5.699962848999974],[-80.85289261499997,-5.702677723999955],[-80.85310736499997,-5.704242223999927],[-80.85313473999997,-5.704820223999945],[-80.85317973999997,-5.70649409899994],[-80.85335161499995,-5.708148473999927],[-80.85357611499995,-5.710285098999975],[-80.85359373999995,-5.710925723999935],[-80.85368361499997,-5.714173723999977],[-80.85389061499995,-5.716552598999954],[-80.85449611499996,-5.719521473999976],[-80.85473048999995,-5.721058598999946],[-80.85485548999998,-5.722343723999927],[-80.85523436499994,-5.724857473999975],[-80.85574798999994,-5.727156223999941],[-80.85593748999997,-5.729517598999962],[-80.85601948999994,-5.730007848999946],[-80.85640623999996,-5.731734348999964],[-80.85666798999995,-5.732556598999963],[-80.85691211499994,-5.733281348999981],[-80.85773436499994,-5.735162098999979],[-80.85823048999998,-5.736882848999926],[-80.85830273999994,-5.737306598999965],[-80.85844536499997,-5.739216848999945],[-80.85877924,-5.740691348999974],[-80.85937498999994,-5.743369098999949],[-80.85954686499997,-5.744355473999974],[-80.85981636499997,-5.745478473999981],[-80.86090823999996,-5.748290973999929],[-80.86118948999996,-5.749456973999941],[-80.86124411499998,-5.749665973999981],[-80.86970111499994,-5.765710973999944],[-80.87043361499997,-5.768790973999955],[-80.87113848999996,-5.768863223999972],[-80.87175186499996,-5.769415973999969],[-80.87296286499998,-5.771152348999976],[-80.87341411499995,-5.771615223999959],[-80.87411723999998,-5.772574223999925],[-80.87437886499998,-5.773396473999981],[-80.87485736499997,-5.774138723999954],[-80.87534573999994,-5.774374973999954],[-80.87627536499997,-5.775169973999937],[-80.87659173999998,-5.775695348999932],[-80.87675386499996,-5.776138723999964],[-80.87689061499998,-5.776880848999951],[-80.87703323999995,-5.777242348999948],[-80.87812698999994,-5.779078098999946],[-80.87871098999995,-5.780390598999929],[-80.87884961499998,-5.780499973999952],[-80.87938086499997,-5.781992223999964],[-80.88050973999998,-5.784326223999926],[-80.88115998999996,-5.785412098999927],[-80.88146673999995,-5.786154348999958],[-80.88194536499998,-5.787574223999968],[-80.88275786499997,-5.790550723999957],[-80.88295698999997,-5.791029348999928],[-80.88319923999995,-5.792070348999971],[-80.88387698999998,-5.794341848999977],[-80.88421098999999,-5.795861348999949],[-80.88488861499997,-5.798058598999944],[-80.88524998999998,-5.798783223999976],[-80.88539648999995,-5.798937473999956],[-80.88593748999995,-5.799914098999977],[-80.88622461499995,-5.800294973999939],[-80.88659373999997,-5.801000098999964],[-80.88758786499994,-5.80252934899994],[-80.88805661499998,-5.803488223999977],[-80.88811136499999,-5.803831973999934],[-80.88826561499997,-5.804039098999965],[-80.88850973999996,-5.804681598999935],[-80.88870698999995,-5.804970723999929],[-80.88885161499996,-5.805468723999979],[-80.88900586499994,-5.805632848999949],[-80.88932223999996,-5.806283223999969],[-80.88990823999995,-5.807152348999978],[-80.89148823999994,-5.809820348999949],[-80.89319536499994,-5.811919973999977],[-80.89359373999997,-5.812509723999938],[-80.89658198999996,-5.816099723999969],[-80.89740423999996,-5.816851598999961],[-80.89827148999996,-5.817529348999926],[-80.89907611499996,-5.818298848999973],[-80.90097073999993,-5.82067184899995],[-80.90294923999994,-5.822777348999978],[-80.90406048999995,-5.823708973999942],[-80.90462886499995,-5.824269473999948],[-80.90820511499999,-5.82690434899996],[-80.90964261499994,-5.82820522399993],[-80.91078911499994,-5.829156223999973],[-80.91235161499998,-5.830142598999942],[-80.91299223999994,-5.830468723999957],[-80.91477148999996,-5.831898473999956],[-80.91721673999996,-5.833634723999978],[-80.91781448999996,-5.834142598999961],[-80.92090423999997,-5.836087848999966],[-80.92196098999995,-5.836857473999942],[-80.92409373999999,-5.837978473999954],[-80.92699223999995,-5.839201223999964],[-80.92746286499994,-5.839308598999935],[-80.92922461499995,-5.839953098999956],[-80.92996486499999,-5.840140598999938],[-80.93340623999995,-5.841669973999956],[-80.93411911499999,-5.842105473999936],[-80.93456248999996,-5.842240223999966],[-80.93746286499999,-5.843597598999963],[-80.93790423999997,-5.843724598999927],[-80.93980073999995,-5.844539098999974],[-80.94117386499994,-5.844947223999952],[-80.94225786499999,-5.845416098999976],[-80.94314448999995,-5.845679723999979],[-80.94462498999997,-5.845941348999929],[-80.94567386499995,-5.845996098999933],[-80.94678323999995,-5.845878848999973],[-80.94851761499996,-5.845996098999933],[-80.95130073999997,-5.84606834899995],[-80.95167186499998,-5.846187473999976],[-80.95419136499999,-5.846177723999972],[-80.95549223999996,-5.845998098999928],[-80.95635936499997,-5.845751973999938],[-80.95719136499997,-5.84562697399997],[-80.95888086499997,-5.84513872399998],[-80.95968361499996,-5.844630848999941],[-80.95998236499997,-5.844351598999936],[-80.96050586499996,-5.843537098999946],[-80.96060548999998,-5.843275348999953],[-80.96106636499997,-5.843220723999934],[-80.96126561499995,-5.843255848999945],[-80.96196873999997,-5.843664098999966],[-80.96252923999998,-5.843708973999981],[-80.96317186499994,-5.843646473999968],[-80.96399998999993,-5.843654348999962],[-80.96620511499998,-5.844451223999954],[-80.96750786499996,-5.844695348999949],[-80.96835548999996,-5.844623098999932],[-80.96872661499998,-5.844433598999956],[-80.96987298999994,-5.843482473999927],[-80.96999011499997,-5.84297659899994],[-80.96989261499994,-5.842478473999961],[-80.97052336499996,-5.841339848999951],[-80.97200586499997,-5.840796848999958],[-80.97390236499996,-5.83991997399994],[-80.97539261499998,-5.83886922399995],[-80.97645898999997,-5.838380848999975],[-80.97673048999997,-5.838373098999966],[-80.97909761499994,-5.838673848999974],[-80.98089248999997,-5.838642598999968],[-80.98333398999995,-5.838716848999979],[-80.98689261499999,-5.838617223999961],[-80.98807611499996,-5.838453098999935],[-80.98908786499999,-5.838164098999925],[-80.98933198999998,-5.838029348999953],[-80.99002736499995,-5.837404348999939],[-80.99060548999995,-5.836265598999944],[-80.99064061499996,-5.835124973999939],[-80.99043348999999,-5.834193348999975],[-80.99047661499998,-5.833958973999927],[-80.99081248999994,-5.833568348999961],[-80.99155486499996,-5.833189473999937],[-80.99201561499996,-5.832845723999981],[-80.99234961499997,-5.832818348999979],[-80.99304486499994,-5.833234348999952],[-80.99415623999994,-5.833550848999948],[-80.99548448999997,-5.833740223999939],[-80.99812111499995,-5.834808598999928],[-80.99999998999994,-5.835368973999948],[-81.00199411499995,-5.835912098999927],[-81.00346873999996,-5.835994098999947],[-81.00420111499994,-5.835867223999969],[-81.00462486499998,-5.835730473999945],[-81.00485161499995,-5.835540973999969],[-81.00534761499995,-5.834771473999979],[-81.00616986499995,-5.833839848999958],[-81.00780473999998,-5.832374848999962],[-81.00814848999994,-5.832265598999925],[-81.00943948999998,-5.832265598999925],[-81.00997261499998,-5.832165973999963],[-81.01159948999998,-5.831550723999953],[-81.01300786499996,-5.830628848999936],[-81.01336911499999,-5.830312473999925],[-81.01348636499995,-5.830076098999939],[-81.01327923999997,-5.828312598999958],[-81.01332423999997,-5.828060598999969],[-81.01345898999995,-5.827906223999946],[-81.01366798999999,-5.827888723999934],[-81.01396486499993,-5.828033223999967],[-81.014787115,-5.828701223999929],[-81.01543748999995,-5.829425723999975],[-81.01627736499995,-5.829978473999972],[-81.01666598999998,-5.830138723999937],[-81.01829298999996,-5.830419973999938],[-81.02041411499994,-5.830584098999964],[-81.02169723999998,-5.830556598999976],[-81.02320698999995,-5.830158223999945],[-81.02386723999996,-5.829904348999946],[-81.02641211499997,-5.828357473999972],[-81.03094536499998,-5.824763723999979],[-81.03153523999998,-5.824531223999941],[-81.03251948999997,-5.824349598999959],[-81.03406448999993,-5.823789098999953],[-81.03598823999994,-5.822675723999964],[-81.03729686499997,-5.821472473999961],[-81.03852536499994,-5.82067772399995],[-81.03984373999998,-5.819337848999965],[-81.04063086499997,-5.818333973999927],[-81.04096486499998,-5.818044973999974],[-81.04168748999996,-5.817636723999954],[-81.04227348999996,-5.817111348999958],[-81.04280473999995,-5.81628909899996],[-81.04290623999998,-5.815990223999961],[-81.04315036499997,-5.815040973999942],[-81.04315036499997,-5.81494134899998],[-81.04317773999998,-5.813357473999929],[-81.04329473999996,-5.812279348999937],[-81.04388098999993,-5.810652348999952],[-81.04435936499993,-5.81025584899993],[-81.04539848999997,-5.809712973999979],[-81.04712498999999,-5.809232473999941],[-81.04744923999993,-5.809023473999957],[-81.05035736499997,-5.804474723999931],[-81.05118748999996,-5.802990223999927],[-81.05288686499995,-5.800419973999965],[-81.05550598999997,-5.796775348999972],[-81.05599998999998,-5.796242348999954],[-81.05648048999996,-5.795933598999966],[-81.05748448999998,-5.795652348999965],[-81.05784573999995,-5.795408223999971],[-81.05812511499994,-5.79512884899998],[-81.05829686499999,-5.794486348999953],[-81.05848636499996,-5.793679723999958],[-81.05863861499995,-5.793290973999945],[-81.05960548999997,-5.79255859899996],[-81.06101561499997,-5.791517598999974],[-81.06310936499995,-5.78962697399993],[-81.06459961499996,-5.788623098999949],[-81.06699411499994,-5.787878973999966],[-81.06723823999994,-5.787480473999949],[-81.06758011499994,-5.78628909899993],[-81.06778911499998,-5.785999973999935],[-81.06806836499999,-5.785818348999953],[-81.06844723999995,-5.785746098999937],[-81.07073436499996,-5.785835973999951],[-81.07148236499995,-5.786169973999961],[-81.07209961499996,-5.78690434899994],[-81.07262111499995,-5.787644473999933],[-81.07316411499994,-5.788115223999966],[-81.07401173999995,-5.788132848999965],[-81.07530473999998,-5.788025348999952],[-81.07577348999996,-5.788187473999926],[-81.07613473999999,-5.78874022399998],[-81.07626173999995,-5.788837848999947],[-81.07673048999999,-5.788892598999951],[-81.07771473999998,-5.788775348999934],[-81.07789648999994,-5.78885747399994],[-81.07816811499998,-5.789208973999962],[-81.07840236499999,-5.789353473999938],[-81.07934173999996,-5.789453098999957],[-81.08013673999994,-5.789624973999935],[-81.08068548999995,-5.790249973999948],[-81.08112111499997,-5.790583973999958],[-81.08125386499995,-5.790910098999973],[-81.08149223999999,-5.791189473999964],[-81.08149998999994,-5.791281223999931],[-81.08154486499996,-5.791353598999933],[-81.08164448999997,-5.791876973999933],[-81.08174411499994,-5.792001973999959],[-81.08197073999997,-5.791986348999956],[-81.08272848999997,-5.791650348999951],[-81.08314448999994,-5.791525348999926],[-81.08342386499999,-5.791542973999981],[-81.08362298999998,-5.791660098999955],[-81.08370511499999,-5.791876973999933],[-81.08366798999998,-5.792212848999952],[-81.08327148999996,-5.792818348999958],[-81.08314448999994,-5.793289098999935],[-81.08352348999995,-5.793976598999961],[-81.08411136499996,-5.794427723999945],[-81.08435348999996,-5.794771473999958],[-81.08453711499999,-5.79556834899995],[-81.08464448999996,-5.796871098999929],[-81.08434761499996,-5.798029348999933],[-81.08380473999995,-5.798978473999966],[-81.08344336499994,-5.800298848999944],[-81.08334573999997,-5.803601598999933],[-81.08322848999995,-5.803818348999926],[-81.08266798999995,-5.804398473999925],[-81.08259573999999,-5.804986348999932],[-81.08283986499998,-5.806369098999937],[-81.08417773999997,-5.809816348999959],[-81.08462886499996,-5.810359348999953],[-81.08502536499998,-5.811308598999972],[-81.08519736499994,-5.812240223999936],[-81.08544336499995,-5.815660098999956],[-81.08592186499999,-5.816990223999937],[-81.08781836499998,-5.820933598999943],[-81.09020311499995,-5.822996098999965],[-81.09051948999996,-5.823095723999927],[-81.09176761499998,-5.823212848999958],[-81.09224611499997,-5.823818348999964],[-81.09284161499994,-5.823999973999946],[-81.09324798999995,-5.824333973999956],[-81.09330273999996,-5.824515598999938],[-81.09326561499995,-5.824742223999976],[-81.09254673999999,-5.825816348999979],[-81.09240823999994,-5.826341848999959],[-81.09328711499995,-5.829164098999968],[-81.09356636499996,-5.830630848999931],[-81.09458598999998,-5.833263723999949],[-81.09602348999994,-5.835849473999929],[-81.09746098999995,-5.838173723999944],[-81.10012498999998,-5.841078098999958],[-81.10162498999995,-5.842415973999948],[-81.10262886499999,-5.84321284899994],[-81.10323236499994,-5.843447223999931],[-81.10499411499995,-5.843853473999957],[-81.10693748999995,-5.844623098999932],[-81.10867186499996,-5.844458973999963],[-81.10995511499993,-5.843998223999961],[-81.11053323999994,-5.843527348999942],[-81.11136323999995,-5.842306598999926],[-81.11208598999997,-5.841527348999932],[-81.11257423999996,-5.841121098999963],[-81.11312486499997,-5.840984348999939],[-81.11451561499996,-5.840902348999975],[-81.11622261499997,-5.840966848999926],[-81.11721673999995,-5.841318348999948],[-81.11800198999998,-5.841923848999954],[-81.11839061499995,-5.842095723999932],[-81.11955661499996,-5.842195348999951],[-81.12148048999995,-5.842177723999953],[-81.12236523999997,-5.842240223999966],[-81.12282598999997,-5.842421848999948],[-81.12351361499998,-5.84297259899995],[-81.12374798999997,-5.843361348999963],[-81.12374798999997,-5.843949223999971],[-81.12366011499995,-5.844193348999966],[-81.12319723999997,-5.844828223999968],[-81.12315236499995,-5.845396473999926],[-81.12361323999994,-5.848265598999944],[-81.12383998999996,-5.851050723999947],[-81.12419336499994,-5.85339447399997],[-81.12442786499997,-5.853982473999963],[-81.12578323999998,-5.856206973999974],[-81.12656048999997,-5.85749997399995],[-81.12738473999997,-5.859111348999932],[-81.12770898999997,-5.860404348999964],[-81.12771873999998,-5.861769473999971],[-81.12788086499995,-5.862800723999953],[-81.12805273999999,-5.863263723999978],[-81.12851361499997,-5.864464848999944],[-81.12868548999995,-5.864710848999948],[-81.13034761499995,-5.867052723999961],[-81.13038473999995,-5.867089723999925],[-81.13374611499995,-5.871185598999944],[-81.13466798999997,-5.872570348999943],[-81.13629473999998,-5.875220723999973],[-81.13833598999997,-5.877915973999961],[-81.13961911499996,-5.879244098999948],[-81.14088474,-5.880330098999934],[-81.14270111499997,-5.881324223999968],[-81.14321499,-5.881732598999974],[-81.14424611499999,-5.882871098999942],[-81.14600786499994,-5.885150348999957],[-81.14705661499994,-5.886652348999974],[-81.14723636499997,-5.886951223999972],[-81.14764448999995,-5.88761134899994],[-81.14928911499999,-5.88923047399993],[-81.14942573999997,-5.889591848999942],[-81.14939448999996,-5.890306598999928],[-81.14914448999997,-5.891066348999971],[-81.14886523999996,-5.89221484899997],[-81.14859373999997,-5.893011598999976],[-81.14795311499995,-5.894322098999965],[-81.14736523999994,-5.895744098999955],[-81.14672461499998,-5.896800723999945],[-81.14576761499995,-5.898783348999928],[-81.14564061499993,-5.899343723999948],[-81.14564061499993,-5.900156223999943],[-81.14523636499996,-5.901281223999945],[-81.14478511499993,-5.903560598999945],[-81.14533011499998,-5.907087848999936],[-81.14507423999999,-5.907740223999951],[-81.14469536499996,-5.909132848999946],[-81.14501173999997,-5.910208973999943],[-81.14552923999997,-5.91174609899997],[-81.14586123999999,-5.914005848999977],[-81.14610548999997,-5.915626973999963],[-81.14594536499999,-5.919445348999943],[-81.14591011499994,-5.921833973999981],[-81.14543161499995,-5.923398473999953],[-81.14556636499998,-5.926537098999972],[-81.14512498999994,-5.929333973999974],[-81.14497261499997,-5.931214848999957],[-81.14499023999997,-5.934408223999981],[-81.14528911499997,-5.935574223999936],[-81.14599423999994,-5.937347723999949],[-81.14669923999998,-5.938269473999981],[-81.14788286499999,-5.939472598999942],[-81.14818161499994,-5.939998098999979],[-81.14820898999994,-5.941509723999957],[-81.14788473999994,-5.943490223999959],[-81.14778523999996,-5.944890598999962],[-81.14813861499994,-5.945535098999926],[-81.14933011499994,-5.946863223999969],[-81.14955661499994,-5.947605473999943],[-81.14922261499999,-5.949749973999928],[-81.14921486499998,-5.951648473999967],[-81.14887298999997,-5.954453098999977],[-81.14598436499995,-5.963011723999955],[-81.14528911499997,-5.965562473999967],[-81.14513473999995,-5.96744334899995],[-81.14513673999994,-5.970322223999972],[-81.14519923999995,-5.970638723999969],[-81.14557036499997,-5.971453098999973],[-81.14770311499996,-5.972998098999938],[-81.14867973999998,-5.974384723999947],[-81.14875198999994,-5.974671848999947],[-81.14885936499996,-5.976906223999947],[-81.14946673999998,-5.978986348999968],[-81.14953911499998,-5.97944922399995],[-81.14925973999993,-5.981240223999976],[-81.14889848999997,-5.982578098999966],[-81.14843748999994,-5.983619098999952],[-81.14722848999997,-5.987337848999971],[-81.14578511499997,-5.991328098999929],[-81.14456448999994,-5.995199223999975],[-81.14357036499996,-5.99744334899998],[-81.14317386499994,-5.999279348999949],[-81.14294723999996,-6.000003848999938],[-81.14090823999999,-6.004998098999977],[-81.14035723999996,-6.006664098999977],[-81.13976948999994,-6.00801947399998],[-81.13859573999997,-6.010435598999948],[-81.13798048999996,-6.011302723999961],[-81.13757423999994,-6.012316348999946],[-81.13696873999999,-6.013599598999974],[-81.13644536499999,-6.014498223999965],[-81.13555073999999,-6.015792973999964],[-81.13535348999994,-6.016533223999943],[-81.13504486499994,-6.016884723999965],[-81.13481048999995,-6.017509723999979],[-81.13472261499999,-6.017591848999928],[-81.13428711499995,-6.018458973999941],[-81.13408786499997,-6.018568348999963],[-81.13366411499999,-6.01912109899996],[-81.13307611499994,-6.020242223999958],[-81.13251761499998,-6.021029348999946],[-81.13159573999997,-6.022847598999931],[-81.13132423999997,-6.023255848999952],[-81.13069136499996,-6.023906348999958],[-81.12978911499994,-6.025417973999936],[-81.12627348999996,-6.029552723999927],[-81.12532611499995,-6.030810598999949],[-81.12198436499995,-6.03454684899998],[-81.12143161499995,-6.035226598999941],[-81.11930073999997,-6.037371098999927],[-81.11791798999997,-6.039117223999938],[-81.11744923999998,-6.039876973999981],[-81.11728511499996,-6.040337848999968],[-81.11717773999999,-6.041259723999929],[-81.11721298999998,-6.04182222399993],[-81.11747661499999,-6.042617223999969],[-81.11747661499999,-6.043097598999964],[-81.11739448999998,-6.043394473999967],[-81.11719536499999,-6.04374809899997],[-81.11649036499995,-6.044652348999932],[-81.11599411499998,-6.045412098999975],[-81.11501948999995,-6.046617223999931],[-81.11404298999997,-6.04793747399998],[-81.11362698999994,-6.048841848999928],[-81.11322261499998,-6.050081973999966],[-81.11317573999997,-6.050759723999931],[-81.11327536499994,-6.051302723999925],[-81.11348436499998,-6.051574223999978],[-81.11438861499994,-6.052433598999926],[-81.11468548999994,-6.052966848999972],[-81.11485736499998,-6.053681598999958],[-81.11483986499996,-6.054585848999977],[-81.11476761499995,-6.05484759899997],[-81.11462298999999,-6.055095723999955],[-81.11397261499997,-6.055808598999931],[-81.11381636499993,-6.056296723999935],[-81.11352923999993,-6.056656223999937],[-81.11327923999994,-6.057599598999957],[-81.11245523999997,-6.059146473999931],[-81.11210348999998,-6.060621098999945],[-81.11149798999998,-6.061941348999937],[-81.11021486499999,-6.063605473999928],[-81.10903123999998,-6.064810598999941],[-81.10785736499997,-6.066320348999966],[-81.10721486499995,-6.067333848999965],[-81.10655661499999,-6.068158223999944],[-81.10588673999996,-6.068826223999963],[-81.10422473999995,-6.070238223999979],[-81.10370898999997,-6.071007848999955],[-81.10303123999995,-6.071839848999957],[-81.10237298999994,-6.072437598999954],[-81.10158599,-6.07328709899997],[-81.10083598999995,-6.073894473999928],[-81.09958986499998,-6.075296973999968],[-81.09801761499995,-6.076779348999935],[-81.09457423999999,-6.079531223999936],[-81.09375198999999,-6.080281223999975],[-81.09156636499995,-6.082027348999929],[-81.08679486499994,-6.085039098999971],[-81.08488861499995,-6.086037098999952],[-81.08454486499994,-6.08614447399998],[-81.08278323999997,-6.08735747399993],[-81.08179686499994,-6.088234348999947],[-81.08110161499997,-6.088769473999946],[-81.07915236499997,-6.08996284899996],[-81.07846298999993,-6.090326223999966],[-81.07677348999994,-6.09147459899998],[-81.07403511499996,-6.093066348999969],[-81.07301361499998,-6.09382622399994],[-81.07137886499999,-6.094832098999973],[-81.06915423999999,-6.096533223999927],[-81.06573048999996,-6.098468723999929],[-81.06416586499995,-6.099671848999947],[-81.06233198999996,-6.100839848999954],[-81.06133786499998,-6.10159959899994],[-81.06027148999993,-6.102130848999934],[-81.05973048999994,-6.102613223999981],[-81.05716411499998,-6.104431598999952],[-81.05566211499996,-6.105652348999968],[-81.05512111499996,-6.10598822399993],[-81.05395511499995,-6.10653122399998],[-81.05108011499993,-6.108576223999933],[-81.04939061499994,-6.10945309899995],[-81.04864061499995,-6.109931723999978],[-81.04774611499994,-6.110367223999958],[-81.04530661499996,-6.111941348999949],[-81.04151948999998,-6.114058598999975],[-81.03904298999998,-6.115705098999968],[-81.03699223999996,-6.116818348999971],[-81.03627736499999,-6.11730659899996],[-81.03150586499999,-6.119794973999944],[-81.03014061499994,-6.120626973999947],[-81.02894923999997,-6.12121684899995],[-81.02808011499997,-6.12154097399997],[-81.02465623999996,-6.123583973999928],[-81.02326361499996,-6.124236348999943],[-81.02157423999995,-6.125150348999966],[-81.01997461499997,-6.126171848999945],[-81.01908011499995,-6.126552723999964],[-81.01674798999994,-6.12772847399998],[-81.01503123999998,-6.128787098999965],[-81.01437111499996,-6.129076223999959],[-81.01277923999999,-6.129972598999927],[-81.01137886499998,-6.130640598999946],[-81.00856836499997,-6.132335973999943],[-81.00742961499998,-6.132857473999934],[-81.00229486499995,-6.136089848999973],[-81.00120111499996,-6.137074223999946],[-81.00034373999995,-6.137654348999945],[-80.99923436499995,-6.138324223999973],[-80.99658398999998,-6.139896473999954],[-80.99430661499997,-6.141371098999969],[-80.99361911499994,-6.141722598999934],[-80.99041986499998,-6.14364059899998],[-80.98775386499995,-6.145404348999932],[-80.98437298999994,-6.147232473999964],[-80.98405661499999,-6.147351598999933],[-80.98189648999994,-6.148697223999932],[-80.97919336499996,-6.150154348999934],[-80.97706048999999,-6.151664098999959],[-80.97096673999994,-6.155081973999927],[-80.96938673999995,-6.155970723999928],[-80.96767773999994,-6.15710159899993],[-80.96601561499995,-6.158095723999963],[-80.96454298999998,-6.158820348999939],[-80.96346673999994,-6.159425598999974],[-80.96338473999998,-6.159533223999972],[-80.96132423999995,-6.16093559899997],[-80.96060161499997,-6.161296848999939],[-80.95967973999996,-6.161876973999938],[-80.95856636499997,-6.162482473999944],[-80.95629886499995,-6.16390034899996],[-80.95605473999996,-6.163966723999977],[-80.95577348999996,-6.164191348999964],[-80.95354098999996,-6.165421848999927],[-80.95198636499998,-6.166544973999976],[-80.95035161499999,-6.16752159899994],[-80.94840623999994,-6.168560598999932],[-80.94648436499995,-6.169728473999953],[-80.94392186499994,-6.171419973999946],[-80.94365236499993,-6.171527348999973],[-80.94123048999995,-6.173039098999936],[-80.94032624,-6.173507723999933],[-80.93746873999999,-6.175408223999966],[-80.93683598999996,-6.175734348999981],[-80.93577923999999,-6.176420098999927],[-80.93550786499998,-6.176519473999974],[-80.93426948999996,-6.177406223999981],[-80.93069723999997,-6.17947847399995],[-80.93007423999995,-6.179929723999976],[-80.92832036499993,-6.180960973999959],[-80.92638673999994,-6.182353598999953],[-80.92520898999999,-6.183095723999941],[-80.923277365,-6.184162098999934],[-80.92254486499996,-6.184697223999933],[-80.91853123999994,-6.187228473999937],[-80.91654298999998,-6.188730473999954],[-80.91506836499997,-6.189544973999944],[-80.91396673999998,-6.190077973999962],[-80.91313473999998,-6.190584098999977],[-80.91068361499998,-6.192330098999946],[-80.90806248999996,-6.193966848999935],[-80.90617386499997,-6.195232473999965],[-80.90330661499996,-6.197394473999964],[-80.90169923999997,-6.198525348999965],[-80.90077523999997,-6.199275348999947],[-80.89819136499995,-6.200894473999938],[-80.89689836499997,-6.201861473999941],[-80.89537886499994,-6.202882848999934],[-80.89453911499999,-6.203345723999973],[-80.89341798999999,-6.204222598999934],[-80.89200798999997,-6.205181598999957],[-80.88947461499998,-6.207162098999959],[-80.88462886499997,-6.210634723999931],[-80.88328911499997,-6.211746098999981],[-80.88117573999995,-6.213248098999941],[-80.87978323999994,-6.21435159899994],[-80.87697261499994,-6.216285098999947],[-80.87393548999995,-6.218708973999981],[-80.87176361499996,-6.220591848999959],[-80.86788473999997,-6.223720723999975],[-80.86566211499996,-6.225040973999967],[-80.86327348999998,-6.227228473999958],[-80.86108598999994,-6.228847598999948],[-80.85742386499999,-6.232193473999928],[-80.85608598999994,-6.233685598999955],[-80.85507223999997,-6.234689473999936],[-80.85265036499999,-6.236470723999957],[-80.84808198999997,-6.240359348999959],[-80.84628498999996,-6.242095723999967],[-80.84386911499996,-6.244220723999945],[-80.84205273999999,-6.246029348999969],[-80.83996286499996,-6.247830098999941],[-80.83905861499994,-6.248716848999948],[-80.83867973999998,-6.249167973999931],[-80.83744923999996,-6.250244098999929],[-80.83634573999996,-6.251429723999934],[-80.83451948999993,-6.252947223999968],[-80.83176174,-6.255624973999943],[-80.83127348999994,-6.256275348999964],[-80.83008011499999,-6.257396473999961],[-80.829808615,-6.257720723999967],[-80.82874998999995,-6.258644473999937],[-80.82699611499999,-6.260390598999948],[-80.82605473999996,-6.26118559899993],[-80.82399411499995,-6.263238223999963],[-80.82333986499998,-6.263818348999962],[-80.82250198999998,-6.264802723999935],[-80.81870311499995,-6.268531223999958],[-80.81719336499998,-6.270193348999953],[-80.81524023999998,-6.272146598999939],[-80.81412498999998,-6.273451223999928],[-80.81334961499994,-6.274552598999946],[-80.81300586499998,-6.274824223999929],[-80.81243548999998,-6.275484348999953],[-80.81141411499993,-6.276505848999932],[-80.81032036499994,-6.277455098999951],[-80.80901761499996,-6.27871284899993],[-80.80743361499998,-6.280412098999932],[-80.80395298999997,-6.283820348999939],[-80.80146486499996,-6.286072223999952],[-80.79791986499998,-6.288984348999975],[-80.79343548999998,-6.292419973999927],[-80.78785548999997,-6.296189473999959],[-80.78692386499995,-6.296931598999947],[-80.78447261499997,-6.298474598999974],[-80.78380473999994,-6.298964848999958],[-80.78260161499998,-6.299640598999929],[-80.78116411499997,-6.30056634999994],[-80.77911136499995,-6.301759724999954],[-80.77801561499996,-6.302238349999925],[-80.77501361499998,-6.303837849999979],[-80.77315036499994,-6.304660099999978],[-80.77094536499999,-6.305771474999972],[-80.77043748999995,-6.306080099999974],[-80.76994923999996,-6.306259724999961],[-80.76828511499997,-6.30708197499996],[-80.76671286499999,-6.30769722499997],[-80.76435161499995,-6.308898474999978],[-80.76134173999998,-6.310181599999964],[-80.75992386499996,-6.310878849999938],[-80.75691011499998,-6.312152474999948],[-80.75377148999996,-6.313199224999948],[-80.75315823999995,-6.313480474999949],[-80.75192773999999,-6.313896474999979],[-80.75045311499997,-6.314537099999939],[-80.74688086499998,-6.315828099999976],[-80.74431448999997,-6.316570349999949],[-80.73942186499994,-6.318609349999974],[-80.73780273999995,-6.319127099999946],[-80.73763086499997,-6.319244099999935],[-80.73555073999995,-6.319956849999926],[-80.73407611499994,-6.32059959999998],[-80.73216798999994,-6.321267599999942],[-80.73001761499995,-6.322162099999957],[-80.72731248999997,-6.323037099999965],[-80.72288086499998,-6.324826224999981],[-80.72018748999994,-6.326074224999957],[-80.71801561499996,-6.326877099999933],[-80.71711136499994,-6.327310599999976],[-80.71613473999997,-6.327681599999949],[-80.71507811499998,-6.327998099999945],[-80.71285348999999,-6.328964849999977],[-80.71188473999996,-6.329289099999926],[-80.70994923999996,-6.33010347499993],[-80.70897261499994,-6.330589849999967],[-80.70764261499994,-6.331386724999959],[-80.69979298999993,-6.335017599999958],[-80.69767773999996,-6.336093724999955],[-80.69513473999996,-6.33724022499996],[-80.69357036499997,-6.337865224999973],[-80.69121098999995,-6.339083974999937],[-80.68802923999993,-6.340474599999936],[-80.68724998999994,-6.340925724999977],[-80.68134373999999,-6.343773474999978],[-80.67719136499994,-6.345976599999972],[-80.67395311499996,-6.347593724999967],[-80.67142186499996,-6.348687474999963],[-80.67096098999997,-6.348976599999958],[-80.66911723999993,-6.349843724999971],[-80.66703511499998,-6.350972599999977],[-80.66542573999999,-6.351687474999949],[-80.66373436499998,-6.352609349999966],[-80.66265823999998,-6.353195349999964],[-80.65993548999995,-6.354496099999949],[-80.65752923999997,-6.355915974999959],[-80.65638086499996,-6.356474599999956],[-80.65485161499998,-6.357396599999959],[-80.65264448999994,-6.358634724999945],[-80.65014848999994,-6.359853474999966],[-80.64802148999996,-6.361029474999953],[-80.64793161499995,-6.361087849999933],[-80.64682811499995,-6.361824224999964],[-80.64507423999999,-6.362835974999939],[-80.64322848999996,-6.363775349999969],[-80.637546865,-6.366919974999973],[-80.63497073999997,-6.36820309999996],[-80.63404686499996,-6.368716849999942],[-80.63127923999997,-6.370044974999928],[-80.62989648999996,-6.370785099999978],[-80.62943361499998,-6.370968724999955],[-80.62776948999993,-6.371806599999957],[-80.62713286499996,-6.372080099999948],[-80.62705861499995,-6.371869099999969],[-80.62699998999994,-6.371749974999943],[-80.62684173999997,-6.371425724999938],[-80.62006836499995,-6.361654349999981],[-80.61748436499994,-6.357923849999963],[-80.60742973999999,-6.343415974999971],[-80.60741986499994,-6.343423849999965],[-80.60740823999998,-6.343431599999974],[-80.59990236499993,-6.332658224999932],[-80.59613473999997,-6.327246099999968],[-80.59474611499996,-6.325253849999967],[-80.59423236499998,-6.324496099999976],[-80.58544923999995,-6.311587849999967],[-80.57633198999997,-6.29853709899993],[-80.57429686499995,-6.295623098999954],[-80.57202736499994,-6.292374973999927],[-80.56712698999996,-6.285148473999925],[-80.55854298999998,-6.272488223999972],[-80.55562111499995,-6.268406098999947],[-80.54583398999995,-6.254734348999932],[-80.53519923999994,-6.238962848999961],[-80.53254686499997,-6.235029348999944],[-80.53149798999993,-6.233472598999981],[-80.52791411499999,-6.22835159899995],[-80.52788861499994,-6.228314473999944],[-80.51937698999996,-6.216156223999974],[-80.50273236399994,-6.192394473999968],[-80.49769536399998,-6.184255848999953],[-80.49648048899996,-6.182292973999949],[-80.49614461399995,-6.181814473999964],[-80.48089448899998,-6.160070348999966],[-80.46819536399994,-6.141408223999974],[-80.46021098899996,-6.129765598999938],[-80.45231448899995,-6.119015598999965],[-80.37621873899997,-6.006968723999933],[-80.37174798899997,-6.00126172399996],[-80.36976761399995,-5.998689473999946],[-80.368548864,-5.996634723999932],[-80.36763673899998,-5.996179723999944],[-80.36649411399998,-5.995646473999955],[-80.36512698899998,-5.995191348999981],[-80.36360736399996,-5.994431598999938],[-80.36231636399998,-5.993441473999951],[-80.36124998899999,-5.992452973999946],[-80.36026173899995,-5.991388723999933],[-80.35942573899996,-5.990628848999961],[-80.35836323899997,-5.989564473999963],[-80.35706836399999,-5.988423848999957],[-80.35623048899998,-5.987665973999981],[-80.35524223899995,-5.986826223999969],[-80.35455861399998,-5.985914098999956],[-80.35387498899996,-5.984392598999932],[-80.35343548899993,-5.983265598999935],[-80.35334173899997,-5.983025348999945],[-80.35281048899998,-5.981580098999927],[-80.35235348899994,-5.979222598999968],[-80.35204686399999,-5.977322223999977],[-80.35154686399994,-5.974201223999955],[-80.35007223899999,-5.971544973999926],[-80.34901361399994,-5.970343723999974],[-80.34769536399995,-5.969165973999964],[-80.34549023899996,-5.96719722399996],[-80.34136911399997,-5.962562473999981],[-80.338970739,-5.95915034899997],[-80.33471286399998,-5.95390434899997],[-80.32741411399996,-5.947441348999973],[-80.32117973899994,-5.943259723999972],[-80.31159961399999,-5.937728473999925],[-80.30794536399998,-5.935277348999932],[-80.29175386399999,-5.925998098999969],[-80.27875198899994,-5.919992223999941],[-80.26962698899996,-5.917027348999966],[-80.26582611399994,-5.916341723999949],[-80.26042573899997,-5.91527734899995],[-80.25517973899997,-5.914441348999958],[-80.25145511399995,-5.913148473999968],[-80.25029686399995,-5.912822223999967],[-80.24767186399998,-5.912080098999979],[-80.24149411399998,-5.910335973999963],[-80.23667961399997,-5.909171848999961],[-80.23046873899995,-5.907673848999934],[-80.21731448899999,-5.903873098999952],[-80.21480473899999,-5.902808598999968],[-80.21115623899993,-5.901363223999965],[-80.20469336399998,-5.898093723999978],[-80.20134761399999,-5.894747973999927],[-80.198914114,-5.892999973999963],[-80.19617773899995,-5.89208784899995],[-80.19245111399994,-5.891904348999958],[-80.18598823899998,-5.892466848999959],[-80.18279486399996,-5.892771348999929],[-80.17412698899994,-5.892771348999929],[-80.16667573899997,-5.892390598999953],[-80.15694336399997,-5.890794973999959],[-80.14987111399995,-5.889343723999957],[-80.14500586399998,-5.888742223999941],[-80.14036723899994,-5.888361223999937],[-80.13086323899995,-5.888665973999935],[-80.12384761399994,-5.891310598999951],[-80.12406048899999,-5.888236348999953],[-80.12395511399995,-5.886736348999932],[-80.12365823899995,-5.885187473999963],[-80.12199611399996,-5.880472598999972],[-80.12173436399996,-5.879503848999946],[-80.12156636399999,-5.877630848999956],[-80.12163086399994,-5.876591848999965],[-80.12155861399998,-5.876121223999974],[-80.12139648899995,-5.875755848999972],[-80.12080273899994,-5.874781223999946],[-80.12036323899997,-5.872570348999943],[-80.12010161399996,-5.872218723999936],[-80.11983986399997,-5.872056598999961],[-80.11859373899995,-5.871611348999977],[-80.11594923899997,-5.871236348999957],[-80.11466798899994,-5.870818348999933],[-80.11242973899994,-5.868769473999976],[-80.11177923899999,-5.868298848999927],[-80.11111323899996,-5.868052723999938],[-80.11014648899999,-5.867798848999939],[-80.10930661399993,-5.867744098999935],[-80.10805073899996,-5.867867223999951],[-80.10696673899997,-5.867857473999948],[-80.10639861399994,-5.867683598999974],[-80.10607223899996,-5.867449223999927],[-80.10543361399994,-5.866552723999973],[-80.10512698899998,-5.865748098999973],[-80.10461323899995,-5.864869098999975],[-80.10298236399996,-5.862781223999946],[-80.10171673899998,-5.861724598999956],[-80.100925739,-5.860458973999926],[-80.09897461399999,-5.859193348999952],[-80.09728511399999,-5.85782222399996],[-80.09654686399995,-5.85602734899993],[-80.09618361399998,-5.854687473999945],[-80.09578711399996,-5.854117223999936],[-80.09513861399995,-5.853482473999975],[-80.09473236399998,-5.853203098999927],[-80.09430861399994,-5.85306634899996],[-80.09346873899995,-5.852929723999978],[-80.09310736399993,-5.852728473999946],[-80.09275586399997,-5.852394473999937],[-80.09195311399998,-5.851289098999928],[-80.09153911399994,-5.850853473999962],[-80.09134961399997,-5.850519473999952],[-80.09090823899999,-5.849433598999951],[-80.09071098899994,-5.848601598999949],[-80.09006448899999,-5.847070348999978],[-80.08953323899993,-5.846173848999968],[-80.08877536399996,-5.845331973999976],[-80.08689073899995,-5.843701223999972],[-80.08632223899997,-5.842587848999926],[-80.08605273899997,-5.842206973999964],[-80.08566411399994,-5.841880848999949],[-80.08452736399994,-5.84121872399993],[-80.08394136399994,-5.840738223999949],[-80.08329298899997,-5.839869098999941],[-80.08274223899997,-5.838810598999942],[-80.08185161399996,-5.837488223999969],[-80.08099611399996,-5.836355473999959],[-80.07999411399999,-5.835304723999968],[-80.07923636399994,-5.834878848999949],[-80.07871286399995,-5.834769473999927],[-80.07704098899995,-5.834746098999972],[-80.07677923899996,-5.834658223999952],[-80.07636523899998,-5.834257848999925],[-80.07622073899995,-5.833941348999929],[-80.07588861399995,-5.832394473999955],[-80.07530273899994,-5.83149809899993],[-80.07458198899997,-5.830927723999935],[-80.07371286399996,-5.830499973999963],[-80.07275973899993,-5.829882848999944],[-80.06972848899994,-5.827611348999937],[-80.06918748899994,-5.826937473999976],[-80.06894536399994,-5.826394473999926],[-80.06871098899995,-5.825544973999968],[-80.06817973899996,-5.824675723999974],[-80.06691598899994,-5.823109348999935],[-80.06577348899998,-5.821857473999955],[-80.06527736399994,-5.82144134899994],[-80.06466211399999,-5.821050723999974],[-80.063011739,-5.82038872399994],[-80.06159373899999,-5.820042973999932],[-80.05989648899998,-5.819939473999966],[-80.05907423899998,-5.819369098999971],[-80.05818161399998,-5.819095723999965],[-80.05779298899995,-5.81880659899997],[-80.05755073899996,-5.818361348999929],[-80.05752348899995,-5.817792973999929],[-80.05741598899994,-5.81749409899993],[-80.05710936399998,-5.81721284899993],[-80.05638861399996,-5.816839848999962],[-80.05599998899999,-5.816351598999972],[-80.05583798899994,-5.815980473999957],[-80.05565048899996,-5.815003973999978],[-80.05536136399996,-5.814478473999941],[-80.05464061399994,-5.813681598999949],[-80.05437111399993,-5.813183598999956],[-80.05298436399994,-5.811244098999964],[-80.05626948899999,-5.810074223999948],[-80.06319336399997,-5.807904348999955],[-80.06910936399998,-5.805371098999956],[-80.07504098899994,-5.803400348999958],[-80.07779486399994,-5.803150348999964],[-80.07971286499998,-5.802314473999957],[-80.08780473899998,-5.797310598999957],[-80.09236894099996,-5.79509126499994]]]}}]}
