{"type":"FeatureCollection","features":[{"type":"Feature","id":"StatisticsCanada:2021:CD:5901","properties":{"id":"StatisticsCanada:2021:CD:5901","source_property":"CDUID","source_value":"5901"},"geometry":null},{"type":"Feature","id":"StatisticsCanada:2021:CD:5933","properties":{"id":"StatisticsCanada:2021:CD:5933","source_property":"CDUID","source_value":"5933"},"geometry":null},{"type":"Feature","id":"StatisticsCanada:2021:CD:5939","properties":{"id":"StatisticsCanada:2021:CD:5939","source_property":"CDUID","source_value":"5939"},"geometry":null},{"type":"Feature","id":"StatisticsCanada:2021:CD:5941","properties":{"id":"StatisticsCanada:2021:CD:5941","source_property":"CDUID","source_value":"5941"},"geometry":null},{"type":"Feature","id":"StatisticsCanada:2021:CD:5949","properties":{"id":"StatisticsCanada:2021:CD:5949","source_property":"CDUID","source_value":"5949"},"geometry":null},{"type":"Feature","id":"StatisticsCanada:2021:CD:5951","properties":{"id":"StatisticsCanada:2021:CD:5951","source_property":"CDUID","source_value":"5951"},"geometry":null},{"type":"Feature","id":"StatisticsCanada:2021:CD:5953","properties":{"id":"StatisticsCanada:2021:CD:5953","source_property":"CDUID","source_value":"5953"},"geometry":null},{"type":"Feature","id":"StatisticsCanada:2021:CD:5955","properties":{"id":"StatisticsCanada:2021:CD:5955","source_property":"CDUID","source_value":"5955"},"geometry":null},{"type":"Feature","id":"StatisticsCanada:2021:CD:5957","properties":{"id":"StatisticsCanada:2021:CD:5957","source_property":"CDUID","source_value":"5957"},"geometry":null},{"type":"Feature","id":"StatisticsCanada:2021:CD:5959","properties":{"id":"StatisticsCanada:2021:CD:5959","source_property":"CDUID","source_value":"5959"},"geometry":null}]}
