{"type":"FeatureCollection","name":"geoBoundaries USA ADM2 exact selected features","crs":{"type":"name","properties":{"name":"urn:ogc:def:crs:OGC:1.3:CRS84"}},"features":[{"type":"Feature","properties":{"shapeName":"Matanuska-Susitna","shapeISO":"","shapeID":"52423323B34523976645917","shapeGroup":"USA","shapeType":"ADM2"},"geometry":{"type":"Polygon","coordinates":[[[-152.99990511499996,61.426173117000076],[-152.13266914399998,61.42620825900008],[-151.33280716599998,61.42624039000003],[-151.33282504399997,61.252937401000054],[-150.97403705199997,61.252941460000045],[-150.97403424999996,61.19165981600008],[-150.96013701099997,61.19403846600005],[-150.95117601399997,61.198779467000065],[-150.94744801699997,61.20314146800007],[-150.94717801999997,61.20630046800005],[-150.94626602099996,61.20864546800004],[-150.94196702199997,61.20994846800005],[-150.93927402299997,61.21030046900006],[-150.92679601999998,61.20635247100006],[-150.89592802199996,61.20891647600007],[-150.84886503199996,61.22058948300008],[-150.84243303399998,61.22421448300008],[-150.82731803799996,61.22839148600008],[-150.71131405599996,61.25109050300006],[-150.69052006199996,61.25929850600005],[-150.67992506699997,61.265889507000054],[-150.67127307199996,61.27365350800005],[-150.66264308799998,61.29535750800005],[-150.65582708999997,61.298174509000035],[-150.64624408899996,61.296690511000065],[-150.62848208099996,61.28440851400006],[-150.60698407599997,61.27773351800005],[-150.59186507799998,61.27948652100008],[-150.59018907899997,61.28148852100003],[-150.56169307999997,61.28148852500004],[-150.52410999499998,61.26425288900003],[-150.49574905999998,61.25124653800003],[-150.48441405699998,61.24726354000006],[-150.46883505599996,61.24462854300003],[-150.42502305699998,61.24555355000007],[-150.39443405999998,61.24910855500008],[-150.33459906199997,61.25130256400007],[-150.31224906499997,61.254030568000076],[-150.30366206599996,61.255872569000076],[-150.30371106699997,61.25746856900008],[-150.28700106799997,61.257444572000054],[-150.27359806399997,61.25156057400005],[-150.26614706399997,61.25123857600005],[-150.25431906599997,61.25450257700004],[-150.20491706999996,61.25954958500006],[-150.13265706999996,61.257916597000076],[-150.07481606799996,61.25350160700003],[-149.98589705799998,61.237516622000044],[-149.91970507699997,61.26347163100007],[-149.91832311899998,61.32347462800004],[-149.89823913999996,61.35271662900004],[-149.87687516299997,61.38434863100008],[-149.80834717199997,61.39576964100007],[-149.76799120299998,61.43834464500003],[-149.72649321399996,61.45382865100004],[-149.61468824399998,61.49323866600008],[-149.61460109899997,61.49323473600003],[-149.54279924199997,61.48999667800007],[-149.47902922699998,61.46810569000007],[-149.43144022799996,61.468105698000045],[-149.43142991299996,61.467992269000035],[-149.35946323999997,61.484026709000034],[-149.24047224099996,61.48402672800006],[-149.24041821999998,61.45514373000003],[-149.18006421999996,61.455141740000045],[-149.18008519999998,61.426251742000034],[-148.48307020299998,61.42627085600003],[-148.46249420299998,61.42626886000005],[-148.05033220199996,61.42626792700008],[-147.20662019799997,61.42626706600004],[-147.20662822899996,61.47066506300007],[-146.94258222699997,61.47067710600004],[-146.94262447899996,61.817274087000044],[-146.96097547899998,61.817274084000076],[-146.96100173899998,62.16385406400008],[-146.97983473899998,62.16385406100005],[-146.97983080499998,62.25049905600008],[-146.42400779799996,62.25051314800004],[-146.43690799899997,62.51045513100007],[-146.43692327399998,62.856993112000055],[-146.45015027399998,62.85699310900003],[-146.45015835599997,62.95786610400006],[-146.49432035699996,62.95786609600003],[-146.49433552999997,63.16897708400006],[-146.48455653899998,63.18043008500007],[-146.48956579199998,63.48291506700008],[-146.99999079599996,63.47964698000004],[-146.99999079399996,63.47761998000004],[-147.11588879499996,63.477618961000076],[-148.02565179999996,63.47761080600003],[-148.02564267899996,63.33323481500008],[-148.31185667899996,63.33322376700005],[-149.11677367499996,63.33322363100007],[-149.52617267199997,63.33321856200007],[-150.26173952299996,63.16697344900007],[-150.72094042899997,63.06318537800007],[-151.27124031499997,62.938817295000035],[-151.89403918499997,62.79805920000007],[-151.89380812799996,62.72586520600004],[-152.15528511899998,62.72585716200007],[-152.93909709099998,62.72583503100003],[-152.99767108999998,62.727402021000046],[-153.00153008999996,62.72744202100006],[-153.00162408299997,62.71866202100006],[-152.99986275199998,62.29262205300006],[-152.99990039699998,61.816875089000064],[-152.99990511499996,61.426173117000076]]]}},{"type":"Feature","properties":{"shapeName":"Denali","shapeISO":"","shapeID":"52423323B25289890288494","shapeGroup":"USA","shapeType":"ADM2"},"geometry":{"type":"Polygon","coordinates":[[[-148.04672156299998,64.34380374900007],[-148.65736056199998,64.34379064400008],[-149.13262455899996,64.34377956200007],[-149.13267857199997,64.35821556100007],[-149.98241856199996,64.35818441600003],[-150.72941054699996,64.35817428800004],[-150.95062341099998,64.21370226000005],[-151.28202020899997,63.99726621800005],[-151.40765020599997,63.997262197000055],[-151.43301921499997,64.00780719200003],[-151.51635822399996,64.02063217700004],[-151.48968524599996,64.04461018000006],[-151.54051424899998,64.05044917100008],[-151.56492625299998,64.05500116600007],[-151.56492826499996,64.06943716500007],[-151.72978325999998,64.06943213700004],[-151.77609326199996,64.07317212900006],[-151.79400125799998,64.06943112600004],[-151.82690123199998,64.04055712300004],[-151.85975921199997,64.01890211800003],[-151.83056019299997,63.99724912500005],[-152.04746918599997,63.99724308800006],[-152.05515703399996,63.82400709900003],[-152.22928102799997,63.82400207000006],[-152.22846387899997,63.65076108300008],[-152.87343485499997,63.650745974000074],[-152.87341670799998,63.47750098600005],[-152.81096970999997,63.47750199700005],[-152.81095560099996,63.347564007000074],[-152.61954160799996,63.347569039000064],[-152.61953657199996,63.30425504200008],[-152.42812257899996,63.30426007400007],[-152.42810847899997,63.183172083000045],[-152.68017830599996,62.98146305600005],[-152.99767108999998,62.727402021000046],[-152.93909709099998,62.72583503100003],[-152.15528511899998,62.72585716200007],[-151.89380812799996,62.72586520600004],[-151.89403918499997,62.79805920000007],[-151.27124031499997,62.938817295000035],[-150.72094042899997,63.06318537800007],[-150.26173952299996,63.16697344900007],[-149.52617267199997,63.33321856200007],[-149.11677367499996,63.33322363100007],[-148.31185667899996,63.33322376700005],[-148.02564267899996,63.33323481500008],[-148.02565179999996,63.47761080600003],[-147.11588879499996,63.477618961000076],[-146.99999079399996,63.47761998000004],[-146.99999079599996,63.47964698000004],[-146.99995212399998,63.85975695800005],[-146.99993447799997,64.25719793400003],[-147.75922548399998,64.25720180400003],[-147.77950448499996,64.25903080000006],[-147.82049050599997,64.28120579200004],[-147.86844951199998,64.28762878300006],[-147.89432452899996,64.30632577700004],[-147.92528053399997,64.31231477200004],[-147.93110554299997,64.32202777000003],[-147.95886754499998,64.32452976500008],[-148.00324556599998,64.34662975600003],[-148.04672156299998,64.34380374900007]]]}}]}
