{"type":"FeatureCollection","name":"issue-1437-contact-subject-identity-registry","features":[{"type":"Feature","id":"gb:AGO:ADM2:16411231B14510444140190","properties":{"shapeName":"Dirico","shapeISO":"","shapeID":"16411231B14510444140190","shapeGroup":"AGO","shapeType":"ADM2","id":"gb:AGO:ADM2:16411231B14510444140190"},"geometry":{"type":"Polygon","coordinates":[[[19.911548615,-17.866895676],[19.912799835,-17.865879059],[19.919509888,-17.866262436],[19.95593071,-17.878753662],[19.967609406,-17.892549515],[19.970928192,-17.89349556],[19.997535706,-17.890146255],[20.016483307,-17.901531219],[20.02699852,-17.903570175],[20.038570404,-17.901039124],[20.059879303,-17.891340256],[20.083789825,-17.895469666],[20.099245071,-17.907930374],[20.10779953,-17.911781311],[20.114040375,-17.911907196],[20.121570587,-17.907699585],[20.128555298,-17.906461716],[20.153121948,-17.891340256],[20.164920807,-17.889280319],[20.170368195,-17.881580353],[20.183059692,-17.882757187],[20.192094803,-17.886842728],[20.201940536,-17.886348724],[20.215526581,-17.890752792],[20.221750259,-17.89109993],[20.227090836,-17.888679504],[20.233310699,-17.88927269],[20.240610123,-17.895843506],[20.248338699,-17.893465042],[20.252027512,-17.889169693],[20.253120422,-17.882757187],[20.25677681,-17.880313873],[20.260276794,-17.87348938],[20.267549515,-17.869955063],[20.276906967,-17.869907379],[20.288238525,-17.878627777],[20.291339874,-17.879606247],[20.294229507,-17.8789711],[20.301389694,-17.869239807],[20.309139252,-17.865709305],[20.316829681,-17.865169525],[20.326599121,-17.868339539],[20.335119247,-17.874019623],[20.349960327,-17.887388229],[20.369888306,-17.898565292],[20.373479843,-17.899089813],[20.37735939,-17.896869659],[20.389839172,-17.897109985],[20.393842697,-17.900623322],[20.402229309,-17.90124321],[20.409570694,-17.906200409],[20.417417526,-17.909339905],[20.439720154,-17.910209656],[20.453268051,-17.916660309],[20.458200455,-17.922260284],[20.463279724,-17.936199188],[20.472366333,-17.948236465],[20.481975555,-17.949356079],[20.493423462,-17.953220367],[20.503879547,-17.958898544],[20.514270782,-17.968259811],[20.535196304,-17.978700638],[20.547607422,-17.982574463],[20.566822052,-17.981964111],[20.581199646,-17.983110428],[20.59264946,-17.976360321],[20.596097946,-17.977804184],[20.605031967,-17.975206375],[20.610877991,-17.983348846],[20.614927292,-17.985029221],[20.617450714,-17.978410721],[20.619890213,-17.976610184],[20.634197235,-17.981687546],[20.646259308,-17.978450775],[20.657659531,-17.985309601],[20.67127037,-17.988990784],[20.678890228,-17.992570877],[20.687999725,-18.006498337],[20.705568314,-18.017139435],[20.709648132,-18.017440796],[20.715009689,-18.012931824],[20.72287941,-18.01581955],[20.730119705,-18.014110565],[20.742969513,-18.007200241],[20.750629425,-18.008249283],[20.753240585,-18.010360718],[20.752340317,-18.020219803],[20.754432678,-18.023929596],[20.761369705,-18.025430679],[20.769119263,-18.021879196],[20.782690048,-18.028541565],[20.796110153,-18.029680252],[20.812007904,-18.040735245],[20.818473816,-18.041757584],[20.837919235,-18.042081833],[20.847349167,-18.038553238],[20.859140396,-18.037139893],[20.868076324,-18.034292221],[20.869407654,-18.026737213],[20.864685059,-18.022068024],[20.870340347,-18.014579773],[20.870670319,-18.009300232],[20.878419876,-18.005519867],[20.891132355,-18.006185532],[20.893981934,-17.994060516],[20.8978405,-17.994329453],[20.928699493,-17.985580444],[20.936489105,-17.978340149],[20.94434166,-17.967435837],[20.98100853,-17.955085754],[21.000120163,-17.960859299],[21.033922195,-17.956460953],[21.037471771,-17.954715729],[21.050899506,-17.955608368],[21.058601379,-17.954345703],[21.06662941,-17.947349548],[21.071680069,-17.946960449],[21.102090836,-17.951320648],[21.107402802,-17.949789047],[21.117910385,-17.937772751],[21.122707367,-17.937610626],[21.131530762,-17.941408157],[21.137760162,-17.941959381],[21.14261055,-17.938589096],[21.150537491,-17.938474655],[21.156583786,-17.935348511],[21.16450119,-17.935461044],[21.178377151,-17.938419342],[21.185134888,-17.935985565],[21.203897476,-17.933038712],[21.219751358,-17.932115555],[21.229726791,-17.938913345],[21.241970062,-17.954929352],[21.258201599,-17.960670471],[21.268915176,-17.966787338],[21.275859833,-17.968032837],[21.279239655,-17.966239929],[21.285001755,-17.966550827],[21.29712677,-17.974523544],[21.308870316,-17.975599289],[21.322322845,-17.985149384],[21.338619232,-17.98625946],[21.356870651,-17.985549927],[21.367370605,-17.990272522],[21.375915527,-17.997709274],[21.37774086,-18.005077362],[21.381534576,-18.008792877],[21.407440186,-18.010009766],[21.41699791,-18.013788223],[21.427429199,-18.024000168],[21.433547974,-18.024074554],[21.760545731,-17.961832047],[21.760742188,-17.963106155],[21.762981415,-17.962678909],[21.754764557,-17.946317673],[21.749790192,-17.93129158],[21.744831085,-17.904016495],[21.684305191,-17.53976059],[21.677898407,-17.509456635],[21.667593002,-17.439119339],[21.6575737,-17.388246536],[21.643102646,-17.296520233],[21.633926392,-17.249271393],[21.632534027,-17.227594376],[21.627807617,-17.206193924],[21.616411209,-17.18506813],[21.595010757,-17.162273407],[21.548591614,-17.136148453],[21.49912262,-17.117256165],[21.474946976,-17.110313416],[21.356851578,-17.083097458],[21.334066391,-17.067268372],[21.33489418,-17.045326233],[21.33294487,-17.007001877],[21.298770905,-16.99533844],[21.276544571,-16.996452332],[21.251544952,-17.010061264],[21.23487854,-17.031169891],[21.212654114,-17.037279129],[21.090421677,-17.008405685],[21.064586639,-17.011184692],[21.015977859,-17.020353317],[20.993198395,-17.02230072],[20.968755722,-17.021469116],[20.946533203,-17.0225811],[20.921533585,-17.025917053],[20.828483582,-17.043701172],[20.805429459,-17.046480179],[20.72599411,-17.042324066],[20.700439453,-17.039548874],[20.651834488,-17.03011322],[20.624614716,-17.021781921],[20.524074554,-17.005962372],[20.476028442,-17.015132904],[20.447975159,-17.025133133],[20.363271713,-17.046527863],[20.311056137,-17.064306259],[20.259958267,-17.07708931],[20.210525513,-17.093757629],[20.187475204,-17.111810684],[20.167201996,-17.134307861],[20.14748764,-17.160692215],[20.118606567,-17.207075119],[20.106946945,-17.232349396],[20.090566635,-17.276506424],[20.091676712,-17.301778793],[20.083347321,-17.349546432],[20.053085327,-17.439525604],[20.043167114,-17.452362061],[20.03420639,-17.463968277],[20.009771347,-17.476743698],[19.983949661,-17.482021332],[19.915916443,-17.479248047],[19.891479492,-17.483694077],[19.866491318,-17.49036026],[19.819007874,-17.497308731],[19.725997925,-17.547037125],[19.703788757,-17.563985825],[19.69852066,-17.585653305],[19.698810577,-17.608150482],[19.704936981,-17.632871628],[19.716892242,-17.65564537],[19.733293533,-17.678142548],[19.756082535,-17.698976517],[19.806650162,-17.733707428],[19.829162598,-17.751771927],[19.854167938,-17.767618179],[19.877792358,-17.789876938],[19.911548615,-17.866895676]]]}},{"type":"Feature","id":"gb:AGO:ADM2:16411231B28551746118834","properties":{"shapeName":"Cuangar","shapeISO":"","shapeID":"16411231B28551746118834","shapeGroup":"AGO","shapeType":"ADM2","id":"gb:AGO:ADM2:16411231B28551746118834"},"geometry":{"type":"Polygon","coordinates":[[[18.854049683,-16.959472656],[18.845403671,-16.95898819],[18.822641373,-16.949270248],[18.799875259,-16.943441391],[18.702148438,-16.922348022],[18.614957809,-16.920972824],[18.570808411,-16.918479919],[18.558042526,-16.895706177],[18.56221962,-16.873210907],[18.562507629,-16.851823807],[18.560573578,-16.829883575],[18.555307388,-16.807941437],[18.554498672,-16.762672424],[18.559516907,-16.719064713],[18.5664711,-16.694623947],[18.570926666,-16.672124863],[18.572881699,-16.65073967],[18.567338943,-16.62963295],[18.553749084,-16.596580505],[18.505472183,-16.526037216],[18.492433548,-16.504655838],[18.418014526,-16.509662628],[18.342208862,-16.509950638],[18.318885803,-16.508840561],[18.296115875,-16.5038414],[18.271129608,-16.495235443],[18.22143364,-16.484132767],[18.197832108,-16.476911545],[18.172294617,-16.464971542],[18.127887726,-16.433311462],[18.107629776,-16.41053772],[18.092628479,-16.422481537],[18.047359467,-16.428596497],[18.024589539,-16.430265427],[18.000984192,-16.430547714],[17.951841354,-16.42165947],[17.927679062,-16.420553207],[17.903242111,-16.422222137],[17.829069138,-16.464170456],[17.827108383,-16.487501144],[17.842069626,-16.532218933],[17.848716736,-16.55777359],[17.867008209,-16.607210159],[17.870882034,-16.629152298],[17.847272873,-16.634429932],[17.824504852,-16.629713058],[17.751487732,-16.602497101],[17.727333069,-16.591947556],[17.695688248,-16.574174881],[17.680431366,-16.552232742],[17.622192383,-16.453912735],[17.585298538,-16.409471512],[17.432043076,-16.36643219],[17.418739319,-16.365261078],[17.41201973,-16.402267456],[17.396701813,-16.452821732],[17.386959076,-16.477819443],[17.365001678,-16.499210358],[17.33665657,-16.520877838],[17.317750931,-16.544485092],[17.311828613,-16.556926727],[17.307174683,-16.566709518],[17.29907608,-16.615873337],[17.292106628,-16.643093109],[17.282922745,-16.665035248],[17.260660172,-16.708368301],[17.233400345,-16.75169754],[17.22636795,-16.841964722],[17.221330643,-16.878627777],[17.220930099,-16.991662979],[17.303035736,-17.246292114],[17.274707794,-17.389974594],[17.647279739,-17.390193939],[17.999078751,-17.389968872],[17.999078751,-17.394748688],[18.18806076,-17.393627167],[18.21529007,-17.395069122],[18.326530457,-17.395580292],[18.353599548,-17.394468307],[18.361940384,-17.395620346],[18.394262314,-17.394870758],[18.407459259,-17.393161774],[18.422100067,-17.394010544],[18.432949066,-17.410812378],[18.449769974,-17.423488617],[18.455690384,-17.440200806],[18.461000443,-17.446329117],[18.470619202,-17.452358246],[18.472650528,-17.456329346],[18.473064423,-17.473108292],[18.474985123,-17.480287552],[18.47864151,-17.485677719],[18.485460281,-17.489555359],[18.494979858,-17.491445541],[18.498403549,-17.496601105],[18.503320694,-17.499959946],[18.511417389,-17.50135231],[18.518350601,-17.516719818],[18.525062561,-17.524032593],[18.534711838,-17.529369354],[18.53742981,-17.534280777],[18.540784836,-17.549301147],[18.546230316,-17.558879852],[18.548370361,-17.566749573],[18.561899185,-17.578180313],[18.565263748,-17.585624695],[18.569496155,-17.58804512],[18.598604202,-17.591880798],[18.605321884,-17.599199295],[18.609863281,-17.60713768],[18.616479874,-17.610084534],[18.614982605,-17.62727356],[18.618499756,-17.637252808],[18.624319077,-17.642929077],[18.627700806,-17.643997192],[18.66558075,-17.669660568],[18.684057236,-17.686889648],[18.699567795,-17.698297501],[18.730939865,-17.717449188],[18.738220215,-17.726819992],[18.74379158,-17.740526199],[18.754880905,-17.746349335],[18.760406494,-17.746051788],[18.768930435,-17.741695404],[18.775865555,-17.742349625],[18.778453827,-17.744028091],[18.784910202,-17.760290146],[18.790914536,-17.768037796],[18.803649902,-17.775289536],[18.825620651,-17.778190613],[18.836200714,-17.777339935],[18.841182709,-17.779319763],[18.843711853,-17.782829285],[18.842630386,-17.786939621],[18.843688965,-17.791557312],[18.847875595,-17.796039581],[18.85738945,-17.798599243],[18.866928101,-17.808511734],[18.871940613,-17.809570313],[18.877319336,-17.80603981],[18.882579803,-17.806409836],[18.898990631,-17.819267273],[18.910644531,-17.82280159],[18.925228119,-17.824350357],[18.948539734,-17.823137283],[18.962490082,-17.829950333],[18.974409103,-17.832569122],[18.98638916,-17.833120346],[18.993209839,-17.829629898],[19.028837204,-17.836618423],[19.061468124,-17.836439133],[19.082740784,-17.839450836],[19.107679367,-17.840011597],[19.116882324,-17.836313248],[19.119100571,-17.833839417],[19.124229431,-17.820167542],[19.131090164,-17.814119339],[19.140497208,-17.8120327],[19.164571762,-17.818311691],[19.171419144,-17.813646317],[19.192018509,-17.823360443],[19.208974838,-17.825637817],[19.222759247,-17.830810547],[19.228740692,-17.831199646],[19.232383728,-17.829679489],[19.238580704,-17.822490692],[19.244880676,-17.820121765],[19.249420166,-17.820699692],[19.257133484,-17.828241348],[19.26335907,-17.828630447],[19.269231796,-17.824409485],[19.274000168,-17.825450897],[19.292125702,-17.838310242],[19.297624588,-17.838909149],[19.303274155,-17.833999634],[19.307067871,-17.835697174],[19.311721802,-17.841100693],[19.31696701,-17.842151642],[19.323295593,-17.838859558],[19.330247879,-17.839035034],[19.333280563,-17.842325211],[19.333900452,-17.845504761],[19.333694458,-17.84188652],[19.330722809,-17.838567734],[19.323795319,-17.838384628],[19.320085526,-17.840322495],[19.311958313,-17.815231323],[19.298019409,-17.791482925],[19.275226593,-17.774873734],[19.252439499,-17.767665863],[19.227989197,-17.76266861],[19.203834534,-17.74659729],[19.163585663,-17.698360443],[19.146648407,-17.674509048],[19.134155273,-17.651763916],[19.053878784,-17.486049652],[19.046375275,-17.462169647],[19.042484283,-17.436065674],[19.043592453,-17.412185669],[19.053304672,-17.367198944],[19.044960022,-17.29665947],[19.048557281,-17.199733734],[19.0449543,-17.152519226],[19.048013687,-17.129190445],[19.049131393,-17.105861664],[19.04053688,-17.061981201],[19.027219772,-17.038654327],[19.003900528,-17.024776459],[18.951162338,-16.999515533],[18.927843094,-16.991466522],[18.874549866,-16.967592239],[18.852340698,-16.960653305],[18.854049683,-16.959472656]]]}},{"type":"Feature","id":"gb:AGO:ADM2:16411231B36562728226085","properties":{"shapeName":"Calai","shapeISO":"","shapeID":"16411231B36562728226085","shapeGroup":"AGO","shapeType":"ADM2","id":"gb:AGO:ADM2:16411231B36562728226085"},"geometry":{"type":"Polygon","coordinates":[[[19.333900452,-17.845504761],[19.331180573,-17.848932266],[19.323469162,-17.850120544],[19.320030212,-17.853250504],[19.324914932,-17.858886719],[19.330688477,-17.858341217],[19.337991714,-17.854387283],[19.347797394,-17.855550766],[19.353403091,-17.861200333],[19.357227325,-17.861530304],[19.359840393,-17.853780746],[19.362529755,-17.851779938],[19.370679855,-17.852210999],[19.389978409,-17.866239548],[19.404258728,-17.870723724],[19.411939621,-17.870681763],[19.421369553,-17.867921829],[19.435699463,-17.87033844],[19.44203949,-17.8665905],[19.449970245,-17.866090775],[19.45605278,-17.863021851],[19.459869385,-17.86356926],[19.467159271,-17.869260788],[19.474630356,-17.868059158],[19.485332489,-17.872001648],[19.494550705,-17.86784935],[19.499940872,-17.873039246],[19.503534317,-17.873121262],[19.505001068,-17.87200737],[19.504640579,-17.86741066],[19.506875992,-17.864473343],[19.511341095,-17.863567352],[19.54980278,-17.87257576],[19.569711685,-17.872739792],[19.579919815,-17.866510391],[19.596040726,-17.864528656],[19.606077194,-17.866109848],[19.61400795,-17.865570068],[19.623218536,-17.861160278],[19.646419525,-17.8542099],[19.661924362,-17.852718353],[19.676441193,-17.857414246],[19.683269501,-17.862630844],[19.689655304,-17.876094818],[19.703985214,-17.888593674],[19.708780289,-17.888929367],[19.712379456,-17.886579514],[19.711280823,-17.884790421],[19.704669952,-17.88192749],[19.704605103,-17.878803253],[19.707048416,-17.877498627],[19.712818146,-17.880752563],[19.721429825,-17.881639481],[19.72401619,-17.883991241],[19.728319168,-17.894199371],[19.734008789,-17.897312164],[19.736219406,-17.904939651],[19.742559433,-17.910829544],[19.749448776,-17.913738251],[19.757129669,-17.913679123],[19.763679504,-17.910844803],[19.767620087,-17.906570435],[19.771514893,-17.894481659],[19.777540207,-17.893239975],[19.781690598,-17.890569687],[19.790559769,-17.880659103],[19.797370911,-17.877140045],[19.815660477,-17.874559402],[19.82449913,-17.876127243],[19.850439072,-17.8852005],[19.875396729,-17.885288239],[19.89081955,-17.882408142],[19.911548615,-17.866895676],[19.877792358,-17.789876938],[19.854167938,-17.767618179],[19.829162598,-17.751771927],[19.806650162,-17.733707428],[19.756082535,-17.698976517],[19.733293533,-17.678142548],[19.716892242,-17.65564537],[19.704936981,-17.632871628],[19.698810577,-17.608150482],[19.69852066,-17.585653305],[19.703788757,-17.563985825],[19.725997925,-17.547037125],[19.819007874,-17.497308731],[19.866491318,-17.49036026],[19.891479492,-17.483694077],[19.915916443,-17.479248047],[19.983949661,-17.482021332],[20.009771347,-17.476743698],[20.03420639,-17.463968277],[20.043167114,-17.452362061],[20.031429291,-17.452857971],[20.017263412,-17.439250946],[19.995326996,-17.432031631],[19.98588562,-17.425367355],[19.982551575,-17.415647507],[19.973386765,-17.398431778],[19.964220047,-17.39232254],[19.939226151,-17.387882233],[19.933395386,-17.380384445],[19.933671951,-17.369276047],[19.930891037,-17.359834671],[19.907289505,-17.352617264],[19.894786835,-17.325124741],[19.882568359,-17.322904587],[19.871181488,-17.312631607],[19.862016678,-17.3070755],[19.849796295,-17.304855347],[19.838968277,-17.300136566],[19.826467514,-17.28569603],[19.816465378,-17.280145645],[19.792030334,-17.277093887],[19.783697128,-17.271539688],[19.751480103,-17.2596035],[19.742313385,-17.240163803],[19.742033005,-17.215726852],[19.737031937,-17.207395554],[19.727865219,-17.203229904],[19.712867737,-17.188789368],[19.71008873,-17.178516388],[19.705366135,-17.170185089],[19.685367584,-17.159633636],[19.650648117,-17.136867523],[19.635925293,-17.111318588],[19.61870575,-17.098825455],[19.616201401,-17.076885223],[19.611200333,-17.067167282],[19.604812622,-17.060501099],[19.582872391,-17.052728653],[19.573705673,-17.047174454],[19.561481476,-17.031068802],[19.552316666,-17.024961472],[19.521766663,-17.021909714],[19.509550095,-17.006637573],[19.500385284,-17.001083374],[19.487611771,-17.000253677],[19.476226807,-16.996643066],[19.455677032,-16.981370926],[19.426519394,-16.966100693],[19.403753281,-16.946107864],[19.390428543,-16.930833817],[19.38265419,-16.925279617],[19.370716095,-16.921672821],[19.350728989,-16.906400681],[19.329633713,-16.884185791],[19.32185936,-16.878633499],[19.30437851,-16.853916168],[19.286058426,-16.837816238],[19.266910553,-16.815044403],[19.250814438,-16.801160812],[19.242210388,-16.795608521],[19.232217789,-16.791444778],[19.208063126,-16.791172028],[19.196680069,-16.788953781],[19.186138153,-16.771181107],[19.177707672,-16.765544891],[19.109781265,-16.8022995],[19.087568283,-16.810359955],[19.065349579,-16.823696136],[19.042854309,-16.839809418],[18.94843483,-16.896759033],[18.854049683,-16.959472656],[18.852340698,-16.960653305],[18.874549866,-16.967592239],[18.927843094,-16.991466522],[18.951162338,-16.999515533],[19.003900528,-17.024776459],[19.027219772,-17.038654327],[19.04053688,-17.061981201],[19.049131393,-17.105861664],[19.048013687,-17.129190445],[19.0449543,-17.152519226],[19.048557281,-17.199733734],[19.044960022,-17.29665947],[19.053304672,-17.367198944],[19.043592453,-17.412185669],[19.042484283,-17.436065674],[19.046375275,-17.462169647],[19.053878784,-17.486049652],[19.134155273,-17.651763916],[19.146648407,-17.674509048],[19.163585663,-17.698360443],[19.203834534,-17.74659729],[19.227989197,-17.76266861],[19.252439499,-17.767665863],[19.275226593,-17.774873734],[19.298019409,-17.791482925],[19.311958313,-17.815231323],[19.320085526,-17.840322495],[19.323795319,-17.838384628],[19.330722809,-17.838567734],[19.333694458,-17.84188652],[19.333900452,-17.845504761]]]}},{"type":"Feature","id":"gb:NAM:ADM2:8085530B15355770078360","properties":{"shapeName":"Grootfontein","shapeISO":"","shapeID":"8085530B15355770078360","shapeGroup":"NAM","shapeType":"ADM2","id":"gb:NAM:ADM2:8085530B15355770078360"},"geometry":{"type":"Polygon","coordinates":[[[21.000120000011542,-17.96085999999197],[20.981009999988622,-17.955090000003125],[20.9443399999873,-17.967429999989708],[20.93648999999279,-17.9783400000015],[20.928699999989497,-17.985580000007776],[20.897839999990556,-17.99432999998682],[20.893979999993483,-17.99405999999728],[20.89113000000363,-18.006189999985526],[20.87841999999366,-18.00552000000609],[20.870670000003905,-18.009300000005187],[20.87033999999405,-18.014579999988218],[20.864689999987622,-18.02207000000637],[20.869410000013907,-18.026740000001173],[20.868079999985657,-18.034290000010532],[20.85913999998595,-18.03714000000038],[20.84734999999639,-18.038549999997503],[20.837919999990863,-18.04208000001383],[20.81846999999836,-18.04175999999281],[20.812009999994206,-18.04073999999675],[20.796109999995696,-18.029680000006937],[20.782689999992748,-18.028539999999357],[20.769120000011775,-18.021879999985703],[20.761369999992915,-18.025430000008797],[20.754430000000884,-18.02392999999576],[20.75234000000639,-18.020220000005807],[20.753239999990928,-18.01035999998568],[20.75062999999502,-18.008250000013522],[20.742969999992077,-18.007199999992753],[20.73011999999291,-18.014109999989177],[20.722879999986635,-18.01582000000055],[20.715010000014466,-18.01292999999716],[20.70965000000435,-18.017439999996004],[20.705569999991003,-18.01714000001086],[20.687999999994666,-18.00649999998861],[20.678890000010163,-17.992570000002175],[20.671269999991654,-17.98899000001258],[20.657659999997144,-17.98530999998913],[20.646260000008642,-17.97844999999508],[20.634200000000437,-17.981689999985992],[20.61989000000178,-17.97661000001246],[20.61744999999066,-17.978410000010644],[20.614930000010663,-17.985030000010756],[20.61087999999292,-17.98334999999499],[20.6050300000061,-17.97521000000417],[20.596099999995225,-17.977799999993312],[20.592650000005982,-17.976360000000586],[20.581199999986,-17.98311000000105],[20.566820000007304,-17.98196999999347],[20.547610000008735,-17.982569999992865],[20.53520000001301,-17.978700000006953],[20.51427000001424,-17.968259999994206],[20.503880000003864,-17.95889999999783],[20.49342000001345,-17.9532199999958],[20.48198000001141,-17.949359999998723],[20.472399999998764,-17.948280000011454],[20.46327999999632,-17.936199999996475],[20.458199999993685,-17.92225999999211],[20.453269999998174,-17.91665999998806],[20.43971999999487,-17.910210000001843],[20.41742000001252,-17.909340000012907],[20.416499999992105,-18.50059000001058],[20.415240000002104,-19.184559999994253],[20.99755,-19.183179999992735],[20.998829999996833,-18.3178799999878],[21.000120000011542,-17.96085999999197]]]}},{"type":"Feature","id":"gb:NAM:ADM2:8085530B25496891828693","properties":{"shapeName":"Berseba","shapeISO":"","shapeID":"8085530B25496891828693","shapeGroup":"NAM","shapeType":"ADM2","id":"gb:NAM:ADM2:8085530B25496891828693"},"geometry":{"type":"Polygon","coordinates":[[[19.458359999989646,-19.183569999993797],[19.47197000001326,-19.175400000007375],[19.47964999999387,-19.16635000001408],[19.480509999993973,-19.160330000013364],[19.48293999998716,-19.158510000008413],[19.484579999989386,-19.15312000000269],[19.49450999998955,-19.139120000007114],[19.50192999999856,-19.135069999989376],[19.51258999999847,-19.126149999996432],[19.517170000006466,-19.117709999991366],[19.53438999998618,-19.107099999993824],[19.5433900000062,-19.105190000002057],[19.556749999988842,-19.09917000000134],[19.56422999998906,-19.093920000013913],[19.575340000010346,-19.078739999997214],[19.581399999995504,-19.07724000001328],[19.59070000000067,-19.067689999996237],[19.60240999999225,-19.06562999999735],[19.615629999985703,-19.060259999998397],[19.622280000010527,-19.053010000003287],[19.65200000000188,-19.04973999998767],[19.65820999999416,-19.040329999988916],[19.663750000007003,-19.036900000006444],[19.67188999999782,-19.02661000000082],[19.683309999993092,-19.01730999999565],[19.688590000005224,-19.008360000007105],[19.71476999999142,-18.998430000006937],[19.72026000000189,-18.993660000007385],[19.72083000000568,-18.98837999999525],[19.719249999994666,-18.983039999991906],[19.71479999998703,-18.97659000000569],[19.70696999999929,-18.973830000002657],[19.702530000009595,-18.966589999996376],[19.703619999985698,-18.960840000014304],[19.720990000001642,-18.954969999991608],[19.72365,-18.951609999989177],[19.72239999999876,-18.947249999997457],[19.71739000000527,-18.943599999998714],[19.707569999998686,-18.94184000001407],[19.7015299999912,-18.937369999999664],[19.69333999999801,-18.935700000001834],[19.686430000001586,-18.92068999999903],[19.679050000006118,-18.91047000000255],[19.67066999999226,-18.904559999995417],[19.667019999993517,-18.899540000013094],[19.66691,-18.89298000000419],[19.67079000000378,-18.888760000001657],[19.67428000000657,-18.887270000006556],[19.68131000001451,-18.88717999999064],[19.684780000010527,-18.882420000009024],[19.68502000000446,-18.875960000004874],[19.681699999986467,-18.8679199999897],[19.683720000000925,-18.859869999985694],[19.696870000014332,-18.85133000000498],[19.709659999993182,-18.84695000000649],[19.71457000001103,-18.84249000001002],[19.71734999999173,-18.83686000001037],[19.7152500000084,-18.833320000005205],[19.705309999990295,-18.82539000001272],[19.702690000005553,-18.820849999989168],[19.702010000008176,-18.81565999999295],[19.70751000000748,-18.804999999993033],[19.705630000011315,-18.796189999993675],[19.698709999996954,-18.789140000008064],[19.68489000000411,-18.782340000005224],[19.678719999996265,-18.77439000000597],[19.67988999999945,-18.76144999999089],[19.684509999991878,-18.75542000000134],[19.688770000007953,-18.73673000000419],[19.683710000012088,-18.723999999987445],[19.685209999996022,-18.717969999997894],[19.696430000010896,-18.703149999986653],[19.69651999999771,-18.69471000001069],[19.69884999998614,-18.692279999988404],[19.736910000006922,-18.695630000002],[19.739930000010663,-18.6945699999924],[19.742469999997432,-18.68719999998577],[19.733130000007822,-18.67238000000363],[19.72299000000932,-18.663960000005336],[19.716940000013,-18.66260999999942],[19.713870000006885,-18.66349999999513],[19.708669999992726,-18.66172999999255],[19.70014999998968,-18.663860000000586],[19.693999999988613,-18.663819999987044],[19.684910000010877,-18.66094000000159],[19.683320000011026,-18.65749000001235],[19.684310000011486,-18.6489400000137],[19.694760000013066,-18.63302000000842],[19.69821000000231,-18.603899999987352],[19.71153999998935,-18.589630000002234],[19.71213999998874,-18.585300000006118],[19.710229999996972,-18.582410000002728],[19.709210000000912,-18.57519000000322],[19.70996000000743,-18.56653000001099],[19.705329999997065,-18.565200000011846],[19.500250000011892,-18.178210000012786],[19.500460000010225,-18.002479999995572],[19.709399999992474,-18.001649999991077],[19.70877999998631,-17.88892999998645],[19.70399000000909,-17.888589999987758],[19.68966000000366,-17.876090000005224],[19.68327000000865,-17.86262999998873],[19.676440000010206,-17.857409999996907],[19.661920000013215,-17.852719999995333],[19.6464200000046,-17.85420999999043],[19.623220000008608,-17.861160000000396],[19.614009999990248,-17.865569999994495],[19.606079999997764,-17.86611000000268],[19.596040000004013,-17.864529999991664],[19.579919999989233,-17.866509999992576],[19.56971000001069,-17.872739999991627],[19.54980000000798,-17.872570000006835],[19.511339999997308,-17.86356999998681],[19.506880000000837,-17.864470000000455],[19.50463999999922,-17.86741000000622],[19.505000000004674,-17.872009999991878],[19.50352999998724,-17.87312000000385],[19.49994000000881,-17.873040000005876],[19.49455000000309,-17.867850000009657],[19.4853299999959,-17.872000000003045],[19.474630000011548,-17.86806000000799],[19.46716000000017,-17.86926000000678],[19.459869999991515,-17.86356999998681],[19.45605000000798,-17.863019999989792],[19.44996999998695,-17.86608999999591],[19.442039999994467,-17.866589999990556],[19.435700000001834,-17.870339999994048],[19.421369999996404,-17.8679199999897],[19.411939999990885,-17.870679999992735],[19.404260000010275,-17.870720000006276],[19.389980000007217,-17.866240000003035],[19.370679999992735,-17.852210000011855],[19.362530000013084,-17.85177999999725],[19.35983999999009,-17.853780000004935],[19.357229999994182,-17.86152999999469],[19.353399999992707,-17.86120000001394],[19.347799999988656,-17.855550000007515],[19.33799,-17.854389999993163],[19.330690000002523,-17.858340000006155],[19.324909999995743,-17.858890000003175],[19.320030000002607,-17.853249999985582],[19.323470000003017,-17.850119999988255],[19.331180000008334,-17.848930000007403],[19.333909999986666,-17.845559999987035],[19.333279999991664,-17.842330000014062],[19.330249999999086,-17.839039999991673],[19.32329999998912,-17.838859999988944],[19.316970000014425,-17.842150000011333],[19.311719999997894,-17.841099999990565],[19.307070000009865,-17.835699999996013],[19.30327999999283,-17.834000000002575],[19.29761999999757,-17.83890999999132],[19.29211999999827,-17.83830999999192],[19.274000000004907,-17.82545000000393],[19.27119999998833,-17.824839999986597],[19.273099999991263,-17.835879999998742],[19.26058999999079,-18.061329999996833],[19.247529999993294,-18.246049999987026],[19.23548000000303,-18.3928399999859],[19.204750000004445,-18.805939999991114],[19.201209999999282,-19.080519999988628],[19.202460000000446,-19.182650000002486],[19.458359999989646,-19.183569999993797]]]}},{"type":"Feature","id":"gb:NAM:ADM2:8085530B32015186497374","properties":{"shapeName":"Rehoboth West","shapeISO":"","shapeID":"8085530B32015186497374","shapeGroup":"NAM","shapeType":"ADM2","id":"gb:NAM:ADM2:8085530B32015186497374"},"geometry":{"type":"Polygon","coordinates":[[[19.204750000004445,-18.805939999991114],[19.23548000000303,-18.3928399999859],[19.247529999993294,-18.246049999987026],[19.26058999999079,-18.061329999996833],[19.273099999991263,-17.835879999998742],[19.27119999998833,-17.824839999986597],[19.269230000005354,-17.824410000001098],[19.26336000001176,-17.82863000000363],[19.25713000001271,-17.82824000000257],[19.249420000007394,-17.820700000011147],[19.244880000012945,-17.82011999998942],[19.23858000000475,-17.822489999991394],[19.232380000001303,-17.829679999995296],[19.228739999991394,-17.831199999986],[19.22276000000422,-17.830810000014043],[19.208990000013745,-17.82563999999549],[19.192019999987696,-17.823360000009433],[19.17141999999878,-17.813649999996432],[19.164569999993564,-17.818310000002402],[19.140500000008636,-17.812030000000973],[19.13109000000988,-17.814119999995473],[19.124229999986728,-17.820169999991794],[19.11910000001082,-17.83384000000662],[19.116879999986867,-17.836310000013345],[19.10767999998645,-17.840010000014463],[19.08274000001258,-17.839449999999506],[19.061469999986024,-17.8364400000137],[19.028840000013606,-17.836619999987324],[18.99320999998601,-17.82962999999292],[18.986390000005503,-17.833119999995702],[18.974409999995277,-17.832569999998686],[18.962490000005364,-17.82995000001394],[18.948540000012162,-17.823139999993163],[18.92522999999348,-17.82435000000989],[18.910639999987342,-17.822799999994476],[18.89898999998697,-17.81927000000725],[18.88258000000498,-17.806409999990155],[18.877319999999617,-17.806039999995864],[18.871940000011836,-17.80957000001219],[18.866929999989242,-17.808510000002588],[18.857389999990136,-17.79860000000919],[18.8478699999978,-17.79603999998655],[18.84369000000881,-17.791560000012414],[18.842629999999208,-17.78693999999088],[18.843709999986476,-17.782830000011035],[18.841179999988544,-17.77932000000148],[18.836199999990658,-17.777340000000567],[18.82561999998872,-17.778190000011836],[18.80364999998712,-17.77528999999051],[18.797019999998174,-17.772339999995907],[18.790910000010648,-17.7680399999954],[18.784909999987594,-17.760290000005643],[18.778450000012544,-17.744030000001672],[18.775870000012237,-17.742349999985905],[18.768929999991105,-17.741700000013243],[18.76040999998806,-17.746049999987026],[18.754879999993154,-17.746350000001275],[18.749890000006435,-17.744669999985504],[18.74379000000774,-17.740530000010057],[18.73821999999929,-17.726820000010793],[18.730940000008577,-17.71744999999648],[18.699569999997056,-17.69829999998912],[18.684059999999608,-17.68689000001179],[18.66558000000079,-17.669660000014137],[18.654269999999105,-17.661959999997652],[18.574590000003827,-17.76688000001015],[18.527239999995817,-17.90189999999713],[18.498510000004917,-18.002479999995572],[18.476029999990732,-18.498980000003957],[18.46405000000961,-18.763960000011156],[18.922879999998276,-18.791239999991394],[19.017580000014295,-18.79501999999049],[19.204750000004445,-18.805939999991114]]]}},{"type":"Feature","id":"gb:NAM:ADM2:8085530B43563455443088","properties":{"shapeName":"Rundu Urban","shapeISO":"","shapeID":"8085530B43563455443088","shapeGroup":"NAM","shapeType":"ADM2","id":"gb:NAM:ADM2:8085530B43563455443088"},"geometry":{"type":"Polygon","coordinates":[[[19.79475000000095,-17.878490000002802],[19.79055999999402,-17.880659999995277],[19.781690000003458,-17.890569999988674],[19.777540000010067,-17.893240000004898],[19.771509999991412,-17.894479999988125],[19.767619999998736,-17.906569999991934],[19.76368000000368,-17.910839999996842],[19.757130000012715,-17.913679999997857],[19.749450000002998,-17.913739999989062],[19.742560000013345,-17.91083000000801],[19.736219999991608,-17.904940000007645],[19.734389999997823,-17.898630000010616],[19.731079999997764,-17.902639999985713],[19.72875000000933,-17.915360000013624],[19.74230000001264,-17.919720000005345],[19.748930000001586,-17.92473999998767],[19.767170000006463,-17.92103999998655],[19.77640000000249,-17.921549999999133],[19.786410000000636,-17.916670000005997],[19.788469999999524,-17.922209999989736],[19.793899999989684,-17.91956999999822],[19.791139999986644,-17.90580999999658],[19.79831000001288,-17.906409999995976],[19.797200000000906,-17.899109999998487],[19.80110000001152,-17.896390000008996],[19.79475000000095,-17.878490000002802]]]}},{"type":"Feature","id":"gb:NAM:ADM2:8085530B54610932550654","properties":{"shapeName":"Luderitz","shapeISO":"","shapeID":"8085530B54610932550654","shapeGroup":"NAM","shapeType":"ADM2","id":"gb:NAM:ADM2:8085530B54610932550654"},"geometry":{"type":"Polygon","coordinates":[[[19.70996000000743,-18.56653000001099],[19.7158800000034,-18.556630000006425],[19.718120000005023,-18.55012999998873],[19.718560000008456,-18.54271999999766],[19.72270000001301,-18.53455000001124],[19.725030000001443,-18.53377999999795],[19.738650000013898,-18.53559000001407],[19.74189999999364,-18.53312999999618],[19.739059999992623,-18.52144000001137],[19.732909999991552,-18.515220000001154],[19.73117000001368,-18.51102000000539],[19.732649999990848,-18.507299999997503],[19.73837999999525,-18.50297999999022],[19.74995999998648,-18.501400000008307],[19.756469999993005,-18.494860000006174],[19.75740999999109,-18.488489999988833],[19.74947000000977,-18.463900000002486],[19.75198000000093,-18.455350000003836],[19.762640000000847,-18.442320000001946],[19.7760300000082,-18.41777999998887],[19.78213000000689,-18.410620000009676],[19.790810000005894,-18.406489999993955],[19.79576999999701,-18.406489999993955],[19.799650000000856,-18.40875999999118],[19.806320000003343,-18.41604999999983],[19.812579999997997,-18.418319999997056],[19.815899999986886,-18.41805999999635],[19.825359999988013,-18.41201],[19.83092999999646,-18.404680000006937],[19.82933999999661,-18.39619999998833],[19.831239999999543,-18.384599999990332],[19.830690000002523,-18.371589999995212],[19.833920000004603,-18.367419999995054],[19.840220000012796,-18.363559999997978],[19.84716999999366,-18.362309999996814],[19.86293000000298,-18.36812999998803],[19.881259999994672,-18.372260000003752],[19.889770000008884,-18.370980000006984],[19.902139999991068,-18.364120000012935],[19.930220000009303,-18.374199999991124],[19.935880000004563,-18.374520000012144],[19.94588000001388,-18.372159999999003],[19.974790000007506,-18.35185999999523],[19.98082999998589,-18.349389999988507],[19.995880000002234,-18.35248999999023],[19.998259999993042,-18.346820000006137],[19.99786000000315,-18.324120000004786],[20.0,-18.320880000013876],[19.99976000000608,-17.89149000000909],[19.99754000001123,-17.890149999992005],[19.97093000001043,-17.893500000005606],[19.96760999999244,-17.892549999989583],[19.95592999999646,-17.87875000000351],[19.919510000007012,-17.866260000009806],[19.912799999990984,-17.865879999997574],[19.890820000000552,-17.882409999991086],[19.87539000000108,-17.885290000005643],[19.850440000009275,-17.885199999989727],[19.82449999998791,-17.87612999998966],[19.81565999999295,-17.87455999999658],[19.79475000000095,-17.878490000002802],[19.80110000001152,-17.896390000008996],[19.797200000000906,-17.899109999998487],[19.79831000001288,-17.906409999995976],[19.791139999986644,-17.90580999999658],[19.793899999989684,-17.91956999999822],[19.788469999999524,-17.922209999989736],[19.786410000000636,-17.916670000005997],[19.77640000000249,-17.921549999999133],[19.767170000006463,-17.92103999998655],[19.748930000001586,-17.92473999998767],[19.74230000001264,-17.919720000005345],[19.72875000000933,-17.915360000013624],[19.731079999997764,-17.902639999985713],[19.734389999997823,-17.898630000010616],[19.72831999999473,-17.89420000000975],[19.724019999994216,-17.883990000002104],[19.721430000005075,-17.8816400000069],[19.712819999986113,-17.880750000011194],[19.70704999999727,-17.877500000002346],[19.70460999998615,-17.87880000000588],[19.704670000006463,-17.881930000003212],[19.711279999988637,-17.884790000010995],[19.71238000001178,-17.88657999999124],[19.70877999998631,-17.88892999998645],[19.709399999992474,-18.001649999991077],[19.500460000010225,-18.002479999995572],[19.500250000011892,-18.178210000012786],[19.705329999997065,-18.565200000011846],[19.70996000000743,-18.56653000001099]]]}},{"type":"Feature","id":"gb:NAM:ADM2:8085530B8620298556926","properties":{"shapeName":"Tsumeb","shapeISO":"","shapeID":"8085530B8620298556926","shapeGroup":"NAM","shapeType":"ADM2","id":"gb:NAM:ADM2:8085530B8620298556926"},"geometry":{"type":"Polygon","coordinates":[[[20.415240000002104,-19.184559999994253],[20.416499999992105,-18.50059000001058],[20.41742000001252,-17.909340000012907],[20.40956999998891,-17.906199999997643],[20.402230000006984,-17.901240000006528],[20.393840000004293,-17.900629999989196],[20.38983999998893,-17.897109999990807],[20.377360000013162,-17.89686999999687],[20.373480000009316,-17.89908999999172],[20.36989000000178,-17.898569999990304],[20.3499599999923,-17.887389999988972],[20.335120000003393,-17.874019999988395],[20.326600000000344,-17.868339999986365],[20.316829999996138,-17.8651700000046],[20.309139999997587,-17.865710000012783],[20.30139000000783,-17.86924],[20.294229999999533,-17.878969999990673],[20.291339999996143,-17.879610000003613],[20.28823999999442,-17.87862999999199],[20.276909999985968,-17.86991000000855],[20.267549999989587,-17.869960000010924],[20.260279999987706,-17.873489999998142],[20.256770000007254,-17.880310000007757],[20.25312000000851,-17.882760000007707],[20.252030000003305,-17.88917000000949],[20.24833999999102,-17.89347000001],[20.240610000008036,-17.895840000011976],[20.233310000010555,-17.88927000001424],[20.227090000000334,-17.888680000003678],[20.221749999996995,-17.891100000008027],[20.21551999999794,-17.890749999991403],[20.20193999999903,-17.88634999998614],[20.192089999996842,-17.886839999991953],[20.183060000010318,-17.882760000007707],[20.170370000007114,-17.881579999986588],[20.16492000001019,-17.889280000003073],[20.15312000000269,-17.891340000001964],[20.128560000011948,-17.90645999999835],[20.12156999998844,-17.90770000001068],[20.114039999985852,-17.911909999995277],[20.10779999999797,-17.911779999994923],[20.09924999999932,-17.90792999998668],[20.08379000000425,-17.89546999998858],[20.059879999986173,-17.891340000001964],[20.038570000004274,-17.901039999997025],[20.02700000000188,-17.90356999999496],[20.01649000000909,-17.901530000002836],[19.99976000000608,-17.89149000000909],[20.0,-18.320880000013876],[19.99786000000315,-18.324120000004786],[19.998259999993042,-18.346820000006137],[19.995880000002234,-18.35248999999023],[19.98082999998589,-18.349389999988507],[19.974790000007506,-18.35185999999523],[19.94588000001388,-18.372159999999003],[19.935880000004563,-18.374520000012144],[19.930220000009303,-18.374199999991124],[19.902139999991068,-18.364120000012935],[19.889770000008884,-18.370980000006984],[19.881259999994672,-18.372260000003752],[19.86293000000298,-18.36812999998803],[19.84716999999366,-18.362309999996814],[19.840220000012796,-18.363559999997978],[19.833920000004603,-18.367419999995054],[19.830690000002523,-18.371589999995212],[19.831239999999543,-18.384599999990332],[19.82933999999661,-18.39619999998833],[19.83092999999646,-18.404680000006937],[19.825359999988013,-18.41201],[19.815899999986886,-18.41805999999635],[19.812579999997997,-18.418319999997056],[19.806320000003343,-18.41604999999983],[19.799650000000856,-18.40875999999118],[19.79576999999701,-18.406489999993955],[19.790810000005894,-18.406489999993955],[19.78213000000689,-18.410620000009676],[19.7760300000082,-18.41777999998887],[19.762640000000847,-18.442320000001946],[19.75198000000093,-18.455350000003836],[19.74947000000977,-18.463900000002486],[19.75740999999109,-18.488489999988833],[19.756469999993005,-18.494860000006174],[19.74995999998648,-18.501400000008307],[19.73837999999525,-18.50297999999022],[19.732649999990848,-18.507299999997503],[19.73117000001368,-18.51102000000539],[19.732909999991552,-18.515220000001154],[19.739059999992623,-18.52144000001137],[19.74189999999364,-18.53312999999618],[19.738650000013898,-18.53559000001407],[19.725030000001443,-18.53377999999795],[19.72270000001301,-18.53455000001124],[19.718560000008456,-18.54271999999766],[19.718120000005023,-18.55012999998873],[19.7158800000034,-18.556630000006425],[19.70996000000743,-18.56653000001099],[19.709210000000912,-18.57519000000322],[19.710229999996972,-18.582410000002728],[19.71213999998874,-18.585300000006118],[19.71153999998935,-18.589630000002234],[19.69821000000231,-18.603899999987352],[19.694760000013066,-18.63302000000842],[19.684310000011486,-18.6489400000137],[19.683320000011026,-18.65749000001235],[19.684910000010877,-18.66094000000159],[19.693999999988613,-18.663819999987044],[19.70014999998968,-18.663860000000586],[19.708669999992726,-18.66172999999255],[19.713870000006885,-18.66349999999513],[19.716940000013,-18.66260999999942],[19.72299000000932,-18.663960000005336],[19.733130000007822,-18.67238000000363],[19.742469999997432,-18.68719999998577],[19.739930000010663,-18.6945699999924],[19.736910000006922,-18.695630000002],[19.69884999998614,-18.692279999988404],[19.69651999999771,-18.69471000001069],[19.696430000010896,-18.703149999986653],[19.685209999996022,-18.717969999997894],[19.683710000012088,-18.723999999987445],[19.688770000007953,-18.73673000000419],[19.684509999991878,-18.75542000000134],[19.67988999999945,-18.76144999999089],[19.678719999996265,-18.77439000000597],[19.68489000000411,-18.782340000005224],[19.698709999996954,-18.789140000008064],[19.705630000011315,-18.796189999993675],[19.70751000000748,-18.804999999993033],[19.702010000008176,-18.81565999999295],[19.702690000005553,-18.820849999989168],[19.705309999990295,-18.82539000001272],[19.7152500000084,-18.833320000005205],[19.71734999999173,-18.83686000001037],[19.71457000001103,-18.84249000001002],[19.709659999993182,-18.84695000000649],[19.696870000014332,-18.85133000000498],[19.683720000000925,-18.859869999985694],[19.681699999986467,-18.8679199999897],[19.68502000000446,-18.875960000004874],[19.684780000010527,-18.882420000009024],[19.68131000001451,-18.88717999999064],[19.67428000000657,-18.887270000006556],[19.67079000000378,-18.888760000001657],[19.66691,-18.89298000000419],[19.667019999993517,-18.899540000013094],[19.67066999999226,-18.904559999995417],[19.679050000006118,-18.91047000000255],[19.686430000001586,-18.92068999999903],[19.69333999999801,-18.935700000001834],[19.7015299999912,-18.937369999999664],[19.707569999998686,-18.94184000001407],[19.71739000000527,-18.943599999998714],[19.72239999999876,-18.947249999997457],[19.72365,-18.951609999989177],[19.720990000001642,-18.954969999991608],[19.703619999985698,-18.960840000014304],[19.702530000009595,-18.966589999996376],[19.70696999999929,-18.973830000002657],[19.71479999998703,-18.97659000000569],[19.719249999994666,-18.983039999991906],[19.72083000000568,-18.98837999999525],[19.72026000000189,-18.993660000007385],[19.71476999999142,-18.998430000006937],[19.688590000005224,-19.008360000007105],[19.683309999993092,-19.01730999999565],[19.67188999999782,-19.02661000000082],[19.663750000007003,-19.036900000006444],[19.65820999999416,-19.040329999988916],[19.65200000000188,-19.04973999998767],[19.622280000010527,-19.053010000003287],[19.615629999985703,-19.060259999998397],[19.60240999999225,-19.06562999999735],[19.59070000000067,-19.067689999996237],[19.581399999995504,-19.07724000001328],[19.575340000010346,-19.078739999997214],[19.56422999998906,-19.093920000013913],[19.556749999988842,-19.09917000000134],[19.5433900000062,-19.105190000002057],[19.53438999998618,-19.107099999993824],[19.517170000006466,-19.117709999991366],[19.51258999999847,-19.126149999996432],[19.50192999999856,-19.135069999989376],[19.49450999998955,-19.139120000007114],[19.484579999989386,-19.15312000000269],[19.48293999998716,-19.158510000008413],[19.480509999993973,-19.160330000013364],[19.47964999999387,-19.16635000001408],[19.47197000001326,-19.175400000007375],[19.458359999989646,-19.183569999993797],[19.998309999995417,-19.18418000001113],[20.415240000002104,-19.184559999994253]]]}},{"type":"Feature","id":"gb:NAM:ADM2:8085530B94702234009846","properties":{"shapeName":"Luderitz","shapeISO":"","shapeID":"8085530B94702234009846","shapeGroup":"NAM","shapeType":"ADM2","id":"gb:NAM:ADM2:8085530B94702234009846"},"geometry":{"type":"Polygon","coordinates":[[[18.46405000000961,-18.763960000011156],[18.476029999990732,-18.498980000003957],[18.498510000004917,-18.002479999995572],[18.527239999995817,-17.90189999999713],[18.574590000003827,-17.76688000001015],[18.654269999999105,-17.661959999997652],[18.624320000002644,-17.642930000001815],[18.618500000011426,-17.637249999999785],[18.614980000013038,-17.627269999997242],[18.616479999996972,-17.610090000001964],[18.60985999999686,-17.607140000007362],[18.60532000000241,-17.599199999996944],[18.59859999999755,-17.59187999999269],[18.569500000012358,-17.588049999991217],[18.565260000003054,-17.585619999998034],[18.561900000000623,-17.57818000001136],[18.548370000004088,-17.566749999998155],[18.546230000007217,-17.55887999999688],[18.54078000001029,-17.549300000013336],[18.537429999996693,-17.53427999999259],[18.5347100000072,-17.529370000003855],[18.52506000001451,-17.52403000000051],[18.51834999999848,-17.516720000014192],[18.511419999995287,-17.50135000000593],[18.503319999988907,-17.499959999986476],[18.498400000011333,-17.49660000001315],[18.49497999998859,-17.491450000001368],[18.485459999996255,-17.489559999987268],[18.478639999986644,-17.485680000012522],[18.4749899999879,-17.480290000006807],[18.473059999989363,-17.473109999991735],[18.472650000010635,-17.45632999998635],[18.470620000007347,-17.452359999995696],[18.461000000010262,-17.446330000006146],[18.455690000002523,-17.440200000011842],[18.449770000006556,-17.4234899999865],[18.43294999998763,-17.410810000001234],[18.42207000000055,-17.394040000013792],[18.40745999998764,-17.39316000000692],[18.39426000000096,-17.394869999989186],[18.361940000002523,-17.395619999995706],[18.353600000002206,-17.39446999999929],[18.326529999991198,-17.395580000011268],[18.215289999992837,-17.395069999998686],[18.18805999998587,-17.39363000000596],[17.99903000000633,-17.39477000001354],[17.99906999999077,-17.750809999997745],[17.99900999999956,-17.91868000000251],[17.99898999999279,-18.47677000000842],[17.99906999999077,-18.73749999998838],[18.0178399999859,-18.737209999992064],[18.200379999994784,-18.74796999999673],[18.46405000000961,-18.763960000011156]]]}}]}
