{"type":"Feature","id":"atlas:local:IND:7132399B38242062299143","properties":{"id":"atlas:local:IND:7132399B38242062299143","name":"Jaisalmer","parent_id":"atlas:province:IND:9c462c264dc4","reference_owner":"India","metadata":{"source_name":"Atlas source aggregation","source_id":"gb:IND:ADM3","source_url":"https://media.githubusercontent.com/media/wmgeolab/geoBoundaries/9469f09/releaseData/gbOpen/IND/ADM3/geoBoundaries-IND-ADM3_simplified.geojson","license":"Open Data Commons Open Database License 1.0","reference_year":"2018","administrative_level":"Sub-district / taluka / tehsil","location_basis":"Published named Sub-district / taluka / tehsil local territory; coherent source city unions preserved","representative_point":[70.51304129743477,27.076253866223],"reference_version":3,"hierarchy_version":4,"semantic_version":3,"source_footprint_share":0.993819,"framework_overlap":0.99993,"parent_match":"Greatest overlap with named district Jaisalmer: 99.99%","source_geography_sha256":"4ea6807d0a0c5aac0b46ee8e31ed7c30fbec273b44345bba1e4a2bb5f299f5fb","source_member_ids":["7132399B38242062299143"],"source_name_with_footnote":"Jaisalmer","regional_match":{"reference_iso":"IND","source_id":"IND-3250","overlap":0.999699,"method":"reference-territory-constrained overlap"},"reference_owner_id":"owner:Q668","reference_polity":"India","reference_polity_status":"reference","reference_polity_evidence":{"source":"Natural Earth pinned administrative and sovereignty reference; dates vary","source_url":"https://github.com/nvkelso/natural-earth-vector/tree/ca96624a56bd078437bca8184e78163e5039ad19","reference_territory":"India","classification":"Sovereign country","note":null,"uncertainty":false},"semantic_review":{"status":"open","continent":"Asia","decision_index":222,"evidence_file":"geographic-decisions"}}},"geometry":{"type":"Polygon","coordinates":[[[69.7604,27.3212],[69.7842,27.3435],[69.84295321057186,27.38726360941314],[69.8622,27.4016],[69.8935,27.4355],[69.90639138675664,27.458044936839503],[69.915,27.4731],[69.93038225558239,27.493391486087393],[69.9338,27.4979],[69.95819770838185,27.516889349380946],[69.9744,27.5295],[70.01652846500946,27.556429175672715],[70.0254,27.5621],[70.0719,27.6624],[70.1232,27.7876],[70.12584873449711,27.79153115346178],[70.1453,27.8204],[70.15005275544972,27.82461956431609],[70.197,27.8663],[70.21953042124838,27.892673402799097],[70.2269,27.9013],[70.26587789022508,27.92098300288749],[70.2972,27.9368],[70.36927403145056,28.00887403145056],[70.3723,28.0119],[70.40352070862824,28.01575612919069],[70.4395,28.0202],[70.4868,28.0341],[70.48778675580733,28.03424875715688],[70.4878893803662,28.034264228195905],[70.48791718174496,28.03425642736924],[70.506786,28.028962],[70.534898,28.015965],[70.559806,27.998447],[70.592879,27.964496],[70.621198,27.944135],[70.633187,27.93163],[70.64161,27.911269],[70.637631,27.874217],[70.640732,27.854787],[70.671738,27.791095],[70.710391,27.74115],[70.76032582926487,27.710657547850733],[70.84135244768996,27.709330079621967],[70.84553239373236,27.709261599094493],[70.8717,27.7056],[70.89601896556718,27.708395283398527],[70.9065,27.7096],[70.9495,27.7283],[70.963,27.7293],[70.98232352687572,27.74202051266693],[70.9829,27.7424],[71.00340948214513,27.750637612969953],[71.0678,27.7765],[71.07860378992464,27.78136692468827],[71.1506,27.8138],[71.18802309745462,27.82847039755027],[71.2057,27.8354],[71.33899697015488,27.863241927511293],[71.34802053152237,27.85529096270784],[71.36041453380375,27.838331572743925],[71.38630528705943,27.813407058289158],[71.40656794985108,27.784967933923042],[71.43945716791404,27.748762447828767],[71.45506127056126,27.729607453021572],[71.45253069703409,27.722386956392995],[71.41458249658501,27.64834841814502],[71.37959792200655,27.60303469459552],[71.39220637212645,27.586436677410802],[71.401773246738,27.569830837922893],[71.41481838336176,27.54317804143352],[71.42610924574512,27.531601182048973],[71.43565140968485,27.534327275383475],[71.43546507285487,27.52267564006877],[71.43771147770258,27.50345115374779],[71.43772180551696,27.490189803017074],[71.42062913152927,27.478551074772327],[71.40242670942513,27.465249961416646],[71.39686226757965,27.455291192834352],[71.39766714012649,27.448609586163514],[71.39873869223692,27.439713108473256],[71.40357784704008,27.43276170159129],[71.4199389297379,27.422851261676442],[71.42812642599381,27.40894380741082],[71.43910263178111,27.384942807664515],[71.44630137111142,27.37532911434721],[71.4521445452346,27.374538058084966],[71.47191461426809,27.38380105177714],[71.49623850570254,27.38945676491784],[71.51506121810081,27.400317838597402],[71.52854715202949,27.39792982919829],[71.53439078300829,27.39512955168749],[71.54697639754278,27.391133995137807],[71.573047624948,27.392768069590772],[71.5806891086155,27.39277578307599],[71.5847315809977,27.386762473409476],[71.59146921453271,27.378745788087713],[71.60360093943189,27.373942519831473],[71.61078994000377,27.371541372236607],[71.61887455201901,27.36553019396331],[71.62246367525847,27.35831209582659],[71.63369503040138,27.355511401030412],[71.63862930110145,27.3466891551804],[71.62790993539528,27.331915055735294],[71.61537325117467,27.319228904190652],[71.60993662907225,27.306547348181653],[71.61828336198761,27.302825106393584],[71.63246526236202,27.28941179901534],[71.64413671603666,27.273012853060777],[71.64494225767908,27.268429820679728],[71.64662667707955,27.258845461448914],[71.64135577035256,27.238597587108984],[71.63358247035478,27.23444470855651],[71.62623522057902,27.227793755277617],[71.61455637087988,27.221461094553945],[71.60422666342981,27.21285937865747],[71.58407306322135,27.192328648648243],[71.5796615360511,27.182661651613955],[71.57610652229823,27.17918923159783],[71.5710385565842,27.180251248196612],[71.55210222383863,27.17437221900275],[71.53216279987339,27.174988902116183],[71.5265807457049,27.17076070983893],[71.52015932639188,27.170612677832878],[71.51373738457272,27.170011016994863],[71.50815575938083,27.16532872913757],[71.49986732501708,27.157020371193255],[71.4931042748425,27.152337803646788],[71.48464455740049,27.139192896235215],[71.48531819457907,27.136926060589303],[71.49359617612271,27.137377490578785],[71.49274644809014,27.132239860681068],[71.48766699083899,27.11969862589092],[71.48343449440642,27.108668147816843],[71.48646846524753,27.102169661101016],[71.48342139308289,27.094010068110208],[71.4866165251326,27.079502478256813],[71.48272742043417,27.073005254189184],[71.47090335720424,27.065602091763196],[71.47309304540778,27.059255046383328],[71.47646572791109,27.05487233349146],[71.48759909292386,27.046257001859203],[71.49147663413942,27.041269387871978],[71.49164085484165,27.03643366218381],[71.4725473152065,27.008480106971433],[71.47624836357119,26.994425916622788],[71.47961871862901,26.989589793434277],[71.49561371070422,26.977932604805915],[71.50860834769713,26.963137861423206],[71.51045929995678,26.959057109398145],[71.52412504613403,26.96237638566174],[71.52597818914217,26.9605621797009],[71.53101607882905,26.943030418918738],[71.53860146728397,26.940457618624237],[71.54011656682616,26.93849230227795],[71.52171383332683,26.91991375311727],[71.51850500370301,26.91523040226133],[71.51748626607838,26.90888387668963],[71.51478551384042,26.90586251973957],[71.50804873825871,26.912211682123484],[71.49439582091048,26.915690953174987],[71.46625194307279,26.933677273587364],[71.45816335605411,26.94259318922434],[71.44551852386087,26.948788038737064],[71.43641033676766,26.94606647079104],[71.43573316975005,26.93987045305903],[71.43724771441055,26.932465894885183],[71.44314473544125,26.922341877675592],[71.44651212633363,26.912821810977846],[71.45342105194004,26.906626616125493],[71.45932027091385,26.904511284768034],[71.46976604486713,26.895444147229682],[71.47161576595488,26.889097070373566],[71.46402323958091,26.877763258167874],[71.46688504241081,26.872625192099008],[71.46199298498834,26.86537139897092],[71.43356316231012,26.846170947930943],[71.43354053626678,26.846142688534314],[71.41764996627296,26.864608996008428],[71.39190264858843,26.880067053251935],[71.37505151181784,26.886735638638868],[71.35258939778254,26.890451036586114],[71.33623036194172,26.88243620656573],[71.32736720952914,26.86982762334617],[71.31616669034054,26.857630877463066],[71.3026219569378,26.849200899701827],[71.28531822645505,26.84914637110819],[71.27033285647622,26.8570668478568],[71.25346557327765,26.868334871956847],[71.24318431500421,26.864943640036984],[71.22869217460425,26.84481737921874],[71.21941170348737,26.825801835986],[71.21138571018241,26.80455711082203],[71.20518247359234,26.798392564865026],[71.19461590809772,26.79500238605135],[71.16656636284745,26.809965139879353],[71.15100798892763,26.81045941716843],[71.13359306896501,26.808152548201576],[71.1155349376873,26.81142366217233],[71.10871422927829,26.805252061033855],[71.10692048828997,26.786820128346278],[71.11256992056542,26.774004435756183],[71.115732343373,26.760619229493898],[71.1141647683894,26.76008393322701],[71.11475993702152,26.75876258182774],[71.03422893841486,26.765259703372635],[71.00497530436684,26.769018535876796],[71.00193609047824,26.754486547416263],[71.00448915694909,26.741100357295693],[70.99460547995898,26.727648890783712],[70.98283068159071,26.719769698312973],[70.9596695658978,26.74923426205163],[70.93850579320787,26.752465542350933],[70.91987562116304,26.747333621349583],[70.89961962774368,26.749569809898844],[70.90112256665316,26.72244573448313],[70.89953256797367,26.724082498808343],[70.90014547483383,26.717626441207358],[70.89520072972994,26.712571982411134],[70.86658423927128,26.715189298247594],[70.83110207160337,26.721665104061344],[70.82313080294426,26.70430528556051],[70.8089902309145,26.692919296488412],[70.79576723896696,26.696573934439584],[70.78567495163776,26.686184038962267],[70.78086646011911,26.67664690133347],[70.78046840219508,26.664258509023],[70.78546517218001,26.654925914099692],[70.79225911766423,26.653134858486965],[70.80624674469158,26.657990263140164],[70.81543936103776,26.661764976772304],[70.82523321464117,26.669848211026192],[70.83362550001686,26.66608085294905],[70.83382414227043,26.662490169385876],[70.82282900845206,26.64417339128903],[70.79918493523661,26.61632255843938],[70.7631336325112,26.583120313351856],[70.75026269366845,26.566377114112584],[70.73632296093598,26.55531141229187],[70.72650972064713,26.533213447242872],[70.72189825260233,26.511747710988118],[70.7071167787164,26.482726903323965],[70.70527807522308,26.468851447836073],[70.70590712581327,26.453499196730604],[70.71174901570458,26.434816414346074],[70.70780143169077,26.412627627662914],[70.69589696097603,26.387194756133113],[70.68478291250148,26.37142783842404],[70.67655592971244,26.354390041966894],[70.65799205299089,26.339528433090777],[70.6401496645754,26.316613052650325],[70.60591214512942,26.313219605700283],[70.59284473409724,26.303975037318196],[70.57863028186205,26.318894550842913],[70.57096383211524,26.332450222699663],[70.56376334450277,26.330860681775107],[70.55438814869416,26.325528488948635],[70.53874929804175,26.325886277929442],[70.53055733125586,26.33084200465487],[70.5231778902475,26.33782646791724],[70.56228461264482,26.38200946126767],[70.5212278264031,26.423559197399072],[70.51310177452734,26.42487139729718],[70.48930514571595,26.417413531809075],[70.47086228716489,26.405345896196195],[70.44912404643765,26.38614807927047],[70.434795166264,26.362965882569483],[70.4366537510698,26.35269003012087],[70.45815096629411,26.341673346747598],[70.43630391389456,26.30325488540467],[70.41086216155958,26.223700704324074],[70.4060115224139,26.196370253384544],[70.39232600014486,26.180019000276673],[70.38687100039641,26.176004000384353],[70.36657000040526,26.148236999637902],[70.36017599962275,26.145554000017114],[70.35208100043786,26.14437499960661],[70.34803800015362,26.14583600043113],[70.33824900019124,26.152339999991057],[70.330467000152,26.153935999846567],[70.31281299992008,26.150204000414362],[70.3040240002075,26.14971899963217],[70.29921699976478,26.151647999555564],[70.291580000117,26.158828999758555],[70.2782899996838,26.156462000321085],[70.27254500005176,26.16207700025342],[70.27191899996194,26.166469999590845],[70.26528199966464,26.16550800019411],[70.25414300039921,26.161225999680198],[70.24806199966162,26.15542200002534],[70.23058300030527,26.129702000147233],[70.2243190001218,26.122803000358203],[70.21762800003222,26.13499999985015],[70.21358499974798,26.140667000381825],[70.20012699966134,26.150063000207354],[70.1784360003212,26.156191000414367],[70.15756199998634,26.15729099987982],[70.1441500002224,26.156585999744152],[70.13936702455578,26.154672218764357],[70.1424,26.1586],[70.1481573818541,26.172055454220835],[70.16203710341206,26.204493455165252],[70.1691,26.221],[70.1752,26.2512],[70.1646134752803,26.29071694141057],[70.1636,26.2945],[70.16612123062166,26.30233625733759],[70.1784,26.3405],[70.1856,26.3735],[70.1772,26.424],[70.1849,26.481],[70.1742,26.5517],[70.15953518697901,26.55984238164828],[70.1398,26.5708],[70.1292812024061,26.578545660046416],[70.1178,26.587],[70.10712668649292,26.589400632002402],[70.06334012281673,26.599249066227305],[70.056,26.6009],[70.04515038252644,26.598994799149747],[70.0019,26.5914],[69.96198901144265,26.585639651136056],[69.94804590796545,26.58513034076006],[69.94410037906708,26.583057786669478],[69.934,26.5816],[69.895,26.5788],[69.87881228626613,26.581125558874444],[69.83760941149941,26.587044845108533],[69.824,26.589],[69.7874,26.6015],[69.7740696923361,26.612467700289333],[69.7599530070608,26.624082403946723],[69.73697042899435,26.64299164703879],[69.7259,26.6521],[69.72196945799016,26.653771756504185],[69.68146319168167,26.67100007107046],[69.60246444438415,26.704600187615828],[69.60089379689767,26.70526822274807],[69.51306606562704,26.74262352403525],[69.5103,26.7438],[69.50893810059073,26.747068558582257],[69.4848,26.805],[69.4986,26.872],[69.5137,27.0008],[69.5135,27.0102],[69.58072388549859,27.169293463628662],[69.5866,27.1832],[69.61693167221577,27.204896320695266],[69.6428,27.2234],[69.68851175646799,27.269552705887293],[69.705,27.2862],[69.7604,27.3212]]]}}
