{"type":"Feature","id":"atlas:local:IND:7132399B91194549462935","properties":{"id":"atlas:local:IND:7132399B91194549462935","name":"Anupgarh","parent_id":"atlas:province:IND:1482b086210c","reference_owner":"India","metadata":{"source_name":"Atlas source aggregation","source_id":"gb:IND:ADM3","source_url":"https://media.githubusercontent.com/media/wmgeolab/geoBoundaries/9469f09/releaseData/gbOpen/IND/ADM3/geoBoundaries-IND-ADM3_simplified.geojson","license":"Open Data Commons Open Database License 1.0","reference_year":"2018","administrative_level":"Sub-district / taluka / tehsil","location_basis":"Published named Sub-district / taluka / tehsil local territory; coherent source city unions preserved","representative_point":[73.21195940411951,29.164667084918108],"reference_version":3,"hierarchy_version":4,"semantic_version":3,"source_footprint_share":0.993972,"framework_overlap":0.999868,"parent_match":"Greatest overlap with named district Ganganagar: 99.99%","source_geography_sha256":"4ea6807d0a0c5aac0b46ee8e31ed7c30fbec273b44345bba1e4a2bb5f299f5fb","source_member_ids":["7132399B91194549462935"],"source_name_with_footnote":"Anupgarh","regional_match":{"reference_iso":"IND","source_id":"IND-3250","overlap":1.0,"method":"reference-territory-constrained overlap"},"reference_owner_id":"owner:Q668","reference_polity":"India","reference_polity_status":"reference","reference_polity_evidence":{"source":"Natural Earth pinned administrative and sovereignty reference; dates vary","source_url":"https://github.com/nvkelso/natural-earth-vector/tree/ca96624a56bd078437bca8184e78163e5039ad19","reference_territory":"India","classification":"Sovereign country","note":null,"uncertainty":false},"semantic_review":{"status":"open","continent":"Asia","decision_index":30,"evidence_file":"geographic-decisions"}}},"geometry":{"type":"Polygon","coordinates":[[[73.1843747412014,29.36809917443742],[73.18474924048513,29.366044957408917],[73.19780594598768,29.365715881982396],[73.20046629888066,29.368638181307062],[73.21089284892588,29.36988278006629],[73.21135531089891,29.374612829118803],[73.21405655236805,29.37433406266689],[73.21777323364785,29.37635159185254],[73.2182733259533,29.378109439099376],[73.21597738195067,29.380754981057578],[73.22546331847741,29.380769896313723],[73.25313763059722,29.359462099896064],[73.25518883759486,29.35536548383004],[73.26405588676982,29.34881711891495],[73.27138818081994,29.339586337139792],[73.27493351067301,29.34137209214839],[73.27466436876568,29.349296393713644],[73.27586763738162,29.350526982834026],[73.28956924312615,29.354310968476454],[73.29703321680955,29.348509888920262],[73.30963641848598,29.349538046943337],[73.31333538312151,29.345683983429126],[73.31294480845622,29.34186954494362],[73.32537603367706,29.34266607178182],[73.3272634462511,29.34496932637336],[73.32475126655777,29.351578151810315],[73.32141108195594,29.354521077086076],[73.32127735816363,29.358559485431954],[73.32385130509374,29.36170727986712],[73.32896965352677,29.362849123887997],[73.34944619128873,29.35674598543892],[73.35228234185666,29.352094612676296],[73.35254137808221,29.334799448236026],[73.35958092032325,29.33332604486111],[73.36058436227853,29.33135540722634],[73.36536754867348,29.330977971656125],[73.36637965020077,29.325376939094497],[73.36430833526151,29.32332074625549],[73.35379940731684,29.32323131497327],[73.35235103657112,29.315329732081523],[73.35000848520349,29.312883309916856],[73.33381629878323,29.31037248550183],[73.33395678997391,29.300733963701532],[73.33654515123777,29.292606638385678],[73.32126129087595,29.279739212294885],[73.31952870198808,29.27323025297386],[73.31458991938933,29.27181706100862],[73.31653038926612,29.264222365469834],[73.33209779957383,29.26433191908285],[73.33354058552965,29.266383570345567],[73.34383283171985,29.266242937061975],[73.34423068909507,29.244111470468056],[73.32733642173855,29.24204259089288],[73.3283939983844,29.22612918531371],[73.33199351149142,29.22279188213969],[73.34553850839552,29.2223378989749],[73.34731461817512,29.206737022195853],[73.35359152812657,29.20563942841693],[73.35485606485554,29.201937034666457],[73.35826274443019,29.20046319871767],[73.35821071235455,29.19077252703056],[73.36004544803905,29.18741136843994],[73.36330589515097,29.188196258050937],[73.36414831349396,29.190823002379716],[73.37008592002923,29.19087321422751],[73.37788477786029,29.188950464592324],[73.37908642050195,29.185039705118356],[73.385833847654,29.18557034739365],[73.38789548139141,29.187807836362595],[73.3936646691892,29.18714084427461],[73.3951894571278,29.181559669643093],[73.40012665871836,29.18067796081931],[73.40012549949228,29.171961852057905],[73.40565380657796,29.170250613075382],[73.40505342457595,29.167668352812257],[73.4077765645369,29.166481824176913],[73.40866600393298,29.162852345659303],[73.41849751754643,29.160942188331376],[73.41195515920327,29.155808057695765],[73.41151612277093,29.145695208267284],[73.40619062359843,29.141728642263104],[73.39290374291346,29.137229724372332],[73.39064733580597,29.134934176970717],[73.38737860144136,29.13513888605081],[73.38389923056508,29.138142317713857],[73.38447688490038,29.14054095350224],[73.37381748059232,29.14279795686025],[73.37191083691567,29.130746357058797],[73.36860529150107,29.123803722164098],[73.37662111257436,29.122712422740165],[73.37524654559166,29.104026967570576],[73.37615160081577,29.091585952329865],[73.4077546957227,29.091107438357653],[73.40656925166968,29.064703526546566],[73.38448428811944,29.064323308473945],[73.37588605439794,29.066851911586525],[73.37399286907572,29.07247830592911],[73.37072595224095,29.07300712977525],[73.36544135333583,29.072766339894713],[73.36431182912764,29.066145647004078],[73.31666975810293,29.067623904919344],[73.31422952777052,29.066315474079943],[73.3152944320924,29.0544869115418],[73.31695789908781,29.053047916228422],[73.32790913609779,29.053170645808734],[73.33038511897814,29.04114703920453],[73.35134820435621,29.039487278315278],[73.35424135665335,29.03540059346267],[73.36379385560201,29.03365757243904],[73.36358549527444,29.0210450546856],[73.35252540882061,29.01989428759134],[73.35132062574633,29.009283920616497],[73.34926296791167,29.00697685200015],[73.34178199973957,29.00413100044534],[73.31990099973143,28.98918700017998],[73.30760200003232,28.970839000319643],[73.2995829998556,28.969401999702598],[73.28987900021576,28.971473999925195],[73.28510841871861,28.967526487857185],[73.28489321095299,28.97012458608083],[73.27693940083276,28.9691198113303],[73.26130274542544,28.968619709132327],[73.26176249684181,28.965524227361243],[73.26333662338652,28.961231840577057],[73.25425095621671,28.96717512093511],[73.24692560403344,28.9675937400591],[73.23512233222988,28.966089888337706],[73.23555640620322,28.957117681435875],[73.23598015865747,28.95054932459169],[73.23321903942718,28.950087049677677],[73.22145611930449,28.950501512135133],[73.22215506790212,28.970947698677378],[73.22042166063119,28.98426213099259],[73.22369446802531,28.98808489989824],[73.22385270733662,28.994221437369504],[73.2231714861752,28.996657729570586],[73.22093650541547,28.99762674098139],[73.20328464467065,28.998287551129636],[73.20369676889084,29.00146051219292],[73.20250880853473,29.004655476069388],[73.19904472613325,29.00549589611876],[73.19684606359499,29.00497406180358],[73.19606486570103,29.004770326689254],[73.19560967834406,29.004651614380577],[73.19034856883144,29.00506662092789],[73.18786768554531,29.006478710324245],[73.1880023833034,29.01456447527039],[73.18811814943308,29.02151365273295],[73.18874506053618,29.029537100956475],[73.18430406617978,29.029952996034012],[73.18399117495284,29.040697647078787],[73.17806032592335,29.042581460565998],[73.17842244783776,29.044943350954952],[73.18107991660492,29.046541511881344],[73.1862142010246,29.04675345960453],[73.19233984860517,29.05224880563793],[73.19102168260463,29.067342680620243],[73.19008288931394,29.069612988548613],[73.186343004626,29.069130230675682],[73.18089106796845,29.069633948148237],[73.18016933594618,29.074942267571657],[73.17697742526803,29.074197912203942],[73.16344222288035,29.062218758189204],[73.1512928937521,29.04820611831775],[73.13756710973439,29.049156509265515],[73.12916085518935,29.049965629310407],[73.12622525129439,29.048519237972528],[73.12557040455056,29.04458940387792],[73.12130091180768,29.044129027432746],[73.11982144430425,29.038664934639087],[73.1174449777036,29.037605292250475],[73.11148213888964,29.039697830290663],[73.1045606200766,29.03756534886179],[73.1026159917347,29.043085662773194],[73.10267505560938,29.052189992674073],[73.08700304965106,29.055913882020093],[73.0829909806493,29.055341554369306],[73.06845864684914,29.05206499140627],[73.06218493039029,29.05031842255721],[73.03808329470831,29.048233108771],[73.0326843407098,29.047708501845932],[73.0066340567164,29.044687342746727],[73.0013117483386,29.044432514449056],[72.99519395813473,29.042784764905036],[72.98456091295583,29.04076959733908],[72.96973277234963,29.02922079140643],[72.96680957460222,29.021211726939725],[72.9666009426794,29.014899822568793],[72.96278960235833,29.011803018794353],[72.95629758356671,29.005678329891055],[72.95353856335407,29.005183875435534],[72.94953909565282,29.00210469657452],[72.94477594705239,29.00180512340779],[72.94036812688762,29.004883222183025],[72.94033763177634,29.006229878705994],[72.93800234603151,29.00909414567832],[72.93754028605542,29.01105205340957],[72.94980971874361,29.01191987760035],[72.94959287151386,29.02211138263425],[72.95300872597198,29.024142477193607],[72.96418139855274,29.031693894657565],[72.96121307462374,29.036842995407937],[72.96137993573552,29.04476466016098],[72.95739766955818,29.052490050133844],[73.0043,29.1528],[73.0844,29.2362],[73.09406318015229,29.25260197683744],[73.09749549279971,29.258427875936338],[73.11906369583336,29.295037062664523],[73.13123716558765,29.315699925800086],[73.15082391762871,29.348945860185584],[73.16889003254903,29.378012931951275],[73.1779722688052,29.378706478321362],[73.17780484471785,29.37146401665109],[73.18095097540726,29.370428122659803],[73.18167456273096,29.36830114957843],[73.1843747412014,29.36809917443742]]]}}
