{"type":"Feature","id":"atlas:local:IND:7132399B23352295489123","properties":{"id":"atlas:local:IND:7132399B23352295489123","name":"Khajuwala","parent_id":"atlas:province:IND:f139426b49dc","reference_owner":"India","metadata":{"source_name":"Atlas source aggregation","source_id":"gb:IND:ADM3","source_url":"https://media.githubusercontent.com/media/wmgeolab/geoBoundaries/9469f09/releaseData/gbOpen/IND/ADM3/geoBoundaries-IND-ADM3_simplified.geojson","license":"Open Data Commons Open Database License 1.0","reference_year":"2018","administrative_level":"Sub-district / taluka / tehsil","location_basis":"Published named Sub-district / taluka / tehsil local territory; coherent source city unions preserved","representative_point":[72.49504806076213,28.626704249901252],"reference_version":3,"hierarchy_version":4,"semantic_version":3,"source_footprint_share":1.007161,"framework_overlap":0.999771,"parent_match":"Greatest overlap with named district Bikaner: 99.98%","source_geography_sha256":"4ea6807d0a0c5aac0b46ee8e31ed7c30fbec273b44345bba1e4a2bb5f299f5fb","source_member_ids":["7132399B23352295489123"],"source_name_with_footnote":"Khajuwala","regional_match":{"reference_iso":"IND","source_id":"IND-3250","overlap":1.0,"method":"reference-territory-constrained overlap"},"reference_owner_id":"owner:Q668","reference_polity":"India","reference_polity_status":"reference","reference_polity_evidence":{"source":"Natural Earth pinned administrative and sovereignty reference; dates vary","source_url":"https://github.com/nvkelso/natural-earth-vector/tree/ca96624a56bd078437bca8184e78163e5039ad19","reference_territory":"India","classification":"Sovereign country","note":null,"uncertainty":false},"semantic_review":{"status":"open","continent":"Asia","decision_index":343,"evidence_file":"geographic-decisions"}}},"geometry":{"type":"Polygon","coordinates":[[[72.2993,28.6698],[72.355,28.7337],[72.4038,28.7829],[72.41035409634591,28.785410816301603],[72.41741640602726,28.788116324633954],[72.4795,28.8119],[72.64756606027859,28.902481058461838],[72.64857709168308,28.903025964998026],[72.65699799955809,28.891282999910572],[72.66244499983691,28.884352000444494],[72.67189799959306,28.869649999647834],[72.67337000002556,28.863725999855035],[72.68206800003821,28.855769999885638],[72.68713399983426,28.85177399997019],[72.69644200009827,28.843117000049574],[72.70079000005853,28.8384630003672],[72.70481100022755,28.833981999669618],[72.70911399991121,28.82832499959909],[72.72224400016052,28.809899999785216],[72.72782899960868,28.80607999989212],[72.735214000226,28.802345000321566],[72.73944100000222,28.796452000159718],[72.74021855744053,28.79473993559958],[72.74257699982871,28.789547000094046],[72.74682599972016,28.782651999590144],[72.75450512001532,28.79079625914011],[72.76120908473155,28.78434402095985],[72.78207871705922,28.75292416202052],[72.78934976188208,28.738772843092306],[72.79635022228501,28.72968388979973],[72.79819779579168,28.722194766575285],[72.80149652974109,28.718192055918678],[72.77483790744355,28.683336751689808],[72.77197571430781,28.681896073744838],[72.74880867478055,28.678729872885356],[72.74289244782824,28.67631131081839],[72.73264262175962,28.660142967224203],[72.7184190710833,28.642510123543445],[72.71285102475503,28.63049685104886],[72.6951908236976,28.622911648753643],[72.67686030216129,28.611160108652143],[72.65364990362019,28.590969927620108],[72.64733193602007,28.57834106468846],[72.64382991571807,28.57473921604202],[72.62548977863042,28.565452542301045],[72.60074410065977,28.560211648648703],[72.58997958089299,28.550567215604588],[72.58695247457712,28.543416574715195],[72.58457936784362,28.52324084398981],[72.58140155673652,28.513720530877833],[72.58228573959525,28.49915648878101],[72.57963702752687,28.484947324559414],[72.58065619592674,28.479803355340607],[72.58769146728741,28.473841718920255],[72.58922993031706,28.470558433524957],[72.5823474043093,28.42212405348232],[72.57878191525322,28.420563911395448],[72.56437487859785,28.4194119446056],[72.55630024725866,28.40885687784271],[72.52507443863448,28.385634028187894],[72.50931417410993,28.371436694547867],[72.49400730279484,28.354916097300077],[72.4888326514058,28.356926084771032],[72.46816043105912,28.357886534635895],[72.44824394340333,28.356185648648818],[72.43464499616971,28.356522204636065],[72.42343794520508,28.35679855281103],[72.39938260572274,28.35774123117295],[72.36554611286289,28.362311693729737],[72.3320716142137,28.37086448021165],[72.3072327646804,28.381097897250186],[72.27826340812982,28.388321269910705],[72.22973736198975,28.396134513297227],[72.20970379969066,28.402364379712424],[72.20796048971074,28.399305202816034],[72.2327,28.4739],[72.2792,28.6043],[72.2993,28.6698]]]}}
