{"features":[{"geometry":{"coordinates":[[[-165.621571,54.296617],[-165.62002881617434,54.295815960736945],[-165.62613654146398,54.29648154618518],[-165.621571,54.296617]]],"type":"Polygon"},"id":"physical-gap:1586:131:f6f8b48a2f3d31bc50ea73d20075f5cb7dacb17266ae3ad8e3897abd45565614","properties":{"component_id":"physical-component:073d9a81648d56c1b63a4e495fbd0140c17659bedb5c9b211739642b438ee488","exact_location_contact_count":1,"geometry_sha256":"f6f8b48a2f3d31bc50ea73d20075f5cb7dacb17266ae3ad8e3897abd45565614","original_detector_properties":{"administrative_assignment":null,"area_m2":14009.37060482329,"exact_location_contacts":[{"geometry":{"coordinates":[[-165.62002881617434,54.295815960736945],[-165.62613654146398,54.29648154618518]],"type":"LineString"},"id":"gb:USA:ADM2:52423323B46246640861022","input_path":"data/geography/part-26.json","kind":"positive-length-boundary","name":"Aleutians East","reference_year":"2018","source":"https://github.com/wmgeolab/geoBoundaries/raw/9469f09/releaseData/gbOpen/USA/ADM2/geoBoundaries-USA-ADM2.geojson"}],"original_planar_area":1.9330363260441035e-06,"status":"uncovered-physical-reference-candidate","tile":[-170,50,-165,55],"touches_reference_shore":true,"water_diagnostics":[],"water_status":"unverified"},"original_feature_sha256":"994a84c8bbdd32ccca27b18ae5ff267f0e3c5018b0e8886cd0984b43bf44d44d","source_shard":"coordination/engineering/physical-gap-audit-1005-20261005-local18/detection-v4/candidates-011.geojson.gz","source_shard_sha256":"5228e4344b42adf8445f95d67f3eec5ff107a4632840cac86c10b31246d82fa5","tile":[-170,50,-165,55]},"type":"Feature"},{"geometry":{"coordinates":[[[-160.477528,55.494615],[-160.48280135251972,55.49208761292601],[-160.47591925053646,55.49711546981533],[-160.477528,55.494615]]],"type":"Polygon"},"id":"physical-gap:1659:34:dec957bf2af7f3cb3756e99fb862e4c92b7d84c10cd5837f9c12b441400055d8","properties":{"component_id":"physical-component:9f130f023a510be6e4b2f9075ed99cf75c4f88053e93189dda3f0bd51080f14a","exact_location_contact_count":1,"geometry_sha256":"dec957bf2af7f3cb3756e99fb862e4c92b7d84c10cd5837f9c12b441400055d8","original_detector_properties":{"administrative_assignment":null,"area_m2":32087.203739158304,"exact_location_contacts":[{"geometry":{"coordinates":[[[-160.48280135251972,55.49208761292601],[-160.47591925053646,55.49711546981533],[-160.47591925053646,55.49711546981531],[-160.4828013525197,55.492087612926014],[-160.48280135251972,55.49208761292601]]],"type":"Polygon"},"id":"gb:USA:ADM2:52423323B46246640861022","input_path":"data/geography/part-26.json","kind":"positive-area-intersection-flag","name":"Aleutians East","reference_year":"2018","source":"https://github.com/wmgeolab/geoBoundaries/raw/9469f09/releaseData/gbOpen/USA/ADM2/geoBoundaries-USA-ADM2.geojson"}],"original_planar_area":4.559963100818057e-06,"status":"uncovered-physical-reference-candidate","tile":[-165,55,-160,60],"touches_reference_shore":true,"water_diagnostics":[],"water_status":"unverified"},"original_feature_sha256":"7516830645b3e2c163848bb5ca261d76e8add6baeee161ede86f9f91b9b8c490","source_shard":"coordination/engineering/physical-gap-audit-1005-20261005-local18/detection-v4/candidates-012.geojson.gz","source_shard_sha256":"52a1f9104dd4045ba05e9a07769df81477f4e915afb636c508dec15dbe2b88d8","tile":[-165,55,-160,60]},"type":"Feature"},{"geometry":{"coordinates":[[[-159.578725,55.050686],[-159.5905911127291,55.05071796941923],[-159.5807578474079,55.05578945665182],[-159.578725,55.050686]]],"type":"Polygon"},"id":"physical-gap:1660:3:17ef6c1e9f81fa0ccebb0d6c9bb44753d0935bf3b50464f5f213937d6e3ecd47","properties":{"component_id":"physical-component:8fb2ed9360ba13f6b19f8bb6ee9a16099039d8b59c9f51eab0a442249f428e7d","exact_location_contact_count":1,"geometry_sha256":"17ef6c1e9f81fa0ccebb0d6c9bb44753d0935bf3b50464f5f213937d6e3ecd47","original_detector_properties":{"administrative_assignment":null,"area_m2":215199.34167664347,"exact_location_contacts":[{"geometry":{"coordinates":[[-159.5822789475373,55.05500495225437],[-159.5807578474079,55.05578945665182]],"type":"LineString"},"id":"gb:USA:ADM2:52423323B46246640861022","input_path":"data/geography/part-26.json","kind":"positive-length-boundary","name":"Aleutians East","reference_year":"2018","source":"https://github.com/wmgeolab/geoBoundaries/raw/9469f09/releaseData/gbOpen/USA/ADM2/geoBoundaries-USA-ADM2.geojson"}],"original_planar_area":3.0246601493822555e-05,"status":"uncovered-physical-reference-candidate","tile":[-160,55,-155,60],"touches_reference_shore":true,"water_diagnostics":[],"water_status":"unverified"},"original_feature_sha256":"4c2c86b8acc93469e2643e406e6a3ea169125d56a3449bd6273180c89aaa7ca3","source_shard":"coordination/engineering/physical-gap-audit-1005-20261005-local18/detection-v4/candidates-012.geojson.gz","source_shard_sha256":"52a1f9104dd4045ba05e9a07769df81477f4e915afb636c508dec15dbe2b88d8","tile":[-160,55,-155,60]},"type":"Feature"},{"geometry":{"coordinates":[[[-152.9043904286011,58.34208603035516],[-152.9273842181067,58.33386602830968],[-152.924672,58.338324],[-152.906239,58.34219],[-152.9043904286011,58.34208603035516]]],"type":"Polygon"},"id":"physical-gap:1661:105:41d44c7ab86d4681528f4d4a4d506f65b3a780412729685c96141ec8256cc98d","properties":{"component_id":"physical-component:5874689a46f7945e9dcc67cc3b0321d4e534572e4b4bd8a85f4a07c5005d1922","exact_location_contact_count":1,"geometry_sha256":"41d44c7ab86d4681528f4d4a4d506f65b3a780412729685c96141ec8256cc98d","original_detector_properties":{"administrative_assignment":null,"area_m2":291220.85624509753,"exact_location_contacts":[{"geometry":{"coordinates":[[-152.9043904286011,58.34208603035516],[-152.9273842181067,58.33386602830968]],"type":"LineString"},"id":"gb:USA:ADM2:52423323B80008995120080","input_path":"data/geography/part-26.json","kind":"positive-length-boundary","name":"Kodiak Island","reference_year":"2018","source":"https://github.com/wmgeolab/geoBoundaries/raw/9469f09/releaseData/gbOpen/USA/ADM2/geoBoundaries-USA-ADM2.geojson"}],"original_planar_area":4.4637136887864996e-05,"status":"uncovered-physical-reference-candidate","tile":[-155,55,-150,60],"touches_reference_shore":true,"water_diagnostics":[],"water_status":"unverified"},"original_feature_sha256":"f3e13a83052822a1c3eab7c7da06ac4e008be23054c6803c66582276d6fba60f","source_shard":"coordination/engineering/physical-gap-audit-1005-20261005-local18/detection-v4/candidates-012.geojson.gz","source_shard_sha256":"52a1f9104dd4045ba05e9a07769df81477f4e915afb636c508dec15dbe2b88d8","tile":[-155,55,-150,60]},"type":"Feature"},{"geometry":{"coordinates":[[[-154.644765,58.035468],[-154.648305,58.045478],[-154.6483177245643,58.047293371174106],[-154.6447156259101,58.03545242985342],[-154.644765,58.035468]]],"type":"Polygon"},"id":"physical-gap:1661:136:bf950debb709d2d8bcf564abb052c11c517b462184bae13f2df1c9c83ce77a8c","properties":{"component_id":"physical-component:d688afd3657ded3f0cf85a95956f2d42726f44923b168499320d681080539fb1","exact_location_contact_count":1,"geometry_sha256":"bf950debb709d2d8bcf564abb052c11c517b462184bae13f2df1c9c83ce77a8c","original_detector_properties":{"administrative_assignment":null,"area_m2":22457.042382348984,"exact_location_contacts":[{"geometry":{"coordinates":[[[-154.6483177245643,58.047293371174106],[-154.6447156259101,58.03545242985342],[-154.64471562591012,58.03545242985343],[-154.6483177245643,58.04729337117409],[-154.6483177245643,58.047293371174106]]],"type":"Polygon"},"id":"gb:USA:ADM2:52423323B80008995120080","input_path":"data/geography/part-26.json","kind":"positive-area-intersection-flag","name":"Kodiak Island","reference_year":"2018","source":"https://github.com/wmgeolab/geoBoundaries/raw/9469f09/releaseData/gbOpen/USA/ADM2/geoBoundaries-USA-ADM2.geojson"}],"original_planar_area":3.4137957825121233e-06,"status":"uncovered-physical-reference-candidate","tile":[-155,55,-150,60],"touches_reference_shore":true,"water_diagnostics":[],"water_status":"unverified"},"original_feature_sha256":"a5709cbd5a9081fc5ab4b5f7110ecbd239d64055123f42bb8e8eaeeacd3e04d8","source_shard":"coordination/engineering/physical-gap-audit-1005-20261005-local18/detection-v4/candidates-012.geojson.gz","source_shard_sha256":"52a1f9104dd4045ba05e9a07769df81477f4e915afb636c508dec15dbe2b88d8","tile":[-155,55,-150,60]},"type":"Feature"},{"geometry":{"coordinates":[[[-153.071034,58.240139],[-153.085072,58.24787],[-153.0869435897109,58.249640489840345],[-153.06913867486497,58.23980792492544],[-153.071034,58.240139]]],"type":"Polygon"},"id":"physical-gap:1661:160:3e1ac087fab9421cc3640d3b8a34ba29d9ccec237266cc0da3d63df6832ec35a","properties":{"component_id":"physical-component:777e7bc99320bf155684f99b0903c336f9a07862de4a7fa0ac8cde990d7d6ee5","exact_location_contact_count":1,"geometry_sha256":"3e1ac087fab9421cc3640d3b8a34ba29d9ccec237266cc0da3d63df6832ec35a","original_detector_properties":{"administrative_assignment":null,"area_m2":75638.23508478106,"exact_location_contacts":[{"geometry":{"coordinates":[[-153.08290098459776,58.24740800641966],[-153.06913867486497,58.23980792492544]],"type":"LineString"},"id":"gb:USA:ADM2:52423323B80008995120080","input_path":"data/geography/part-26.json","kind":"positive-length-boundary","name":"Kodiak Island","reference_year":"2018","source":"https://github.com/wmgeolab/geoBoundaries/raw/9469f09/releaseData/gbOpen/USA/ADM2/geoBoundaries-USA-ADM2.geojson"}],"original_planar_area":1.1563010119293906e-05,"status":"uncovered-physical-reference-candidate","tile":[-155,55,-150,60],"touches_reference_shore":true,"water_diagnostics":[],"water_status":"unverified"},"original_feature_sha256":"b620804be6c3e0348f1c14c9f8295cafa92ac56792351d9bd576f310a36ad325","source_shard":"coordination/engineering/physical-gap-audit-1005-20261005-local18/detection-v4/candidates-012.geojson.gz","source_shard_sha256":"52a1f9104dd4045ba05e9a07769df81477f4e915afb636c508dec15dbe2b88d8","tile":[-155,55,-150,60]},"type":"Feature"},{"geometry":{"coordinates":[[[-151.646924,59.103936],[-151.65153308754486,59.10224222812531],[-151.64549242161172,59.10921416338981],[-151.646924,59.103936]]],"type":"Polygon"},"id":"physical-gap:1661:184:907c83f85d8cf18610a1122270e4fdac03104017b0e5237dee17b6c8c74695ad","properties":{"component_id":"physical-component:66e4f6c15eb17f53815844efc04e7cae9faf9118de313541d3a4be2ff1fcf0a2","exact_location_contact_count":1,"geometry_sha256":"907c83f85d8cf18610a1122270e4fdac03104017b0e5237dee17b6c8c74695ad","original_detector_properties":{"administrative_assignment":null,"area_m2":69903.11871058762,"exact_location_contacts":[{"geometry":{"coordinates":[[[-151.65153308754486,59.10224222812531],[-151.64549242161172,59.10921416338981],[-151.64549242161172,59.109214163389794],[-151.65153308754483,59.10224222812532],[-151.65153308754486,59.10224222812531]]],"type":"Polygon"},"id":"gb:USA:ADM2:52423323B64721050065013","input_path":"data/geography/part-27.json","kind":"positive-area-intersection-flag","name":"Kenai Peninsula","reference_year":"2018","source":"https://github.com/wmgeolab/geoBoundaries/raw/9469f09/releaseData/gbOpen/USA/ADM2/geoBoundaries-USA-ADM2.geojson"}],"original_planar_area":1.0951374964581866e-05,"status":"uncovered-physical-reference-candidate","tile":[-155,55,-150,60],"touches_reference_shore":true,"water_diagnostics":[],"water_status":"unverified"},"original_feature_sha256":"edd7742a35f997ff806710cf1c140f8df59543b2fd998b54b7a55b609dcbb7ff","source_shard":"coordination/engineering/physical-gap-audit-1005-20261005-local18/detection-v4/candidates-012.geojson.gz","source_shard_sha256":"52a1f9104dd4045ba05e9a07769df81477f4e915afb636c508dec15dbe2b88d8","tile":[-155,55,-150,60]},"type":"Feature"},{"geometry":{"coordinates":[[[-135.90941810838922,58.38215233074081],[-135.90786844850254,58.381162932505475],[-135.909413,58.381293],[-135.90941810838922,58.38215233074081]]],"type":"Polygon"},"id":"physical-gap:1664:44:94ea7b1ce6a9fba2d85df60d3601fcf67a5e766d371bdbc85816591aa88731d8","properties":{"component_id":"physical-component:e76fd386dc9a23375537ede302f7f380a217fd4bbccd9536f856e8b4253a5ab8","exact_location_contact_count":1,"geometry_sha256":"94ea7b1ce6a9fba2d85df60d3601fcf67a5e766d371bdbc85816591aa88731d8","original_detector_properties":{"administrative_assignment":null,"area_m2":4322.294872922053,"exact_location_contacts":[{"geometry":{"coordinates":[[-135.90826402351,58.3814154919333],[-135.90786844850254,58.381162932505475]],"type":"LineString"},"id":"gb:USA:ADM2:52423323B82121365400499","input_path":"data/geography/part-25.json","kind":"positive-length-boundary","name":"Hoonah-Angoon","reference_year":"2018","source":"https://github.com/wmgeolab/geoBoundaries/raw/9469f09/releaseData/gbOpen/USA/ADM2/geoBoundaries-USA-ADM2.geojson"}],"original_planar_area":6.633080735718506e-07,"status":"uncovered-physical-reference-candidate","tile":[-140,55,-135,60],"touches_reference_shore":true,"water_diagnostics":[],"water_status":"unverified"},"original_feature_sha256":"49995aca3ef8264a6ee27fe17830baed5c09919f56ff9723006b6c5bbcf21771","source_shard":"coordination/engineering/physical-gap-audit-1005-20261005-local18/detection-v4/candidates-012.geojson.gz","source_shard_sha256":"52a1f9104dd4045ba05e9a07769df81477f4e915afb636c508dec15dbe2b88d8","tile":[-140,55,-135,60]},"type":"Feature"},{"geometry":{"coordinates":[[[-133.236057,55.44022],[-133.2363651014453,55.43656361371016],[-133.2383731296629,55.44048026280781],[-133.236057,55.44022]]],"type":"Polygon"},"id":"physical-gap:1665:133:96fac28646b8469ca0fa115c7bb9def542d10af7177181bc7315af3a667c92cf","properties":{"component_id":"physical-component:ef7383db4412abe64b7e8d009679cffa4a3174d6da100c6de1fc37272aadeca9","exact_location_contact_count":1,"geometry_sha256":"96fac28646b8469ca0fa115c7bb9def542d10af7177181bc7315af3a667c92cf","original_detector_properties":{"administrative_assignment":null,"area_m2":30119.9747102038,"exact_location_contacts":[{"geometry":{"coordinates":[[[-133.2383731296629,55.44048026280781],[-133.23837312966288,55.44048026280781],[-133.23729759879518,55.438382445174724],[-133.2383731296629,55.44048026280781]]],"type":"Polygon"},"id":"gb:USA:ADM2:52423323B55198873775030","input_path":"data/geography/part-25.json","kind":"positive-area-intersection-flag","name":"Prince of Wales-Hyder","reference_year":"2018","source":"https://github.com/wmgeolab/geoBoundaries/raw/9469f09/releaseData/gbOpen/USA/ADM2/geoBoundaries-USA-ADM2.geojson"}],"original_planar_area":4.2744260461045755e-06,"status":"uncovered-physical-reference-candidate","tile":[-135,55,-130,60],"touches_reference_shore":true,"water_diagnostics":[],"water_status":"unverified"},"original_feature_sha256":"03bcc93042ed204dd12926503d803421dd5416ca11d5534726a760d9d62f1d1d","source_shard":"coordination/engineering/physical-gap-audit-1005-20261005-local18/detection-v4/candidates-012.geojson.gz","source_shard_sha256":"52a1f9104dd4045ba05e9a07769df81477f4e915afb636c508dec15dbe2b88d8","tile":[-135,55,-130,60]},"type":"Feature"},{"geometry":{"coordinates":[[[-164.638987,63.090522],[-164.6374737326197,63.091904215278475],[-164.63981257931678,63.087934613086176],[-164.638987,63.090522]]],"type":"Polygon"},"id":"physical-gap:1731:50:e8008a38d7471bb24692375751c6e6671e47332b2cc52c472158c2686afdd59e","properties":{"component_id":"physical-component:cffd5f514585665c2d76279e036889887df24efa229a67f88052aef0d8ee4a83","exact_location_contact_count":1,"geometry_sha256":"e8008a38d7471bb24692375751c6e6671e47332b2cc52c472158c2686afdd59e","original_detector_properties":{"administrative_assignment":null,"area_m2":7810.611633399512,"exact_location_contacts":[{"geometry":{"coordinates":[[-164.6374737326197,63.091904215278475],[-164.63981257931678,63.087934613086176]],"type":"LineString"},"id":"gb:USA:ADM2:52423323B57268278189593","input_path":"data/geography/part-25.json","kind":"positive-length-boundary","name":"Kusilvak","reference_year":"2018","source":"https://github.com/wmgeolab/geoBoundaries/raw/9469f09/releaseData/gbOpen/USA/ADM2/geoBoundaries-USA-ADM2.geojson"}],"original_planar_area":1.3871399358042853e-06,"status":"uncovered-physical-reference-candidate","tile":[-165,60,-160,65],"touches_reference_shore":true,"water_diagnostics":[],"water_status":"unverified"},"original_feature_sha256":"53573ab54b378a6940b6a7465d043c096f09ead2405323284fd58338a5532765","source_shard":"coordination/engineering/physical-gap-audit-1005-20261005-local18/detection-v4/candidates-013.geojson.gz","source_shard_sha256":"518fe9bf7f869670af7529dd235391b7dfc4794500984e47173249d2da997dab","tile":[-165,60,-160,65]},"type":"Feature"},{"geometry":{"coordinates":[[[-147.310536,60.874457],[-147.318918,60.877265],[-147.3187707276284,60.878977132004906],[-147.31005943450572,60.874403703115505],[-147.310536,60.874457]]],"type":"Polygon"},"id":"physical-gap:1734:130:33655bbd4900f942bd4bd4fae9066bad21fe0a51d75484c9a006210a59b0b503","properties":{"component_id":"physical-component:70174bffffdbb4a421344d6c10d80b760972f9c5452daf0d7c26408fdf18bb53","exact_location_contact_count":1,"geometry_sha256":"33655bbd4900f942bd4bd4fae9066bad21fe0a51d75484c9a006210a59b0b503","original_detector_properties":{"administrative_assignment":null,"area_m2":49871.207903061,"exact_location_contacts":[{"geometry":{"coordinates":[[[-147.3187707276284,60.878977132004906],[-147.31844083048674,60.87880393600553]],[[-147.31844083048674,60.87880393600553],[-147.31005943450572,60.874403703115505]]],"type":"MultiLineString"},"id":"gb:USA:ADM2:52423323B16539688175930","input_path":"data/geography/part-25.json","kind":"positive-length-boundary","name":"Valdez-Cordova","reference_year":"2018","source":"https://github.com/wmgeolab/geoBoundaries/raw/9469f09/releaseData/gbOpen/USA/ADM2/geoBoundaries-USA-ADM2.geojson"}],"original_planar_area":8.239942450245871e-06,"status":"uncovered-physical-reference-candidate","tile":[-150,60,-145,65],"touches_reference_shore":true,"water_diagnostics":[],"water_status":"unverified"},"original_feature_sha256":"490378b92bef862319629db1d27c4e729295fac4c34ede8644550fec1a5ac428","source_shard":"coordination/engineering/physical-gap-audit-1005-20261005-local18/detection-v4/candidates-013.geojson.gz","source_shard_sha256":"518fe9bf7f869670af7529dd235391b7dfc4794500984e47173249d2da997dab","tile":[-150,60,-145,65]},"type":"Feature"},{"geometry":{"coordinates":[[[-147.142323,60.909166],[-147.14107170781995,60.90897079231285],[-147.14295709363694,60.908755664956814],[-147.142323,60.909166]]],"type":"Polygon"},"id":"physical-gap:1734:132:80690097e995ab6c26d1447c7fc57d0190001d41ceca58cce24476b12550e295","properties":{"component_id":"physical-component:8435dc6d973751bab55c4eff12c872ba331c3e005254ceb21b76933a8cc6207a","exact_location_contact_count":1,"geometry_sha256":"80690097e995ab6c26d1447c7fc57d0190001d41ceca58cce24476b12550e295","original_detector_properties":{"administrative_assignment":null,"area_m2":1926.4428699408234,"exact_location_contacts":[{"geometry":{"coordinates":[[-147.14107170781995,60.90897079231285],[-147.1421141258144,60.90885184974682]],"type":"LineString"},"id":"gb:USA:ADM2:52423323B16539688175930","input_path":"data/geography/part-25.json","kind":"positive-length-boundary","name":"Valdez-Cordova","reference_year":"2018","source":"https://github.com/wmgeolab/geoBoundaries/raw/9469f09/releaseData/gbOpen/USA/ADM2/geoBoundaries-USA-ADM2.geojson"}],"original_planar_area":3.1861449152115264e-07,"status":"uncovered-physical-reference-candidate","tile":[-150,60,-145,65],"touches_reference_shore":true,"water_diagnostics":[],"water_status":"unverified"},"original_feature_sha256":"0bf152c698ce21a5ae48ad1bbc858e129fe92914d335eb9b535f5fca23f5a847","source_shard":"coordination/engineering/physical-gap-audit-1005-20261005-local18/detection-v4/candidates-013.geojson.gz","source_shard_sha256":"518fe9bf7f869670af7529dd235391b7dfc4794500984e47173249d2da997dab","tile":[-150,60,-145,65]},"type":"Feature"},{"geometry":{"coordinates":[[[-147.847076,60.693996],[-147.85489530353078,60.68891498560852],[-147.8485843623903,60.69757270888161],[-147.847076,60.693996]]],"type":"Polygon"},"id":"physical-gap:1734:32:d07064e1716715618bf6b0ddb7f313bafc26acc0d11ff250d094b71b91b10120","properties":{"component_id":"physical-component:4d36c81ff35079341e6ec0d5a207ba3844e26f5d55c30c7205924dfd33b8dc18","exact_location_contact_count":1,"geometry_sha256":"d07064e1716715618bf6b0ddb7f313bafc26acc0d11ff250d094b71b91b10120","original_detector_properties":{"administrative_assignment":null,"area_m2":108441.88619340758,"exact_location_contacts":[{"geometry":{"coordinates":[[[-147.85489530353078,60.68891498560852],[-147.85250697519447,60.69219143603972]],[[-147.85250697519447,60.69219143603972],[-147.8485843623903,60.69757270888161]]],"type":"MultiLineString"},"id":"gb:USA:ADM2:52423323B16539688175930","input_path":"data/geography/part-25.json","kind":"positive-length-boundary","name":"Valdez-Cordova","reference_year":"2018","source":"https://github.com/wmgeolab/geoBoundaries/raw/9469f09/releaseData/gbOpen/USA/ADM2/geoBoundaries-USA-ADM2.geojson"}],"original_planar_area":1.7815691699703097e-05,"status":"uncovered-physical-reference-candidate","tile":[-150,60,-145,65],"touches_reference_shore":true,"water_diagnostics":[],"water_status":"unverified"},"original_feature_sha256":"248d223f6e964a7574bcf9bc0bd9abf5bbcbafb6390fcd441230f13a086fd11f","source_shard":"coordination/engineering/physical-gap-audit-1005-20261005-local18/detection-v4/candidates-013.geojson.gz","source_shard_sha256":"518fe9bf7f869670af7529dd235391b7dfc4794500984e47173249d2da997dab","tile":[-150,60,-145,65]},"type":"Feature"}],"type":"FeatureCollection"}
