{
  "features": [
    {
      "geometry": {
        "coordinates": [
          [
            [
              -165.621571,
              54.296617
            ],
            [
              -165.62002881617434,
              54.295815960736945
            ],
            [
              -165.62613654146398,
              54.29648154618518
            ],
            [
              -165.621571,
              54.296617
            ]
          ]
        ],
        "type": "Polygon"
      },
      "id": "physical-component:073d9a81648d56c1b63a4e495fbd0140c17659bedb5c9b211739642b438ee488",
      "properties": {
        "administrative_assignment": null,
        "dateline_connected": false,
        "diagnostic_nearby_locations": [],
        "fragment_bindings": [
          {
            "feature_sha256": "994a84c8bbdd32ccca27b18ae5ff267f0e3c5018b0e8886cd0984b43bf44d44d",
            "id": "physical-gap:1586:131:f6f8b48a2f3d31bc50ea73d20075f5cb7dacb17266ae3ad8e3897abd45565614"
          }
        ],
        "measured_fragment_area_sum_m2": 14009.37060482329,
        "measured_fragment_count": 1,
        "positive_area_input_overlap": false,
        "touches_blocked_tile": false,
        "touches_domain_boundary": false,
        "touches_reference_shore": true,
        "unmeasured_fragment_ids": [],
        "water_status": "unverified"
      },
      "type": "Feature"
    },
    {
      "geometry": {
        "coordinates": [
          [
            [
              -147.847076,
              60.693996
            ],
            [
              -147.85489530353078,
              60.68891498560852
            ],
            [
              -147.8485843623903,
              60.69757270888161
            ],
            [
              -147.847076,
              60.693996
            ]
          ]
        ],
        "type": "Polygon"
      },
      "id": "physical-component:4d36c81ff35079341e6ec0d5a207ba3844e26f5d55c30c7205924dfd33b8dc18",
      "properties": {
        "administrative_assignment": null,
        "dateline_connected": false,
        "diagnostic_nearby_locations": [],
        "fragment_bindings": [
          {
            "feature_sha256": "248d223f6e964a7574bcf9bc0bd9abf5bbcbafb6390fcd441230f13a086fd11f",
            "id": "physical-gap:1734:32:d07064e1716715618bf6b0ddb7f313bafc26acc0d11ff250d094b71b91b10120"
          }
        ],
        "measured_fragment_area_sum_m2": 108441.88619340758,
        "measured_fragment_count": 1,
        "positive_area_input_overlap": false,
        "touches_blocked_tile": false,
        "touches_domain_boundary": false,
        "touches_reference_shore": true,
        "unmeasured_fragment_ids": [],
        "water_status": "unverified"
      },
      "type": "Feature"
    },
    {
      "geometry": {
        "coordinates": [
          [
            [
              -152.9043904286011,
              58.34208603035516
            ],
            [
              -152.9273842181067,
              58.33386602830968
            ],
            [
              -152.924672,
              58.338324
            ],
            [
              -152.906239,
              58.34219
            ],
            [
              -152.9043904286011,
              58.34208603035516
            ]
          ]
        ],
        "type": "Polygon"
      },
      "id": "physical-component:5874689a46f7945e9dcc67cc3b0321d4e534572e4b4bd8a85f4a07c5005d1922",
      "properties": {
        "administrative_assignment": null,
        "dateline_connected": false,
        "diagnostic_nearby_locations": [],
        "fragment_bindings": [
          {
            "feature_sha256": "f3e13a83052822a1c3eab7c7da06ac4e008be23054c6803c66582276d6fba60f",
            "id": "physical-gap:1661:105:41d44c7ab86d4681528f4d4a4d506f65b3a780412729685c96141ec8256cc98d"
          }
        ],
        "measured_fragment_area_sum_m2": 291220.85624509753,
        "measured_fragment_count": 1,
        "positive_area_input_overlap": false,
        "touches_blocked_tile": false,
        "touches_domain_boundary": false,
        "touches_reference_shore": true,
        "unmeasured_fragment_ids": [],
        "water_status": "unverified"
      },
      "type": "Feature"
    },
    {
      "geometry": {
        "coordinates": [
          [
            [
              -151.646924,
              59.103936
            ],
            [
              -151.65153308754486,
              59.10224222812531
            ],
            [
              -151.64549242161172,
              59.10921416338981
            ],
            [
              -151.646924,
              59.103936
            ]
          ]
        ],
        "type": "Polygon"
      },
      "id": "physical-component:66e4f6c15eb17f53815844efc04e7cae9faf9118de313541d3a4be2ff1fcf0a2",
      "properties": {
        "administrative_assignment": null,
        "dateline_connected": false,
        "diagnostic_nearby_locations": [],
        "fragment_bindings": [
          {
            "feature_sha256": "edd7742a35f997ff806710cf1c140f8df59543b2fd998b54b7a55b609dcbb7ff",
            "id": "physical-gap:1661:184:907c83f85d8cf18610a1122270e4fdac03104017b0e5237dee17b6c8c74695ad"
          }
        ],
        "measured_fragment_area_sum_m2": 69903.11871058762,
        "measured_fragment_count": 1,
        "positive_area_input_overlap": false,
        "touches_blocked_tile": false,
        "touches_domain_boundary": false,
        "touches_reference_shore": true,
        "unmeasured_fragment_ids": [],
        "water_status": "unverified"
      },
      "type": "Feature"
    },
    {
      "geometry": {
        "coordinates": [
          [
            [
              -147.310536,
              60.874457
            ],
            [
              -147.318918,
              60.877265
            ],
            [
              -147.3187707276284,
              60.878977132004906
            ],
            [
              -147.31005943450572,
              60.874403703115505
            ],
            [
              -147.310536,
              60.874457
            ]
          ]
        ],
        "type": "Polygon"
      },
      "id": "physical-component:70174bffffdbb4a421344d6c10d80b760972f9c5452daf0d7c26408fdf18bb53",
      "properties": {
        "administrative_assignment": null,
        "dateline_connected": false,
        "diagnostic_nearby_locations": [],
        "fragment_bindings": [
          {
            "feature_sha256": "490378b92bef862319629db1d27c4e729295fac4c34ede8644550fec1a5ac428",
            "id": "physical-gap:1734:130:33655bbd4900f942bd4bd4fae9066bad21fe0a51d75484c9a006210a59b0b503"
          }
        ],
        "measured_fragment_area_sum_m2": 49871.207903061,
        "measured_fragment_count": 1,
        "positive_area_input_overlap": false,
        "touches_blocked_tile": false,
        "touches_domain_boundary": false,
        "touches_reference_shore": true,
        "unmeasured_fragment_ids": [],
        "water_status": "unverified"
      },
      "type": "Feature"
    },
    {
      "geometry": {
        "coordinates": [
          [
            [
              -153.071034,
              58.240139
            ],
            [
              -153.085072,
              58.24787
            ],
            [
              -153.0869435897109,
              58.249640489840345
            ],
            [
              -153.06913867486497,
              58.23980792492544
            ],
            [
              -153.071034,
              58.240139
            ]
          ]
        ],
        "type": "Polygon"
      },
      "id": "physical-component:777e7bc99320bf155684f99b0903c336f9a07862de4a7fa0ac8cde990d7d6ee5",
      "properties": {
        "administrative_assignment": null,
        "dateline_connected": false,
        "diagnostic_nearby_locations": [],
        "fragment_bindings": [
          {
            "feature_sha256": "b620804be6c3e0348f1c14c9f8295cafa92ac56792351d9bd576f310a36ad325",
            "id": "physical-gap:1661:160:3e1ac087fab9421cc3640d3b8a34ba29d9ccec237266cc0da3d63df6832ec35a"
          }
        ],
        "measured_fragment_area_sum_m2": 75638.23508478106,
        "measured_fragment_count": 1,
        "positive_area_input_overlap": false,
        "touches_blocked_tile": false,
        "touches_domain_boundary": false,
        "touches_reference_shore": true,
        "unmeasured_fragment_ids": [],
        "water_status": "unverified"
      },
      "type": "Feature"
    },
    {
      "geometry": {
        "coordinates": [
          [
            [
              -147.142323,
              60.909166
            ],
            [
              -147.14107170781995,
              60.90897079231285
            ],
            [
              -147.14295709363694,
              60.908755664956814
            ],
            [
              -147.142323,
              60.909166
            ]
          ]
        ],
        "type": "Polygon"
      },
      "id": "physical-component:8435dc6d973751bab55c4eff12c872ba331c3e005254ceb21b76933a8cc6207a",
      "properties": {
        "administrative_assignment": null,
        "dateline_connected": false,
        "diagnostic_nearby_locations": [],
        "fragment_bindings": [
          {
            "feature_sha256": "0bf152c698ce21a5ae48ad1bbc858e129fe92914d335eb9b535f5fca23f5a847",
            "id": "physical-gap:1734:132:80690097e995ab6c26d1447c7fc57d0190001d41ceca58cce24476b12550e295"
          }
        ],
        "measured_fragment_area_sum_m2": 1926.4428699408234,
        "measured_fragment_count": 1,
        "positive_area_input_overlap": false,
        "touches_blocked_tile": false,
        "touches_domain_boundary": false,
        "touches_reference_shore": true,
        "unmeasured_fragment_ids": [],
        "water_status": "unverified"
      },
      "type": "Feature"
    },
    {
      "geometry": {
        "coordinates": [
          [
            [
              -159.578725,
              55.050686
            ],
            [
              -159.5905911127291,
              55.05071796941923
            ],
            [
              -159.5807578474079,
              55.05578945665182
            ],
            [
              -159.578725,
              55.050686
            ]
          ]
        ],
        "type": "Polygon"
      },
      "id": "physical-component:8fb2ed9360ba13f6b19f8bb6ee9a16099039d8b59c9f51eab0a442249f428e7d",
      "properties": {
        "administrative_assignment": null,
        "dateline_connected": false,
        "diagnostic_nearby_locations": [],
        "fragment_bindings": [
          {
            "feature_sha256": "4c2c86b8acc93469e2643e406e6a3ea169125d56a3449bd6273180c89aaa7ca3",
            "id": "physical-gap:1660:3:17ef6c1e9f81fa0ccebb0d6c9bb44753d0935bf3b50464f5f213937d6e3ecd47"
          }
        ],
        "measured_fragment_area_sum_m2": 215199.34167664347,
        "measured_fragment_count": 1,
        "positive_area_input_overlap": false,
        "touches_blocked_tile": false,
        "touches_domain_boundary": false,
        "touches_reference_shore": true,
        "unmeasured_fragment_ids": [],
        "water_status": "unverified"
      },
      "type": "Feature"
    },
    {
      "geometry": {
        "coordinates": [
          [
            [
              -160.477528,
              55.494615
            ],
            [
              -160.48280135251972,
              55.49208761292601
            ],
            [
              -160.47591925053646,
              55.49711546981533
            ],
            [
              -160.477528,
              55.494615
            ]
          ]
        ],
        "type": "Polygon"
      },
      "id": "physical-component:9f130f023a510be6e4b2f9075ed99cf75c4f88053e93189dda3f0bd51080f14a",
      "properties": {
        "administrative_assignment": null,
        "dateline_connected": false,
        "diagnostic_nearby_locations": [],
        "fragment_bindings": [
          {
            "feature_sha256": "7516830645b3e2c163848bb5ca261d76e8add6baeee161ede86f9f91b9b8c490",
            "id": "physical-gap:1659:34:dec957bf2af7f3cb3756e99fb862e4c92b7d84c10cd5837f9c12b441400055d8"
          }
        ],
        "measured_fragment_area_sum_m2": 32087.203739158304,
        "measured_fragment_count": 1,
        "positive_area_input_overlap": false,
        "touches_blocked_tile": false,
        "touches_domain_boundary": false,
        "touches_reference_shore": true,
        "unmeasured_fragment_ids": [],
        "water_status": "unverified"
      },
      "type": "Feature"
    },
    {
      "geometry": {
        "coordinates": [
          [
            [
              -164.638987,
              63.090522
            ],
            [
              -164.6374737326197,
              63.091904215278475
            ],
            [
              -164.63981257931678,
              63.087934613086176
            ],
            [
              -164.638987,
              63.090522
            ]
          ]
        ],
        "type": "Polygon"
      },
      "id": "physical-component:cffd5f514585665c2d76279e036889887df24efa229a67f88052aef0d8ee4a83",
      "properties": {
        "administrative_assignment": null,
        "dateline_connected": false,
        "diagnostic_nearby_locations": [],
        "fragment_bindings": [
          {
            "feature_sha256": "53573ab54b378a6940b6a7465d043c096f09ead2405323284fd58338a5532765",
            "id": "physical-gap:1731:50:e8008a38d7471bb24692375751c6e6671e47332b2cc52c472158c2686afdd59e"
          }
        ],
        "measured_fragment_area_sum_m2": 7810.611633399512,
        "measured_fragment_count": 1,
        "positive_area_input_overlap": false,
        "touches_blocked_tile": false,
        "touches_domain_boundary": false,
        "touches_reference_shore": true,
        "unmeasured_fragment_ids": [],
        "water_status": "unverified"
      },
      "type": "Feature"
    },
    {
      "geometry": {
        "coordinates": [
          [
            [
              -154.644765,
              58.035468
            ],
            [
              -154.648305,
              58.045478
            ],
            [
              -154.6483177245643,
              58.047293371174106
            ],
            [
              -154.6447156259101,
              58.03545242985342
            ],
            [
              -154.644765,
              58.035468
            ]
          ]
        ],
        "type": "Polygon"
      },
      "id": "physical-component:d688afd3657ded3f0cf85a95956f2d42726f44923b168499320d681080539fb1",
      "properties": {
        "administrative_assignment": null,
        "dateline_connected": false,
        "diagnostic_nearby_locations": [],
        "fragment_bindings": [
          {
            "feature_sha256": "a5709cbd5a9081fc5ab4b5f7110ecbd239d64055123f42bb8e8eaeeacd3e04d8",
            "id": "physical-gap:1661:136:bf950debb709d2d8bcf564abb052c11c517b462184bae13f2df1c9c83ce77a8c"
          }
        ],
        "measured_fragment_area_sum_m2": 22457.042382348984,
        "measured_fragment_count": 1,
        "positive_area_input_overlap": false,
        "touches_blocked_tile": false,
        "touches_domain_boundary": false,
        "touches_reference_shore": true,
        "unmeasured_fragment_ids": [],
        "water_status": "unverified"
      },
      "type": "Feature"
    },
    {
      "geometry": {
        "coordinates": [
          [
            [
              -135.90941810838922,
              58.38215233074081
            ],
            [
              -135.90786844850254,
              58.381162932505475
            ],
            [
              -135.909413,
              58.381293
            ],
            [
              -135.90941810838922,
              58.38215233074081
            ]
          ]
        ],
        "type": "Polygon"
      },
      "id": "physical-component:e76fd386dc9a23375537ede302f7f380a217fd4bbccd9536f856e8b4253a5ab8",
      "properties": {
        "administrative_assignment": null,
        "dateline_connected": false,
        "diagnostic_nearby_locations": [],
        "fragment_bindings": [
          {
            "feature_sha256": "49995aca3ef8264a6ee27fe17830baed5c09919f56ff9723006b6c5bbcf21771",
            "id": "physical-gap:1664:44:94ea7b1ce6a9fba2d85df60d3601fcf67a5e766d371bdbc85816591aa88731d8"
          }
        ],
        "measured_fragment_area_sum_m2": 4322.294872922053,
        "measured_fragment_count": 1,
        "positive_area_input_overlap": false,
        "touches_blocked_tile": false,
        "touches_domain_boundary": false,
        "touches_reference_shore": true,
        "unmeasured_fragment_ids": [],
        "water_status": "unverified"
      },
      "type": "Feature"
    },
    {
      "geometry": {
        "coordinates": [
          [
            [
              -133.236057,
              55.44022
            ],
            [
              -133.2363651014453,
              55.43656361371016
            ],
            [
              -133.2383731296629,
              55.44048026280781
            ],
            [
              -133.236057,
              55.44022
            ]
          ]
        ],
        "type": "Polygon"
      },
      "id": "physical-component:ef7383db4412abe64b7e8d009679cffa4a3174d6da100c6de1fc37272aadeca9",
      "properties": {
        "administrative_assignment": null,
        "dateline_connected": false,
        "diagnostic_nearby_locations": [],
        "fragment_bindings": [
          {
            "feature_sha256": "03bcc93042ed204dd12926503d803421dd5416ca11d5534726a760d9d62f1d1d",
            "id": "physical-gap:1665:133:96fac28646b8469ca0fa115c7bb9def542d10af7177181bc7315af3a667c92cf"
          }
        ],
        "measured_fragment_area_sum_m2": 30119.9747102038,
        "measured_fragment_count": 1,
        "positive_area_input_overlap": false,
        "touches_blocked_tile": false,
        "touches_domain_boundary": false,
        "touches_reference_shore": true,
        "unmeasured_fragment_ids": [],
        "water_status": "unverified"
      },
      "type": "Feature"
    }
  ],
  "type": "FeatureCollection"
}
