{"type":"FeatureCollection","name":"natural-earth-10m-admin1-selected","features":[{"type":"Feature","id":"ATF-5919","properties":{"featurecla":"Admin-1 states provinces","scalerank":10,"adm1_code":"ATF-5919","diss_me":5919,"iso_3166_2":"TF-X03~","wikipedia":"","iso_a2":"TF","adm0_sr":5,"name":"Iles Eparses de l'ocean Indien","name_alt":"","name_local":"","type":"","type_en":"","code_local":"","code_hasc":"TF.IE","note":"","hasc_maybe":"","region":"","region_cod":"","provnum_ne":0,"gadm_level":0,"check_me":0,"datarank":10,"abbrev":"","postal":"","area_sqkm":0,"sameascity":-99,"labelrank":20,"name_len":30,"mapcolor9":9,"mapcolor13":11,"fips":"","fips_alt":"","woe_id":28289406,"woe_label":"","woe_name":"French Southern Territories","latitude":-17.0638,"longitude":42.7449,"sov_a3":"FR1","adm0_a3":"ATF","adm0_label":5,"admin":"French Southern and Antarctic Lands","geonunit":"French Southern and Antarctic Lands","gu_a3":"ATF","gn_id":6690916,"gn_name":"Iles Eparses de l'ocean Indien","gns_id":0,"gns_name":"","gn_level":1,"gn_region":"","gn_a1_code":"TF.05","region_sub":"","sub_code":"","gns_level":0,"gns_lang":"","gns_adm1":"","gns_region":"","min_label":11.0,"max_label":11.0,"min_zoom":11.0,"wikidataid":"","name_ar":"الجزر المبعثرة في المحيط الهندي","name_bn":"ইলেস এপারসেস দে ই'ওশান ইন্দিয়েন","name_de":"Îles Éparses de l'océan Indien","name_en":"Scattered Islands in the Indian Ocean","name_es":"Islas Dispersas del Océano Índico","name_fr":"Îles Éparses de l'océan Indien","name_el":"Ιλ Επάρς ντε λ Οσεάν Ιντιέν","name_hi":"इलेस एपर्सेस द ओशीअन इंडियन","name_hu":"Indiai-óceáni francia szigetek","name_id":"Iles Eparses de l'ocean Indien","name_it":"Isole Sparse dell'oceano Indiano","name_ja":"フランス領インド洋無人島群","name_ko":"일스 에파르세스 데 로찬 인디앙","name_nl":"Iles Eparses in de Indische Oceaan","name_pl":"Wyspy Rozproszone Oceanu Indyjskiego","name_pt":"Ilhas Esparsas","name_ru":"острова́ Эпа́рс","name_sv":"Iles Eparses de l'ocean Indien","name_tr":"Iles Eparses de l'ocean Indien","name_vi":"Các đảo rải rác tại Ấn Độ Dương","name_zh":"法属印度洋诸岛","ne_id":1159317947,"name_he":"פזורת האיים של האוקיינוס","name_uk":"Розсіяні острови в Індійському океані","name_ur":"آئیس ایپریسز ڈی آئی اوشین انڈین","name_fa":"جزایر پراکنده اقیانوس هند","name_zht":"法屬印度洋諸島","FCLASS_ISO":"","FCLASS_US":"","FCLASS_FR":"","FCLASS_RU":"","FCLASS_ES":"","FCLASS_CN":"","FCLASS_TW":"","FCLASS_IN":"","FCLASS_NP":"","FCLASS_PK":"","FCLASS_DE":"","FCLASS_GB":"","FCLASS_BR":"","FCLASS_IL":"","FCLASS_PS":"","FCLASS_SA":"","FCLASS_EG":"","FCLASS_MA":"","FCLASS_PT":"","FCLASS_AR":"","FCLASS_JP":"","FCLASS_KO":"","FCLASS_VN":"","FCLASS_TR":"","FCLASS_ID":"","FCLASS_PL":"","FCLASS_GR":"","FCLASS_IT":"","FCLASS_NL":"","FCLASS_SE":"","FCLASS_BD":"","FCLASS_UA":"","FCLASS_TLC":""},"geometry":{"type":"MultiPolygon","coordinates":[[[[42.75180097700007,-17.076104424999926],[42.72437584700003,-17.063571872999944],[42.73812910200007,-17.057305596999925],[42.758799675000034,-17.06064218499995],[42.75180097700007,-17.076104424999926]]],[[[40.37973066500007,-22.32390715899993],[40.37916100400008,-22.31487395599993],[40.385508660000085,-22.317803643999923],[40.38599694100009,-22.339450778999947],[40.36866295700008,-22.36256275799991],[40.34888756600009,-22.365492445999905],[40.33912194100009,-22.359633070999905],[40.33179772200003,-22.34807708099993],[40.32960045700008,-22.331231377999927],[40.33643639400009,-22.320489190999922],[40.347992384000065,-22.317071221999925],[40.35865319100009,-22.316013278999947],[40.364268425000034,-22.31894296699994],[40.367198113000086,-22.329685153999947],[40.36345462300005,-22.33489348799992],[40.35857181100005,-22.338636976999908],[40.35523522200003,-22.34498463299991],[40.36109459700003,-22.35084400799991],[40.374034050000034,-22.34970468499995],[40.38168379000007,-22.339043877999927],[40.37973066500007,-22.32390715899993]]],[[[39.69393964900007,-21.499444268999923],[39.69393964900007,-21.495212497999887],[39.69735761800018,-21.497979424999926],[39.69393964900007,-21.499444268999923]]],[[[39.733815951000054,-21.448337497999944],[39.73454837300005,-21.44605885199985],[39.73617597700007,-21.448174737999864],[39.733815951000054,-21.448337497999944]]],[[[39.72828209700009,-21.44459400799991],[39.72909589900013,-21.44190846099991],[39.731130405000044,-21.44418710699989],[39.72828209700009,-21.44459400799991]]],[[[54.514496290000125,-15.889580987999864],[54.520925326000054,-15.885186455999872],[54.52133222700007,-15.894056898999906],[54.514496290000125,-15.889580987999864]]],[[[47.287933790000125,-11.565524997999944],[47.29957116000003,-11.550632419999886],[47.30640709700015,-11.569919528999947],[47.287933790000125,-11.565524997999944]]]]}},{"type":"Feature","id":"FRA-4601","properties":{"featurecla":"Admin-1 states provinces","scalerank":9,"adm1_code":"FRA-4601","diss_me":4601,"iso_3166_2":"FR-RE","wikipedia":"","iso_a2":"FR","adm0_sr":3,"name":"La Réunion","name_alt":"","name_local":"","type":"Overseas département","type_en":"Overseas department","code_local":"","code_hasc":"RE.X00~","note":"","hasc_maybe":"","region":"Réunion","region_cod":"FR-LRE","provnum_ne":0,"gadm_level":0,"check_me":20,"datarank":9,"abbrev":"","postal":"","area_sqkm":0,"sameascity":-99,"labelrank":20,"name_len":10,"mapcolor9":9,"mapcolor13":11,"fips":"","fips_alt":"","woe_id":23424931,"woe_label":"","woe_name":"La Réunion","latitude":-21.1155,"longitude":55.5405,"sov_a3":"FR1","adm0_a3":"FRA","adm0_label":5,"admin":"France","geonunit":"Reunion","gu_a3":"REU","gn_id":6690284,"gn_name":"Reunion","gns_id":-1331308,"gns_name":"Reunion, Department de la","gn_level":2,"gn_region":"","gn_a1_code":"FR.974","region_sub":"","sub_code":"","gns_level":1,"gns_lang":"fra","gns_adm1":"","gns_region":"RE00","min_label":8.0,"max_label":11.0,"min_zoom":8.0,"wikidataid":"Q17070","name_ar":"لا ريونيون","name_bn":"রেউনিওঁ","name_de":"Réunion","name_en":"Réunion","name_es":"Reunión","name_fr":"La Réunion","name_el":"Ρεϋνιόν","name_hi":"रेयूनियों","name_hu":"Réunion","name_id":"Réunion","name_it":"Riunione","name_ja":"レユニオン","name_ko":"레위니옹","name_nl":"Réunion","name_pl":"Reunion","name_pt":"Reunião","name_ru":"Реюньон","name_sv":"Réunion","name_tr":"Réunion","name_vi":"Réunion","name_zh":"留尼汪","ne_id":1159315617,"name_he":"ראוניון","name_uk":"Реюньйон","name_ur":"غے یونیوں","name_fa":"رئونیون","name_zht":"留尼旺","FCLASS_ISO":"","FCLASS_US":"","FCLASS_FR":"","FCLASS_RU":"","FCLASS_ES":"","FCLASS_CN":"","FCLASS_TW":"","FCLASS_IN":"","FCLASS_NP":"","FCLASS_PK":"","FCLASS_DE":"","FCLASS_GB":"","FCLASS_BR":"","FCLASS_IL":"","FCLASS_PS":"","FCLASS_SA":"","FCLASS_EG":"","FCLASS_MA":"","FCLASS_PT":"","FCLASS_AR":"","FCLASS_JP":"","FCLASS_KO":"","FCLASS_VN":"","FCLASS_TR":"","FCLASS_ID":"","FCLASS_PL":"","FCLASS_GR":"","FCLASS_IT":"","FCLASS_NL":"","FCLASS_SE":"","FCLASS_BD":"","FCLASS_UA":"","FCLASS_TLC":""},"geometry":{"type":"Polygon","coordinates":[[[55.787852410000085,-21.103448174999926],[55.801768425000034,-21.111993096999925],[55.83757571700005,-21.126153252999927],[55.84986412900008,-21.13762786299992],[55.854502800000034,-21.156996351999908],[55.84913170700008,-21.173760674999926],[55.840586785000085,-21.190524997999944],[55.824229363000086,-21.264336846999925],[55.82195071700005,-21.285088799999926],[55.82252037900008,-21.30364348799992],[55.82081139400003,-21.324965101999908],[55.81202233200008,-21.342543226999908],[55.79127037900008,-21.349867445999905],[55.75570722700007,-21.34889088299991],[55.73796634200005,-21.35165780999995],[55.70655358200008,-21.367445570999905],[55.68311608200008,-21.37078215899993],[55.65992272200003,-21.36956145599993],[55.64380944100009,-21.363539320999905],[55.62680097700007,-21.369398695999905],[55.601573113000086,-21.37037525799991],[55.57504316500007,-21.367933851999908],[55.55445397200003,-21.363539320999905],[55.537119988000086,-21.355075778999947],[55.50562584700003,-21.33367278399993],[55.47543379000007,-21.326918226999908],[55.434336785000085,-21.311618747999944],[55.41781660200007,-21.30201588299991],[55.40984134200005,-21.29338958099993],[55.40414472700007,-21.28443775799991],[55.39779707100007,-21.277601820999905],[55.387054884000065,-21.274834893999923],[55.354502800000034,-21.274590752999927],[55.349619988000086,-21.271416924999926],[55.34229576900003,-21.25750090899993],[55.307627800000034,-21.219414971999925],[55.295583530000044,-21.19963958099993],[55.291026238000086,-21.176446221999925],[55.29078209700003,-21.158868096999925],[55.28842207100007,-21.143649997999944],[55.24634850400008,-21.090915622999944],[55.23324629000007,-21.06926848799992],[55.22543379000007,-21.048272393999923],[55.22543379000007,-21.02971770599993],[55.231211785000085,-21.009698174999926],[55.24187259200005,-20.99342213299991],[55.275401238000086,-20.98023853999996],[55.287852410000085,-20.964776299999926],[55.29232832100007,-20.946709893999923],[55.287445509000065,-20.93222421699994],[55.29346764400003,-20.92636484199994],[55.29542076900003,-20.921807549999926],[55.29346764400003,-20.91725025799991],[55.287445509000065,-20.911716403999947],[55.30298912900008,-20.90520598799992],[55.335948113000086,-20.905043226999908],[55.364024285000085,-20.886163018999923],[55.40796959700003,-20.863213799999926],[55.455821160000085,-20.86142343499995],[55.47250410200007,-20.863213799999926],[55.50131269600007,-20.873223565999922],[55.514008009000065,-20.875176690999922],[55.52711022200003,-20.87004973799992],[55.54249108200008,-20.87509530999995],[55.57837975400008,-20.87476978999996],[55.59229576900003,-20.880303643999923],[55.605804884000065,-20.888278903999947],[55.65064537900008,-20.898044528999947],[55.66382897200003,-20.90520598799992],[55.673838738000086,-20.913181247999944],[55.695323113000086,-20.93523528399993],[55.70281009200005,-20.949395440999922],[55.70655358200008,-20.98211028399993],[55.71208743600005,-20.993584893999923],[55.73658287900008,-21.017836195999905],[55.74000084700003,-21.02467213299991],[55.74146569100009,-21.044528903999947],[55.74366295700008,-21.054620049999926],[55.746836785000085,-21.06259530999995],[55.75310306100005,-21.06698984199994],[55.770518425000034,-21.073825778999947],[55.774180535000085,-21.079278252999927],[55.77588951900003,-21.083916924999926],[55.787852410000085,-21.103448174999926]]]}},{"type":"Feature","id":"FRA-4602","properties":{"featurecla":"Admin-1 states provinces","scalerank":9,"adm1_code":"FRA-4602","diss_me":4602,"iso_3166_2":"FR-YT","wikipedia":"","iso_a2":"FR","adm0_sr":4,"name":"Mayotte","name_alt":"","name_local":"","type":"Overseas département","type_en":"Overseas department","code_local":"","code_hasc":"YT.YT","note":"","hasc_maybe":"","region":"Mayotte","region_cod":"FR-MAY","provnum_ne":0,"gadm_level":0,"check_me":20,"datarank":9,"abbrev":"","postal":"","area_sqkm":0,"sameascity":-99,"labelrank":20,"name_len":7,"mapcolor9":9,"mapcolor13":11,"fips":"","fips_alt":"","woe_id":23424886,"woe_label":"","woe_name":"Mayotte","latitude":-12.7767,"longitude":45.2769,"sov_a3":"FR1","adm0_a3":"FRA","adm0_label":5,"admin":"France","geonunit":"Mayotte","gu_a3":"MYT","gn_id":1024031,"gn_name":"","gns_id":-1187193,"gns_name":"Mayotte, Departement de","gn_level":0,"gn_region":"","gn_a1_code":"FR.976","region_sub":"","sub_code":"","gns_level":1,"gns_lang":"fra","gns_adm1":"","gns_region":"MF00","min_label":8.0,"max_label":11.0,"min_zoom":8.0,"wikidataid":"Q17063","name_ar":"مايوت","name_bn":"মায়োত","name_de":"Mayotte","name_en":"Mayotte","name_es":"Mayotte","name_fr":"Mayotte","name_el":"Μαγιότ","name_hi":"मेयोट","name_hu":"Mayotte","name_id":"Mayotte","name_it":"Mayotte","name_ja":"マヨット","name_ko":"마요트","name_nl":"Mayotte","name_pl":"Majotta","name_pt":"Mayotte","name_ru":"Майотта","name_sv":"Mayotte","name_tr":"Mayotte","name_vi":"Mayotte","name_zh":"马约特","ne_id":1159315621,"name_he":"מיוט","name_uk":"Майотта","name_ur":"مایوٹ","name_fa":"مایوت","name_zht":"马约特","FCLASS_ISO":"","FCLASS_US":"","FCLASS_FR":"","FCLASS_RU":"","FCLASS_ES":"","FCLASS_CN":"","FCLASS_TW":"","FCLASS_IN":"","FCLASS_NP":"","FCLASS_PK":"","FCLASS_DE":"","FCLASS_GB":"","FCLASS_BR":"","FCLASS_IL":"","FCLASS_PS":"","FCLASS_SA":"","FCLASS_EG":"","FCLASS_MA":"","FCLASS_PT":"","FCLASS_AR":"","FCLASS_JP":"","FCLASS_KO":"","FCLASS_VN":"","FCLASS_TR":"","FCLASS_ID":"","FCLASS_PL":"","FCLASS_GR":"","FCLASS_IT":"","FCLASS_NL":"","FCLASS_SE":"","FCLASS_BD":"","FCLASS_UA":"","FCLASS_TLC":""},"geometry":{"type":"MultiPolygon","coordinates":[[[[45.26221764400009,-12.76336028399993],[45.27711022200003,-12.747491143999923],[45.28256269600007,-12.74342213299991],[45.28931725400008,-12.75986093499995],[45.29086347700007,-12.774021091999941],[45.28842207100007,-12.78834400799991],[45.28256269600007,-12.804864190999922],[45.275726759000065,-12.804864190999922],[45.26221764400009,-12.76336028399993]]],[[[45.20069420700008,-12.722914320999905],[45.21762129000007,-12.73406340899993],[45.22478274800005,-12.745700778999947],[45.224945509000065,-12.75953541499996],[45.22055097700007,-12.777520440999922],[45.19695071700005,-12.811700127999927],[45.188161655000044,-12.817071221999925],[45.18873131600009,-12.828789971999925],[45.19516035200007,-12.840508721999925],[45.21314537900008,-12.851820570999905],[45.210948113000086,-12.86532968499995],[45.20435631600009,-12.878513278999947],[45.20069420700008,-12.883965752999927],[45.19166100400008,-12.904961846999925],[45.17530358200008,-12.924004815999922],[45.16822350400008,-12.94426848799992],[45.18637129000007,-12.96884530999995],[45.182302280000044,-12.975762627999927],[45.178070509000065,-12.981052341999941],[45.17302493600005,-12.985039971999925],[45.16586347700007,-12.98919036299992],[45.15992272200003,-12.97861093499995],[45.153086785000085,-12.979668877999927],[45.14429772200003,-12.985772393999923],[45.131846550000034,-12.98919036299992],[45.12061608200008,-12.986260674999926],[45.113291863000086,-12.981052341999941],[45.10670006600009,-12.978122653999947],[45.09717858200008,-12.982354424999926],[45.09848066500007,-12.967868747999944],[45.094493035000085,-12.958184502999927],[45.084971550000034,-12.953708591999941],[45.070323113000086,-12.955010674999926],[45.070323113000086,-12.94890715899993],[45.08838951900009,-12.94036223799992],[45.090179884000065,-12.924004815999922],[45.08122806100005,-12.90829843499995],[45.062510613000086,-12.89853280999995],[45.06527754000007,-12.893161716999941],[45.072927280000044,-12.88836028399993],[45.083994988000086,-12.887383721999925],[45.09009850400008,-12.891045830999929],[45.10792076900009,-12.911716403999947],[45.12476647200003,-12.921482028999947],[45.13412519600007,-12.91692473799992],[45.13648522200003,-12.903903903999947],[45.131846550000034,-12.887383721999925],[45.12387129000007,-12.87509530999995],[45.113291863000086,-12.86337655999995],[45.083994988000086,-12.839043877999927],[45.097992384000065,-12.833428643999923],[45.104502800000034,-12.832777601999908],[45.104502800000034,-12.82594166499996],[45.098643425000034,-12.817478122999944],[45.09424889400009,-12.80282968499995],[45.090830925000034,-12.773858330999929],[45.08716881600009,-12.759698174999926],[45.07837975400008,-12.75359465899993],[45.067149285000085,-12.75009530999995],[45.056651238000086,-12.74342213299991],[45.049489780000044,-12.734307549999926],[45.04517662900008,-12.725192966999941],[45.042979363000086,-12.713962497999944],[45.04249108200008,-12.698418877999927],[45.090830925000034,-12.647230726999908],[45.094737175000034,-12.65357838299991],[45.09595787900008,-12.656508070999905],[45.09717858200008,-12.660821221999925],[45.092784050000034,-12.66187916499996],[45.090179884000065,-12.663262627999927],[45.083994988000086,-12.66765715899993],[45.090505405000044,-12.667087497999944],[45.09351647200003,-12.669040622999944],[45.09498131600009,-12.672051690999922],[45.09717858200008,-12.674493096999925],[45.11060631600009,-12.685804945999905],[45.128916863000086,-12.707452080999929],[45.138682488000086,-12.71493905999995],[45.15259850400008,-12.718194268999923],[45.18376712300005,-12.717950127999927],[45.20069420700008,-12.722914320999905]]]]}},{"type":"Feature","id":"MUS-5180","properties":{"featurecla":"Admin-1 states provinces","scalerank":10,"adm1_code":"MUS-5180","diss_me":5180,"iso_3166_2":"MU-AG","wikipedia":"http://en.wikipedia.org/wiki/Agal%C3%A9ga","iso_a2":"MU","adm0_sr":8,"name":"Agaléga","name_alt":"","name_local":"","type":"Dependency","type_en":"Dependency","code_local":"","code_hasc":"MU.AG","note":"","hasc_maybe":"","region":"","region_cod":"","provnum_ne":0,"gadm_level":0,"check_me":0,"datarank":11,"abbrev":"","postal":"","area_sqkm":0,"sameascity":-99,"labelrank":20,"name_len":7,"mapcolor9":5,"mapcolor13":7,"fips":"","fips_alt":"","woe_id":2346237,"woe_label":"","woe_name":"Agalega Islands","latitude":-10.3512,"longitude":56.5372,"sov_a3":"MUS","adm0_a3":"MUS","adm0_label":5,"admin":"Mauritius","geonunit":"Mauritius","gu_a3":"MUS","gn_id":448254,"gn_name":"Agalega Islands","gns_id":9149172,"gns_name":"Agalega Islands","gn_level":1,"gn_region":"","gn_a1_code":"MU.21","region_sub":"Agaléga","sub_code":"","gns_level":1,"gns_lang":"por","gns_adm1":"MP21","gns_region":"","min_label":11.0,"max_label":11.0,"min_zoom":11.0,"wikidataid":"Q196042","name_ar":"أغاليغا","name_bn":"আগালেগা","name_de":"Agalega-Inseln","name_en":"Agaléga","name_es":"Islas Agalega","name_fr":"Agaléga","name_el":"Αγκαλέγκα","name_hi":"अपालेगा","name_hu":"Agaléga","name_id":"Agaléga","name_it":"Agalega","name_ja":"アガレガ諸島","name_ko":"아갈레가 제도","name_nl":"Agalega-eilanden","name_pl":"Wyspy Agalega","name_pt":"Agalega","name_ru":"Агалега","name_sv":"Agalega","name_tr":"Agaléga Adaları","name_vi":"Agaléga","name_zh":"阿加莱加群岛","ne_id":1159315815,"name_he":"אגאלגה","name_uk":"Агалега","name_ur":"آگالگا","name_fa":"جزایر آگالگا","name_zht":"阿加萊加群島","FCLASS_ISO":"","FCLASS_US":"","FCLASS_FR":"","FCLASS_RU":"","FCLASS_ES":"","FCLASS_CN":"","FCLASS_TW":"","FCLASS_IN":"","FCLASS_NP":"","FCLASS_PK":"","FCLASS_DE":"","FCLASS_GB":"","FCLASS_BR":"","FCLASS_IL":"","FCLASS_PS":"","FCLASS_SA":"","FCLASS_EG":"","FCLASS_MA":"","FCLASS_PT":"","FCLASS_AR":"","FCLASS_JP":"","FCLASS_KO":"","FCLASS_VN":"","FCLASS_TR":"","FCLASS_ID":"","FCLASS_PL":"","FCLASS_GR":"","FCLASS_IT":"","FCLASS_NL":"","FCLASS_SE":"","FCLASS_BD":"","FCLASS_UA":"","FCLASS_TLC":""},"geometry":{"type":"Polygon","coordinates":[[[56.524180535000085,-10.330010674999926],[56.52556399800005,-10.327325127999927],[56.527679884000065,-10.325372002999927],[56.53101647200003,-10.324151299999926],[56.53565514400003,-10.32390715899993],[56.54281660200007,-10.346449476999908],[56.56861412900008,-10.38640715899993],[56.569346550000034,-10.406508070999905],[56.54851321700005,-10.382012627999927],[56.52979576900003,-10.352959893999923],[56.52458743600005,-10.340020440999922],[56.524180535000085,-10.330010674999926]]]}}]}
