{"type":"FeatureCollection","features":[{"type":"Feature","id":"physical-component:03f6ccdfef23d7f3e030650e71c57224ff986471f131563b9020b6b325674785","geometry":{"coordinates":[[[12.61045803502446,-4.5641734975988815],[12.617464320955683,-4.561592187416201],[12.616748460090006,-4.56185593042642],[12.61045803502446,-4.5641734975988815]]],"type":"Polygon"},"properties":{"component_id":"physical-component:03f6ccdfef23d7f3e030650e71c57224ff986471f131563b9020b6b325674785","proposal_kind":"additive-reference-map-fit","proposal_status":"research proposal; not implemented or approved","target_id":"gb:COG:ADM2:1427508B96128266527522","target_feature_sha256_before":"6a5234f42d999c7849ef0b73c4c7fa191ba0328de4a6b9c0a989064a8bd8d33f","target_geometry_sha256_before":"0b19d34f4c140cffe97ac4260978e2cd3f84ba03f5e65fa4912002edd5ec92a8","component_feature_sha256":"312c0bc885b1731ac22e77b79906453b02324bb94a176425c9d8a845c43d6b5b","component_geometry_sha256":"8c900c9d2a5c6f5e18ff551781c54dd4f43988af0c780acf7397ece45fe76998","source_feature_id":"gb:COG:ADM2:1427508B96128266527522","source_shapeID":"1427508B96128266527522","source_feature_sha256":"0734004eb4a94dc09f8994e120786f4773729d3f694fa7693677718c13660d36","source_geometry_sha256":"17f8ca8964d4905caac0b175519ca4489e787fae12b75cb9d032cce4f361a16e","source_product":{"path":"research/geography/central-africa-20-source-fit-20261009/inputs/sources/geoBoundaries-COG-ADM2_simplified.geojson","bytes":336602,"sha256":"b44d1fdcc6f61f0d0b2a4b3402f49dfd317ea9cdddd0a854bd20cae0996291ae"},"overlay_predicates":{"simplified_source_target_covers_component":true,"only_source_target_has_positive_area_hit":true,"current_target_missing_component":true,"current_target_union_has_zero_loss":true,"current_target_union_gain_equals_component":true,"no_positive_area_overlap_with_other_current_five_country_features":true},"source_relative_only":true,"physical_class":"unknown","cause":"unknown","legal_or_current_authority":"not assessed or implied","limits":["diagnostic geometry only; no land/water truth, rightful province, or historical ownership established","geoBoundaries year/role/license remain source metadata, not legal authority","source relative fit only; no snapping, tolerance, repair, or datum transformation"],"original_component_properties":{"water_status":"unverified","administrative_assignment":null,"dateline_connected":false,"fragment_bindings":[{"feature_sha256":"4be7f9a7220be0040ca88753874875017d864d903f79c75c587c0f5301240962","id":"physical-gap:830:71:1561099bb0e9d5bdb5b16b00d35f400f23b00807d19c30aa23c205be344685aa"}]}}},{"type":"Feature","id":"physical-component:0481dc6542faa251f7c384985ec16385c65add1df7c7483b737ffcfb2b7a018e","geometry":{"coordinates":[[[12.213497,-4.769165],[12.20967794932947,-4.766856920891941],[12.209074343854967,-4.76649212625961],[12.213497,-4.769165]]],"type":"Polygon"},"properties":{"component_id":"physical-component:0481dc6542faa251f7c384985ec16385c65add1df7c7483b737ffcfb2b7a018e","proposal_kind":"additive-reference-map-fit","proposal_status":"research proposal; not implemented or approved","target_id":"gb:COG:ADM2:1427508B96128266527522","target_feature_sha256_before":"6a5234f42d999c7849ef0b73c4c7fa191ba0328de4a6b9c0a989064a8bd8d33f","target_geometry_sha256_before":"0b19d34f4c140cffe97ac4260978e2cd3f84ba03f5e65fa4912002edd5ec92a8","component_feature_sha256":"8cea8a819378399394de792ef2bf092e7669b27e345d7c119e398ee267805e83","component_geometry_sha256":"1180db9a22cc9463e1a1267d71a70001f08f95ea858f51a371f399c4324810d5","source_feature_id":"gb:COG:ADM2:1427508B96128266527522","source_shapeID":"1427508B96128266527522","source_feature_sha256":"0734004eb4a94dc09f8994e120786f4773729d3f694fa7693677718c13660d36","source_geometry_sha256":"17f8ca8964d4905caac0b175519ca4489e787fae12b75cb9d032cce4f361a16e","source_product":{"path":"research/geography/central-africa-20-source-fit-20261009/inputs/sources/geoBoundaries-COG-ADM2_simplified.geojson","bytes":336602,"sha256":"b44d1fdcc6f61f0d0b2a4b3402f49dfd317ea9cdddd0a854bd20cae0996291ae"},"overlay_predicates":{"simplified_source_target_covers_component":true,"only_source_target_has_positive_area_hit":true,"current_target_missing_component":true,"current_target_union_has_zero_loss":true,"current_target_union_gain_equals_component":true,"no_positive_area_overlap_with_other_current_five_country_features":true},"source_relative_only":true,"physical_class":"unknown","cause":"unknown","legal_or_current_authority":"not assessed or implied","limits":["diagnostic geometry only; no land/water truth, rightful province, or historical ownership established","geoBoundaries year/role/license remain source metadata, not legal authority","source relative fit only; no snapping, tolerance, repair, or datum transformation"],"original_component_properties":{"water_status":"unverified","administrative_assignment":null,"dateline_connected":false,"fragment_bindings":[{"feature_sha256":"33885a6c87ca3a31edceb91ee338b7730133de0c4a57e43cd1aabbdae44b6e0f","id":"physical-gap:830:60:299cc3386c7b822450bb6a688544afa04928e372ce38bbd6d43c8c08a24eef2b"}]}}},{"type":"Feature","id":"physical-component:374a9667e997a8a54961870ed7b765bbfff64320addb3828b98e9a8eb37ec3f5","geometry":{"coordinates":[[[12.742294066121541,-4.475081199450513],[12.7395,-4.4815],[12.7432,-4.473],[12.742294066121541,-4.475081199450513]]],"type":"Polygon"},"properties":{"component_id":"physical-component:374a9667e997a8a54961870ed7b765bbfff64320addb3828b98e9a8eb37ec3f5","proposal_kind":"additive-reference-map-fit","proposal_status":"research proposal; not implemented or approved","target_id":"gb:COG:ADM2:1427508B96128266527522","target_feature_sha256_before":"6a5234f42d999c7849ef0b73c4c7fa191ba0328de4a6b9c0a989064a8bd8d33f","target_geometry_sha256_before":"0b19d34f4c140cffe97ac4260978e2cd3f84ba03f5e65fa4912002edd5ec92a8","component_feature_sha256":"7bb7d388ba2bc047039c13041362f7508992ad4585c4ce5655731f30ba09e750","component_geometry_sha256":"338dbdd33c01ab7a06326439c6a6b0004c996699508ef71ef20542e426f6bd17","source_feature_id":"gb:COG:ADM2:1427508B96128266527522","source_shapeID":"1427508B96128266527522","source_feature_sha256":"0734004eb4a94dc09f8994e120786f4773729d3f694fa7693677718c13660d36","source_geometry_sha256":"17f8ca8964d4905caac0b175519ca4489e787fae12b75cb9d032cce4f361a16e","source_product":{"path":"research/geography/central-africa-20-source-fit-20261009/inputs/sources/geoBoundaries-COG-ADM2_simplified.geojson","bytes":336602,"sha256":"b44d1fdcc6f61f0d0b2a4b3402f49dfd317ea9cdddd0a854bd20cae0996291ae"},"overlay_predicates":{"simplified_source_target_covers_component":true,"only_source_target_has_positive_area_hit":true,"current_target_missing_component":true,"current_target_union_has_zero_loss":true,"current_target_union_gain_equals_component":true,"no_positive_area_overlap_with_other_current_five_country_features":true},"source_relative_only":true,"physical_class":"unknown","cause":"unknown","legal_or_current_authority":"not assessed or implied","limits":["diagnostic geometry only; no land/water truth, rightful province, or historical ownership established","geoBoundaries year/role/license remain source metadata, not legal authority","source relative fit only; no snapping, tolerance, repair, or datum transformation"],"original_component_properties":{"water_status":"unverified","administrative_assignment":null,"dateline_connected":false,"fragment_bindings":[{"feature_sha256":"73d03d5a3ecc53438b32d70a6680ba3952855c85fdfae657546684362b1dde83","id":"physical-gap:830:77:3cdc9d87394a04b6079a598261a0dad178edf32b48740f54d38f9c7338a33927"}]}}},{"type":"Feature","id":"physical-component:a3fb71ee49fa32d2dd3b19d640b456c80e914211587c382a04e10941420246f2","geometry":{"coordinates":[[[12.2933,-4.8057],[12.290468863733503,-4.805843712500837],[12.2539,-4.8077],[12.2933,-4.8057]]],"type":"Polygon"},"properties":{"component_id":"physical-component:a3fb71ee49fa32d2dd3b19d640b456c80e914211587c382a04e10941420246f2","proposal_kind":"additive-reference-map-fit","proposal_status":"research proposal; not implemented or approved","target_id":"gb:COG:ADM2:1427508B96128266527522","target_feature_sha256_before":"6a5234f42d999c7849ef0b73c4c7fa191ba0328de4a6b9c0a989064a8bd8d33f","target_geometry_sha256_before":"0b19d34f4c140cffe97ac4260978e2cd3f84ba03f5e65fa4912002edd5ec92a8","component_feature_sha256":"cb18a7f536b73b9a1588b1133dee18e01ac01ae9e20ee4df90a340cb9f8e9cf8","component_geometry_sha256":"d28b7f2f902f9b50036ce88537cb6b98ed1a9f91d0762e324caff628d9e5cf14","source_feature_id":"gb:COG:ADM2:1427508B96128266527522","source_shapeID":"1427508B96128266527522","source_feature_sha256":"0734004eb4a94dc09f8994e120786f4773729d3f694fa7693677718c13660d36","source_geometry_sha256":"17f8ca8964d4905caac0b175519ca4489e787fae12b75cb9d032cce4f361a16e","source_product":{"path":"research/geography/central-africa-20-source-fit-20261009/inputs/sources/geoBoundaries-COG-ADM2_simplified.geojson","bytes":336602,"sha256":"b44d1fdcc6f61f0d0b2a4b3402f49dfd317ea9cdddd0a854bd20cae0996291ae"},"overlay_predicates":{"simplified_source_target_covers_component":true,"only_source_target_has_positive_area_hit":true,"current_target_missing_component":true,"current_target_union_has_zero_loss":true,"current_target_union_gain_equals_component":true,"no_positive_area_overlap_with_other_current_five_country_features":true},"source_relative_only":true,"physical_class":"unknown","cause":"unknown","legal_or_current_authority":"not assessed or implied","limits":["diagnostic geometry only; no land/water truth, rightful province, or historical ownership established","geoBoundaries year/role/license remain source metadata, not legal authority","source relative fit only; no snapping, tolerance, repair, or datum transformation"],"original_component_properties":{"water_status":"unverified","administrative_assignment":null,"dateline_connected":false,"fragment_bindings":[{"feature_sha256":"7b0725cd7a22f3298129a4673ce07e841c288543b356c6fce16cb889749bf2bc","id":"physical-gap:830:65:869fe29276c0d4bb830e6862b5b45c0925476f8386f6ceec07420e274e413f5e"}]}}},{"type":"Feature","id":"physical-component:ab2e9995f89c6ab263f586b833c8837b8cd354697336131f95d95f41be341f53","geometry":{"coordinates":[[[12.248350136035027,-4.7980432367009485],[12.246779010201958,-4.795309477751408],[12.2539,-4.8077],[12.248350136035027,-4.7980432367009485]]],"type":"Polygon"},"properties":{"component_id":"physical-component:ab2e9995f89c6ab263f586b833c8837b8cd354697336131f95d95f41be341f53","proposal_kind":"additive-reference-map-fit","proposal_status":"research proposal; not implemented or approved","target_id":"gb:COG:ADM2:1427508B96128266527522","target_feature_sha256_before":"6a5234f42d999c7849ef0b73c4c7fa191ba0328de4a6b9c0a989064a8bd8d33f","target_geometry_sha256_before":"0b19d34f4c140cffe97ac4260978e2cd3f84ba03f5e65fa4912002edd5ec92a8","component_feature_sha256":"438583a6376d3b8c050a0f9f9fa868766d0690632e9b64a0b628ed231803ba27","component_geometry_sha256":"52792a73f7a2551d8339f4fed3769d4cd17dba9e8475d938a8d1f7a03172fad7","source_feature_id":"gb:COG:ADM2:1427508B96128266527522","source_shapeID":"1427508B96128266527522","source_feature_sha256":"0734004eb4a94dc09f8994e120786f4773729d3f694fa7693677718c13660d36","source_geometry_sha256":"17f8ca8964d4905caac0b175519ca4489e787fae12b75cb9d032cce4f361a16e","source_product":{"path":"research/geography/central-africa-20-source-fit-20261009/inputs/sources/geoBoundaries-COG-ADM2_simplified.geojson","bytes":336602,"sha256":"b44d1fdcc6f61f0d0b2a4b3402f49dfd317ea9cdddd0a854bd20cae0996291ae"},"overlay_predicates":{"simplified_source_target_covers_component":true,"only_source_target_has_positive_area_hit":true,"current_target_missing_component":true,"current_target_union_has_zero_loss":true,"current_target_union_gain_equals_component":true,"no_positive_area_overlap_with_other_current_five_country_features":true},"source_relative_only":true,"physical_class":"unknown","cause":"unknown","legal_or_current_authority":"not assessed or implied","limits":["diagnostic geometry only; no land/water truth, rightful province, or historical ownership established","geoBoundaries year/role/license remain source metadata, not legal authority","source relative fit only; no snapping, tolerance, repair, or datum transformation"],"original_component_properties":{"water_status":"unverified","administrative_assignment":null,"dateline_connected":false,"fragment_bindings":[{"feature_sha256":"328e79e1935b32bacfd43ada62f32bc42ad2f86beabc24b04888cf3ab3d27ccf","id":"physical-gap:830:64:784d0204d8b1945f7a880c97f27202eb5ca0fd8512054014550d303cb05e47db"}]}}},{"type":"Feature","id":"physical-component:d0cef00e196c2e9d07ea72d885832473a568b6e655ac9155a29846ae8dfb7c97","geometry":{"coordinates":[[[12.242036754034656,-4.798112929021485],[12.23900198048407,-4.8007243093224385],[12.238274555276762,-4.801350248564731],[12.244089,-4.796347],[12.242036754034656,-4.798112929021485]]],"type":"Polygon"},"properties":{"component_id":"physical-component:d0cef00e196c2e9d07ea72d885832473a568b6e655ac9155a29846ae8dfb7c97","proposal_kind":"additive-reference-map-fit","proposal_status":"research proposal; not implemented or approved","target_id":"gb:COG:ADM2:1427508B96128266527522","target_feature_sha256_before":"6a5234f42d999c7849ef0b73c4c7fa191ba0328de4a6b9c0a989064a8bd8d33f","target_geometry_sha256_before":"0b19d34f4c140cffe97ac4260978e2cd3f84ba03f5e65fa4912002edd5ec92a8","component_feature_sha256":"7dffff0095669188c8cdf64d66f905f9458d29f43cdd01a640827ea0022ff887","component_geometry_sha256":"33057f548e2a1881e0eb50dbc5f5d15f211776df3f41eef3ad0792e6ecffee40","source_feature_id":"gb:COG:ADM2:1427508B96128266527522","source_shapeID":"1427508B96128266527522","source_feature_sha256":"0734004eb4a94dc09f8994e120786f4773729d3f694fa7693677718c13660d36","source_geometry_sha256":"17f8ca8964d4905caac0b175519ca4489e787fae12b75cb9d032cce4f361a16e","source_product":{"path":"research/geography/central-africa-20-source-fit-20261009/inputs/sources/geoBoundaries-COG-ADM2_simplified.geojson","bytes":336602,"sha256":"b44d1fdcc6f61f0d0b2a4b3402f49dfd317ea9cdddd0a854bd20cae0996291ae"},"overlay_predicates":{"simplified_source_target_covers_component":true,"only_source_target_has_positive_area_hit":true,"current_target_missing_component":true,"current_target_union_has_zero_loss":true,"current_target_union_gain_equals_component":true,"no_positive_area_overlap_with_other_current_five_country_features":true},"source_relative_only":true,"physical_class":"unknown","cause":"unknown","legal_or_current_authority":"not assessed or implied","limits":["diagnostic geometry only; no land/water truth, rightful province, or historical ownership established","geoBoundaries year/role/license remain source metadata, not legal authority","source relative fit only; no snapping, tolerance, repair, or datum transformation"],"original_component_properties":{"water_status":"unverified","administrative_assignment":null,"dateline_connected":false,"fragment_bindings":[{"feature_sha256":"3e5085eeb7f0a2e1283cfdc31095cd5ef5b27ad1d7754eab3de365dc19b74200","id":"physical-gap:830:62:baa438c46c66af085357078b4f23083dc854aa9014f8e015f4d7516253a5632d"}]}}},{"type":"Feature","id":"physical-component:dd7afea067487d39e9fdcee006e1f7849d7f01729d9ecd8c71f1fb572718cea2","geometry":{"coordinates":[[[12.3438,-4.7465],[12.3729,-4.7248],[12.362545040327547,-4.7325217396870185],[12.3438,-4.7465]]],"type":"Polygon"},"properties":{"component_id":"physical-component:dd7afea067487d39e9fdcee006e1f7849d7f01729d9ecd8c71f1fb572718cea2","proposal_kind":"additive-reference-map-fit","proposal_status":"research proposal; not implemented or approved","target_id":"gb:COG:ADM2:1427508B96128266527522","target_feature_sha256_before":"6a5234f42d999c7849ef0b73c4c7fa191ba0328de4a6b9c0a989064a8bd8d33f","target_geometry_sha256_before":"0b19d34f4c140cffe97ac4260978e2cd3f84ba03f5e65fa4912002edd5ec92a8","component_feature_sha256":"4feb275bfdd4625d025b0187f721aef7dd66335d2dc3842f0905d62825c2156b","component_geometry_sha256":"ad4daf654af4a4dd69b6df3aeb55f7922cc116dbed9807b7e8ed9b9096ac3d51","source_feature_id":"gb:COG:ADM2:1427508B96128266527522","source_shapeID":"1427508B96128266527522","source_feature_sha256":"0734004eb4a94dc09f8994e120786f4773729d3f694fa7693677718c13660d36","source_geometry_sha256":"17f8ca8964d4905caac0b175519ca4489e787fae12b75cb9d032cce4f361a16e","source_product":{"path":"research/geography/central-africa-20-source-fit-20261009/inputs/sources/geoBoundaries-COG-ADM2_simplified.geojson","bytes":336602,"sha256":"b44d1fdcc6f61f0d0b2a4b3402f49dfd317ea9cdddd0a854bd20cae0996291ae"},"overlay_predicates":{"simplified_source_target_covers_component":true,"only_source_target_has_positive_area_hit":true,"current_target_missing_component":true,"current_target_union_has_zero_loss":true,"current_target_union_gain_equals_component":true,"no_positive_area_overlap_with_other_current_five_country_features":true},"source_relative_only":true,"physical_class":"unknown","cause":"unknown","legal_or_current_authority":"not assessed or implied","limits":["diagnostic geometry only; no land/water truth, rightful province, or historical ownership established","geoBoundaries year/role/license remain source metadata, not legal authority","source relative fit only; no snapping, tolerance, repair, or datum transformation"],"original_component_properties":{"water_status":"unverified","administrative_assignment":null,"dateline_connected":false,"fragment_bindings":[{"feature_sha256":"90941db8f449476e37a117107089499226c96f04fc7dca1cc62bea1912552cfe","id":"physical-gap:830:69:672b03fc6234ebeb0d523600e55dff3eed057440ea48f42435fda4ebcd93699f"}]}}},{"type":"Feature","id":"physical-component:e868c1bab3c756b332c31657004f6000a61615329fad661d582f03b0226f5075","geometry":{"coordinates":[[[12.224051213316855,-4.783340172706407],[12.230385312440285,-4.791360622895166],[12.238274555276762,-4.801350248564731],[12.224051213316855,-4.783340172706407]]],"type":"Polygon"},"properties":{"component_id":"physical-component:e868c1bab3c756b332c31657004f6000a61615329fad661d582f03b0226f5075","proposal_kind":"additive-reference-map-fit","proposal_status":"research proposal; not implemented or approved","target_id":"gb:COG:ADM2:1427508B96128266527522","target_feature_sha256_before":"6a5234f42d999c7849ef0b73c4c7fa191ba0328de4a6b9c0a989064a8bd8d33f","target_geometry_sha256_before":"0b19d34f4c140cffe97ac4260978e2cd3f84ba03f5e65fa4912002edd5ec92a8","component_feature_sha256":"236976a8912cf0d26488d703f4d1cee92a4ab11761d1069577b5af7bd584f26b","component_geometry_sha256":"9dd4c4a44660d87f62a2915fcae8f659e28f92e77ab4f0608351be94ebdc1d33","source_feature_id":"gb:COG:ADM2:1427508B96128266527522","source_shapeID":"1427508B96128266527522","source_feature_sha256":"0734004eb4a94dc09f8994e120786f4773729d3f694fa7693677718c13660d36","source_geometry_sha256":"17f8ca8964d4905caac0b175519ca4489e787fae12b75cb9d032cce4f361a16e","source_product":{"path":"research/geography/central-africa-20-source-fit-20261009/inputs/sources/geoBoundaries-COG-ADM2_simplified.geojson","bytes":336602,"sha256":"b44d1fdcc6f61f0d0b2a4b3402f49dfd317ea9cdddd0a854bd20cae0996291ae"},"overlay_predicates":{"simplified_source_target_covers_component":true,"only_source_target_has_positive_area_hit":true,"current_target_missing_component":true,"current_target_union_has_zero_loss":true,"current_target_union_gain_equals_component":true,"no_positive_area_overlap_with_other_current_five_country_features":true},"source_relative_only":true,"physical_class":"unknown","cause":"unknown","legal_or_current_authority":"not assessed or implied","limits":["diagnostic geometry only; no land/water truth, rightful province, or historical ownership established","geoBoundaries year/role/license remain source metadata, not legal authority","source relative fit only; no snapping, tolerance, repair, or datum transformation"],"original_component_properties":{"water_status":"unverified","administrative_assignment":null,"dateline_connected":false,"fragment_bindings":[{"feature_sha256":"09ac2afc4b69a0159b7695bd7187bb841c198e001e200e6c42b82204b9be54ac","id":"physical-gap:830:61:150502b96753e3c5a260ca3e35eab53afd17943d796fbab62cf3f91a02d420dc"}]}}},{"type":"Feature","id":"physical-component:eb90996750fe4e3aa4113edcef86d316cfbfdad41fd84d0481efa74fa39b6861","geometry":{"coordinates":[[[12.246330228456427,-4.7954825704205035],[12.244089,-4.796347],[12.246779010201958,-4.795309477751408],[12.246330228456427,-4.7954825704205035]]],"type":"Polygon"},"properties":{"component_id":"physical-component:eb90996750fe4e3aa4113edcef86d316cfbfdad41fd84d0481efa74fa39b6861","proposal_kind":"additive-reference-map-fit","proposal_status":"research proposal; not implemented or approved","target_id":"gb:COG:ADM2:1427508B96128266527522","target_feature_sha256_before":"6a5234f42d999c7849ef0b73c4c7fa191ba0328de4a6b9c0a989064a8bd8d33f","target_geometry_sha256_before":"0b19d34f4c140cffe97ac4260978e2cd3f84ba03f5e65fa4912002edd5ec92a8","component_feature_sha256":"ee67323eeff802c7f17129aee2c74144e4f1a6a895016a5bffb5ff4d385ba539","component_geometry_sha256":"de82ef4226bde47e6756ba0bff9b3864845004066adeb0a95cbead0981e0bca1","source_feature_id":"gb:COG:ADM2:1427508B96128266527522","source_shapeID":"1427508B96128266527522","source_feature_sha256":"0734004eb4a94dc09f8994e120786f4773729d3f694fa7693677718c13660d36","source_geometry_sha256":"17f8ca8964d4905caac0b175519ca4489e787fae12b75cb9d032cce4f361a16e","source_product":{"path":"research/geography/central-africa-20-source-fit-20261009/inputs/sources/geoBoundaries-COG-ADM2_simplified.geojson","bytes":336602,"sha256":"b44d1fdcc6f61f0d0b2a4b3402f49dfd317ea9cdddd0a854bd20cae0996291ae"},"overlay_predicates":{"simplified_source_target_covers_component":true,"only_source_target_has_positive_area_hit":true,"current_target_missing_component":true,"current_target_union_has_zero_loss":true,"current_target_union_gain_equals_component":true,"no_positive_area_overlap_with_other_current_five_country_features":true},"source_relative_only":true,"physical_class":"unknown","cause":"unknown","legal_or_current_authority":"not assessed or implied","limits":["diagnostic geometry only; no land/water truth, rightful province, or historical ownership established","geoBoundaries year/role/license remain source metadata, not legal authority","source relative fit only; no snapping, tolerance, repair, or datum transformation"],"original_component_properties":{"water_status":"unverified","administrative_assignment":null,"dateline_connected":false,"fragment_bindings":[{"feature_sha256":"962b21e48fe29b1db3b536975f777ea44ca4831e8d6ad67f5ee6d015609c5f60","id":"physical-gap:830:63:d35814fa28040652d3872af7e1b0953b8bad6a633492adbd178736f05871a10c"}]}}}]}
