{"type":"FeatureCollection","features":[{"type":"Feature","id":"physical-component:05ce4853d2711cf61c70c60f97bdde8cb0721fe6cc5c2732badfb1f4d225328a","properties":{"source_payload_id":"physical-component:05ce4853d2711cf61c70c60f97bdde8cb0721fe6cc5c2732badfb1f4d225328a"},"geometry":{"coordinates":[[[-8.188939180047278,41.87611504605103],[-8.1828,41.8749],[-8.1706,41.879],[-8.1617,41.8606],[-8.1651,41.8183],[-8.1525,41.8177],[-8.140962877030155,41.81318770301624],[-8.1925,41.8136],[-8.1804,41.8306],[-8.1759,41.8649],[-8.188939180047278,41.87611504605103]]],"type":"Polygon"}},{"type":"Feature","id":"physical-component:07df72d8b3899d34438097557164f4f0b5e5a7681fe63be7ea5e2f797210c3f6","properties":{"source_payload_id":"physical-component:07df72d8b3899d34438097557164f4f0b5e5a7681fe63be7ea5e2f797210c3f6"},"geometry":{"coordinates":[[[-7.8848,41.8809],[-7.8882,41.8661],[-7.88937571474462,41.86416007067138],[-7.9132,41.8819],[-7.9054,41.9099],[-7.909373405318936,41.91095102979404],[-7.909,41.9229],[-7.9058,41.9274],[-7.8876,41.9271],[-7.8848,41.8809]]],"type":"Polygon"}},{"type":"Feature","id":"physical-component:0ef4df12091df2f240213351e014d262be34611aa1b41b2e77e93f3862cb4fdf","properties":{"source_payload_id":"physical-component:0ef4df12091df2f240213351e014d262be34611aa1b41b2e77e93f3862cb4fdf"},"geometry":{"coordinates":[[[-8.078764705882376,41.812705882352944],[-8.0784,41.8128],[-8.0786,41.814],[-8.077179192412702,41.81386844374192],[-8.078,41.8127],[-8.078764705882376,41.812705882352944]]],"type":"Polygon"}},{"type":"Feature","id":"physical-component:0faa2efb5e10e17a8d24344ee5afdabe5f6d2c23888f52d2f7fdd51494a00329","properties":{"source_payload_id":"physical-component:0faa2efb5e10e17a8d24344ee5afdabe5f6d2c23888f52d2f7fdd51494a00329"},"geometry":{"coordinates":[[[-8.3957,42.078],[-8.413198399589925,42.07603072673425],[-8.4044,42.0804],[-8.3935,42.0805],[-8.392980564635959,42.079697236255576],[-8.3957,42.078]]],"type":"Polygon"}},{"type":"Feature","id":"physical-component:0ffe3884cb8abcafd1513dc6ef642bbe14d77a214d53730c7f896a47b5d41009","properties":{"source_payload_id":"physical-component:0ffe3884cb8abcafd1513dc6ef642bbe14d77a214d53730c7f896a47b5d41009"},"geometry":{"coordinates":[[[-7.5357,39.6562],[-7.536547503063726,39.661635319648695],[-7.5349,39.6621],[-7.5344,39.659],[-7.5303,39.6568],[-7.5291095874775795,39.65296422631665],[-7.5357,39.6562]]],"type":"Polygon"}},{"type":"Feature","id":"physical-component:12444cbb9a96839ddfc69f6666a22f4d02a429129329e9bbf6a1742991e7faa0","properties":{"source_payload_id":"physical-component:12444cbb9a96839ddfc69f6666a22f4d02a429129329e9bbf6a1742991e7faa0"},"geometry":{"coordinates":[[[-6.9531,40.1142],[-6.9204,40.0836],[-6.9189560551124005,40.07692175489485],[-6.9276,40.0869],[-6.9444,40.1026],[-6.957516394112839,40.11137350776779],[-6.9531,40.1142]]],"type":"Polygon"}},{"type":"Feature","id":"physical-component:137a1e1873ef3c0d140480618abd24f8b0125182e0e2c5fbe92242c64ed0cc1a","properties":{"source_payload_id":"physical-component:137a1e1873ef3c0d140480618abd24f8b0125182e0e2c5fbe92242c64ed0cc1a"},"geometry":{"coordinates":[[[-6.959,38.1833],[-6.954939920948607,38.18451422924902],[-6.9566,38.1832],[-6.962335714285718,38.17329285714285],[-6.959,38.1833]]],"type":"Polygon"}},{"type":"Feature","id":"physical-component:17b5806fbf239befa4d87ee2600f1f1a2fc6f4909fbcfc42c11f5382d04ce879","properties":{"source_payload_id":"physical-component:17b5806fbf239befa4d87ee2600f1f1a2fc6f4909fbcfc42c11f5382d04ce879"},"geometry":{"coordinates":[[[-7.518818498548322,37.545918595326974],[-7.5188115505471895,37.545909524325495],[-7.5303,37.5464],[-7.518818498548322,37.545918595326974]]],"type":"Polygon"}},{"type":"Feature","id":"physical-component:188a372fefa2333a034123c6a2bb6134f649e44b5be92367725902ea2d568c70","properties":{"source_payload_id":"physical-component:188a372fefa2333a034123c6a2bb6134f649e44b5be92367725902ea2d568c70"},"geometry":{"coordinates":[[[-7.206583441258094,37.99945032377428],[-7.206,37.9977],[-7.2165,37.9957],[-7.2271,37.9884],[-7.2307,37.9915],[-7.2325,37.9898],[-7.232776073619633,37.98985521472393],[-7.2307,37.9928],[-7.206583441258094,37.99945032377428]]],"type":"Polygon"}},{"type":"Feature","id":"physical-component:195d63bd2e999dd5b688eeb4441182b7be70f31f582a29a8c7a5bf074cb13741","properties":{"source_payload_id":"physical-component:195d63bd2e999dd5b688eeb4441182b7be70f31f582a29a8c7a5bf074cb13741"},"geometry":{"coordinates":[[[-8.746480333773562,41.95412789050306],[-8.748,41.9597],[-8.7441,41.9653],[-8.7183,41.9783],[-8.704558678936348,41.98198845986445],[-8.746480333773562,41.95412789050306]]],"type":"Polygon"}},{"type":"Feature","id":"physical-component:1a3d8a842dfeb311163175db0ed5fd807ebb398b94844ce769b7f365e2babe47","properties":{"source_payload_id":"physical-component:1a3d8a842dfeb311163175db0ed5fd807ebb398b94844ce769b7f365e2babe47"},"geometry":{"coordinates":[[[-6.8444,40.3419],[-6.7933101671554725,40.35440669102681],[-6.791,40.3338],[-6.8167,40.3262],[-6.8613,40.2996],[-6.8651,40.2706],[-6.885,40.2586],[-6.9078,40.2549],[-6.9505,40.2583],[-6.9646,40.2376],[-6.9781,40.2409],[-7.0122,40.2265],[-7.019,40.1971],[-7.0288,40.1856],[-7.0156,40.1781],[-7.0198,40.1692],[-7.0133,40.159],[-7.0129,40.1511],[-7.019070977810026,40.145481647068486],[-7.051,40.1618],[-7.0453,40.1998],[-7.0248,40.2454],[-7.0024,40.2582],[-6.9669,40.2711],[-6.9087,40.2729],[-6.8736,40.3063],[-6.8444,40.3419]]],"type":"Polygon"}},{"type":"Feature","id":"physical-component:1b7ff4b072a17f607f96ea29b3ab900da113b78b25b89a5b75a972b301b188a2","properties":{"source_payload_id":"physical-component:1b7ff4b072a17f607f96ea29b3ab900da113b78b25b89a5b75a972b301b188a2"},"geometry":{"coordinates":[[[-7.2603,39.2386],[-7.264317891349322,39.29943087502873],[-7.2314,39.2784],[-7.2479,39.2535],[-7.2417,39.2413],[-7.241738571428571,39.2386],[-7.2603,39.2386]]],"type":"Polygon"}},{"type":"Feature","id":"physical-component:2250b28781f1a8183b64f151bad5107a1f8e5e1d9cc196897d090b0dd5a0851e","properties":{"source_payload_id":"physical-component:2250b28781f1a8183b64f151bad5107a1f8e5e1d9cc196897d090b0dd5a0851e"},"geometry":{"coordinates":[[[-7.8343,41.8736],[-7.843716393442623,41.875365573770495],[-7.8452,41.8813],[-7.821228207494925,41.88169206202695],[-7.8343,41.8736]]],"type":"Polygon"}},{"type":"Feature","id":"physical-component:2aafc5464e75d6b7fc501a8b5bbf15270201ecde60d0ebdbc14461272a1007c7","properties":{"source_payload_id":"physical-component:2aafc5464e75d6b7fc501a8b5bbf15270201ecde60d0ebdbc14461272a1007c7"},"geometry":{"coordinates":[[[-6.48303445436422,41.279137782785824],[-6.4788,41.277],[-6.4787,41.275],[-6.4889539806194225,41.26973292798784],[-6.48303445436422,41.279137782785824]]],"type":"Polygon"}},{"type":"Feature","id":"physical-component:2f8725ea8297c48ca3cb3083b4402b9ce224b10de882168a5378840d11e3f9aa","properties":{"source_payload_id":"physical-component:2f8725ea8297c48ca3cb3083b4402b9ce224b10de882168a5378840d11e3f9aa"},"geometry":{"coordinates":[[[-7.1198,41.9869],[-7.117726026490072,41.985391655629144],[-7.1232891031730805,41.98711637849135],[-7.1198,41.9869]]],"type":"Polygon"}},{"type":"Feature","id":"physical-component:33d5bea41dac2ec602e3d486243d1d29511449219f2ede8bb1e89cb0725d356c","properties":{"source_payload_id":"physical-component:33d5bea41dac2ec602e3d486243d1d29511449219f2ede8bb1e89cb0725d356c"},"geometry":{"coordinates":[[[-6.849,40.9246],[-6.8485,40.9008],[-6.847302844780963,40.89940537587885],[-6.8561,40.9021],[-6.8622,40.9337],[-6.873709097118463,40.959885127001066],[-6.8676,40.9569],[-6.8581,40.9431],[-6.8574,40.9424],[-6.849,40.9246]]],"type":"Polygon"}},{"type":"Feature","id":"physical-component:36cf037b56723f671a78a95560ec930d768047189bd373f6dd4308727b5da2c0","properties":{"source_payload_id":"physical-component:36cf037b56723f671a78a95560ec930d768047189bd373f6dd4308727b5da2c0"},"geometry":{"coordinates":[[[-8.156158770614693,42.07754707646177],[-8.1491,42.0799],[-8.1185,42.0821],[-8.1045,42.0746],[-8.087,42.0533],[-8.0829,42.0284],[-8.0944,42.0128],[-8.1148,42.0046],[-8.115903457296378,42.004804765271494],[-8.1017,42.0129],[-8.1002,42.0482],[-8.1225,42.0747],[-8.156158770614693,42.07754707646177]]],"type":"Polygon"}},{"type":"Feature","id":"physical-component:36cf9227181b39fa3b7466e32d6d481bad9e97bc88f520ad2cb36843964a642c","properties":{"source_payload_id":"physical-component:36cf9227181b39fa3b7466e32d6d481bad9e97bc88f520ad2cb36843964a642c"},"geometry":{"coordinates":[[[-6.971466676020776,41.97238035639119],[-6.985970088587809,41.97121490359562],[-6.9858,41.9714],[-6.9786,41.974],[-6.971466676020776,41.97238035639119]]],"type":"Polygon"}},{"type":"Feature","id":"physical-component:3d26d33457b023a510afc6d77bbd5441ddca5cc9ea597be323c9c1d6b728616e","properties":{"source_payload_id":"physical-component:3d26d33457b023a510afc6d77bbd5441ddca5cc9ea597be323c9c1d6b728616e"},"geometry":{"coordinates":[[[-7.1454,38.0027],[-7.156,37.9939],[-7.1731,37.9932],[-7.1774,37.9983],[-7.1836,37.9971],[-7.1917,38.0012],[-7.195543630977572,38.002041938214134],[-7.1582,38.0045],[-7.12229811320755,38.0045],[-7.1328,37.9999],[-7.1373,37.9992],[-7.1454,38.0027]]],"type":"Polygon"}},{"type":"Feature","id":"physical-component:415aed0ae6139a3727f61623666348aad01a55fe44219c33d539ca9fe386d5dd","properties":{"source_payload_id":"physical-component:415aed0ae6139a3727f61623666348aad01a55fe44219c33d539ca9fe386d5dd"},"geometry":{"coordinates":[[[-6.8958,41.9354],[-6.9201,41.9243],[-6.939184719841791,41.94495740276862],[-6.9329,41.9466],[-6.8925,41.9398],[-6.8696,41.9475],[-6.8444,41.9423],[-6.8358,41.9453],[-6.834483036848784,41.94497653536637],[-6.8585,41.9345],[-6.8641,41.9396],[-6.8958,41.9354]]],"type":"Polygon"}},{"type":"Feature","id":"physical-component:434324927505fbfe5e25b1b1616ba7182f12b962a7e85c97c062681c4fcb2297","properties":{"source_payload_id":"physical-component:434324927505fbfe5e25b1b1616ba7182f12b962a7e85c97c062681c4fcb2297"},"geometry":{"coordinates":[[[-7.60502691835139,41.83108201720094],[-7.5988,41.8331],[-7.588586595877938,41.831705398633936],[-7.6046,41.83],[-7.60502691835139,41.83108201720094]]],"type":"Polygon"}},{"type":"Feature","id":"physical-component:437c749260c52a19f7b2ca48a452d8975011726c3610fdd70c173f7216b2c036","properties":{"source_payload_id":"physical-component:437c749260c52a19f7b2ca48a452d8975011726c3610fdd70c173f7216b2c036"},"geometry":{"coordinates":[[[-6.7791,41.1471],[-6.7384,41.1669],[-6.7121,41.1921],[-6.7169,41.2164],[-6.669,41.2326],[-6.6547,41.2479],[-6.6332,41.2479],[-6.624307060185188,41.24547465277778],[-6.63,41.2426],[-6.6473,41.2478],[-6.6528,41.2356],[-6.6804,41.2186],[-6.6968,41.1892],[-6.7091,41.1736],[-6.7679,41.1335],[-6.7704,41.1308],[-6.770320726495727,41.1257264957265],[-6.7736,41.1296],[-6.7791,41.1471]]],"type":"Polygon"}},{"type":"Feature","id":"physical-component:44393dff17516adb78b5fc6d025fec97a576bce5d3c9bf08e76fca6b1902c72a","properties":{"source_payload_id":"physical-component:44393dff17516adb78b5fc6d025fec97a576bce5d3c9bf08e76fca6b1902c72a"},"geometry":{"coordinates":[[[-7.471015578144854,37.63152630241423],[-7.4706,37.6246],[-7.4804,37.6177],[-7.48340408114272,37.614954891369585],[-7.4831,37.6158],[-7.471015578144854,37.63152630241423]]],"type":"Polygon"}},{"type":"Feature","id":"physical-component:46d9ecac85bc3f604818be035d96e47c93429bada8caf338d744e84e0f6071d8","properties":{"source_payload_id":"physical-component:46d9ecac85bc3f604818be035d96e47c93429bada8caf338d744e84e0f6071d8"},"geometry":{"coordinates":[[[-7.1321,39.1647],[-7.1332,39.1604],[-7.135794735638318,39.15674544276293],[-7.1501,39.1668],[-7.1490829649519,39.17259031954052],[-7.1363,39.1722],[-7.1321,39.1647]]],"type":"Polygon"}},{"type":"Feature","id":"physical-component:4c7716f9de4181a8922445e15d4d3232aa61eb04756ef95b423303a0005e9615","properties":{"source_payload_id":"physical-component:4c7716f9de4181a8922445e15d4d3232aa61eb04756ef95b423303a0005e9615"},"geometry":{"coordinates":[[[-7.3100540015800455,37.83587853055948],[-7.3142,37.8286],[-7.3202,37.8237],[-7.3241,37.8158],[-7.3659,37.7928],[-7.3956,37.765],[-7.4083,37.7674],[-7.4227,37.7549],[-7.4183,37.7449],[-7.421975140990063,37.74335067585713],[-7.4213,37.7461],[-7.4599,37.7725],[-7.3755,37.8005],[-7.3100540015800455,37.83587853055948]]],"type":"Polygon"}},{"type":"Feature","id":"physical-component:4e4b674214bea7d3f52672718166e7cbc7a5fab2cdbc421a9d407198653d5477","properties":{"source_payload_id":"physical-component:4e4b674214bea7d3f52672718166e7cbc7a5fab2cdbc421a9d407198653d5477"},"geometry":{"coordinates":[[[-6.7538,41.1033],[-6.7747,41.0738],[-6.8084,41.0448],[-6.8084,41.0365],[-6.853,41.027],[-6.8777,41.0282],[-6.885103081184005,41.030110472563614],[-6.8389,41.0362],[-6.8066,41.0497],[-6.8101,41.0668],[-6.7707,41.0894],[-6.7594697172975575,41.11055036575627],[-6.7538,41.1033]]],"type":"Polygon"}},{"type":"Feature","id":"physical-component:4e4eb599060e22ab6fce676f7f941cb57227c0fce101d55515083be5cc6b84e5","properties":{"source_payload_id":"physical-component:4e4eb599060e22ab6fce676f7f941cb57227c0fce101d55515083be5cc6b84e5"},"geometry":{"coordinates":[[[-6.4251,41.3324],[-6.425116304797353,41.33243693134822],[-6.4187,41.3267],[-6.429876272213247,41.3215630798523],[-6.4251,41.3324]]],"type":"Polygon"}},{"type":"Feature","id":"physical-component:4f49c77c75ba8e9bb1cc57378fa1b8aaf01601b7764886b0fa2209de075620b4","properties":{"source_payload_id":"physical-component:4f49c77c75ba8e9bb1cc57378fa1b8aaf01601b7764886b0fa2209de075620b4"},"geometry":{"coordinates":[[[-7.1049212843171095,38.18744468254976],[-7.1763,38.1729],[-7.1049646873516625,38.187454231217366],[-7.1049212843171095,38.18744468254976]]],"type":"Polygon"}},{"type":"Feature","id":"physical-component:561a665532de93b18efa36bd31c633badb9a49722cf30f3b3bb4e723feae238f","properties":{"source_payload_id":"physical-component:561a665532de93b18efa36bd31c633badb9a49722cf30f3b3bb4e723feae238f"},"geometry":{"coordinates":[[[-7.381293066973097,41.84383048115737],[-7.3639,41.8528],[-7.3564,41.8405],[-7.315,41.8428],[-7.301,41.8516],[-7.294913082892656,41.8518123343177],[-7.3078,41.8426],[-7.3304,41.8356],[-7.381293066973097,41.84383048115737]]],"type":"Polygon"}},{"type":"Feature","id":"physical-component:62852369ad9a79f9b4a60e10e2d439c96c792c6e6c13d73367e9384ae6e0c631","properties":{"source_payload_id":"physical-component:62852369ad9a79f9b4a60e10e2d439c96c792c6e6c13d73367e9384ae6e0c631"},"geometry":{"coordinates":[[[-8.130886928799152,42.00120284476416],[-8.1406,41.9888],[-8.1632,41.9756],[-8.18,41.9539],[-8.1983,41.9397],[-8.217,41.9136],[-8.2137,41.9006],[-8.2014,41.8875],[-8.2007,41.8833],[-8.198267313630351,41.88063189236877],[-8.2323,41.871],[-8.202,41.8796],[-8.2294,41.9091],[-8.2279,41.9389],[-8.2101,41.9643],[-8.1789,41.9798],[-8.1522,41.9997],[-8.130886928799152,42.00120284476416]]],"type":"Polygon"}},{"type":"Feature","id":"physical-component:6752ba015d808b62fbc7a16f69e4fea364a649635f46f3158c94015ea53058e4","properties":{"source_payload_id":"physical-component:6752ba015d808b62fbc7a16f69e4fea364a649635f46f3158c94015ea53058e4"},"geometry":{"coordinates":[[[-6.8287,40.7442],[-6.829504111245465,40.74352285368803],[-6.8491,40.7584],[-6.8454,40.7839],[-6.8585,40.798],[-6.823,40.8122],[-6.836,40.8419],[-6.8155,40.856],[-6.812438482497186,40.882184031274065],[-6.8094,40.8827],[-6.8074,40.8766],[-6.8022,40.8607],[-6.8022,40.8451],[-6.821,40.8365],[-6.8199,40.7945],[-6.8283,40.7594],[-6.8312,40.7526],[-6.8287,40.7442]]],"type":"Polygon"}},{"type":"Feature","id":"physical-component:68e208564b70d1bfeb900816ff1b8ae50e4d2af21059da996dff06de56ad1116","properties":{"source_payload_id":"physical-component:68e208564b70d1bfeb900816ff1b8ae50e4d2af21059da996dff06de56ad1116"},"geometry":{"coordinates":[[[-6.2009,41.5944],[-6.1893,41.575],[-6.2018,41.5685],[-6.204121594010762,41.56652417530999],[-6.2044,41.5673],[-6.2773,41.6274],[-6.3034,41.64],[-6.3595,41.6498],[-6.3838,41.6498],[-6.4623,41.6596],[-6.4978,41.64],[-6.5165,41.6628],[-6.5688,41.6679],[-6.5501,41.6972],[-6.5707,41.7363],[-6.561052126226668,41.741207831441216],[-6.5593,41.7385],[-6.5564,41.7385],[-6.5578,41.7344],[-6.5552,41.7209],[-6.5468,41.7038],[-6.5482,41.6856],[-6.5121,41.6612],[-6.4889,41.6574],[-6.4577,41.6668],[-6.4513,41.6816],[-6.4398,41.6842],[-6.4252,41.6792],[-6.375,41.6738],[-6.3568,41.677],[-6.3029,41.6629],[-6.2535,41.6331],[-6.2352,41.6072],[-6.2009,41.5944]]],"type":"Polygon"}},{"type":"Feature","id":"physical-component:6d631b3bec487f84b8fa53ee03bebd1c628779d10213b3054a9e4e7162c9e1be","properties":{"source_payload_id":"physical-component:6d631b3bec487f84b8fa53ee03bebd1c628779d10213b3054a9e4e7162c9e1be"},"geometry":{"coordinates":[[[-7.236309157585924,41.86799258172674],[-7.260402797637554,41.86406621075536],[-7.2578,41.8659],[-7.2448,41.8689],[-7.236309157585924,41.86799258172674]]],"type":"Polygon"}},{"type":"Feature","id":"physical-component:6eca988380460a020c84995bf39b0ee36f7b85463833c9b4b65dbfbcbaf51e2c","properties":{"source_payload_id":"physical-component:6eca988380460a020c84995bf39b0ee36f7b85463833c9b4b65dbfbcbaf51e2c"},"geometry":{"coordinates":[[[-7.2589,37.9528],[-7.250739311262683,37.964375445017474],[-7.252,37.9599],[-7.2485,37.9545],[-7.2554,37.9227],[-7.2678,37.9123],[-7.2737,37.8991],[-7.278094326882766,37.89827283258677],[-7.2589,37.9528]]],"type":"Polygon"}},{"type":"Feature","id":"physical-component:702be284158c7cf38e791ba5010d99c948da4e3fd65516ba2917eca0d8bc0222","properties":{"source_payload_id":"physical-component:702be284158c7cf38e791ba5010d99c948da4e3fd65516ba2917eca0d8bc0222"},"geometry":{"coordinates":[[[-7.2154,41.8714],[-7.227178321833963,41.869480569775206],[-7.2196,41.8728],[-7.214276950585176,41.87619167750325],[-7.2154,41.8714]]],"type":"Polygon"}},{"type":"Feature","id":"physical-component:72db06639029f21bb6a9066b8bce95cf6f47c61da8b2d507e7194d8614ea504b","properties":{"source_payload_id":"physical-component:72db06639029f21bb6a9066b8bce95cf6f47c61da8b2d507e7194d8614ea504b"},"geometry":{"coordinates":[[[-6.8856,39.9804],[-6.8858,39.9404],[-6.9088,39.9196],[-6.9006,39.9109],[-6.9031,39.8726],[-6.9163,39.8584],[-6.9289,39.8549],[-6.9487,39.8277],[-6.9811,39.8203],[-6.9895,39.7945],[-6.9767,39.7727],[-6.9877,39.7602],[-6.993,39.732],[-7.0077,39.6844],[-7.0153,39.6708],[-7.0647,39.6579],[-7.0922,39.6637],[-7.1262,39.664],[-7.1466,39.653],[-7.1923,39.6607],[-7.2164,39.6604],[-7.2485,39.6673],[-7.287,39.6614],[-7.3251,39.6448],[-7.3337,39.6412],[-7.3747,39.6513],[-7.4015,39.6466],[-7.4257,39.6519],[-7.4528,39.6632],[-7.5312,39.6678],[-7.5374038400906445,39.667127294448],[-7.5432,39.7043],[-7.5418,39.6955],[-7.4845,39.6998],[-7.4378,39.6883],[-7.4004,39.6911],[-7.3406,39.6883],[-7.2801,39.7131],[-7.2584,39.6897],[-7.2023,39.6854],[-7.122,39.6911],[-7.0528,39.6926],[-7.0248,39.7084],[-7.0422,39.7231],[-7.021,39.7501],[-7.0098,39.8003],[-7.0263,39.8097],[-7.0173,39.8391],[-6.9743,39.8577],[-6.9444,39.875],[-6.9295,39.8922],[-6.9351,39.9438],[-6.9183,39.9624],[-6.9108,39.9853],[-6.90824347826087,40.0],[-6.8996,40.0497],[-6.9105030250541315,40.0663458397773],[-6.9093,40.0666],[-6.9054,40.0619],[-6.8925,40.0602],[-6.897,40.052],[-6.8809,40.0412],[-6.8768,40.0179],[-6.8665,40.0089],[-6.8724645614035085,40.0],[-6.8856,39.9804]]],"type":"Polygon"}},{"type":"Feature","id":"physical-component:77633088c3a270054837c3c4ac5b575332229a16576c1e97030ba571988334e0","properties":{"source_payload_id":"physical-component:77633088c3a270054837c3c4ac5b575332229a16576c1e97030ba571988334e0"},"geometry":{"coordinates":[[[-8.526778306445008,42.068034141347965],[-8.5289,42.0739],[-8.5275,42.0776],[-8.4862,42.0821],[-8.4742,42.0809],[-8.461225836820079,42.08217824267783],[-8.526778306445008,42.068034141347965]]],"type":"Polygon"}},{"type":"Feature","id":"physical-component:7867aa7567008c42f816d518b88032b32def16d584872949d10b6901b69a976c","properties":{"source_payload_id":"physical-component:7867aa7567008c42f816d518b88032b32def16d584872949d10b6901b69a976c"},"geometry":{"coordinates":[[[-7.0487,41.9507],[-7.0459,41.9548],[-7.0361,41.9511],[-7.021534393225215,41.94986037389151],[-7.026,41.9459],[-7.0488847664775145,41.950623919685725],[-7.0487,41.9507]]],"type":"Polygon"}},{"type":"Feature","id":"physical-component:7945bae43198c73198d712fcf3937a0704f81a49aa1e58e386ce538f0c589b7d","properties":{"source_payload_id":"physical-component:7945bae43198c73198d712fcf3937a0704f81a49aa1e58e386ce538f0c589b7d"},"geometry":{"coordinates":[[[-7.041974536906774,38.91391027011818],[-7.0531,38.9269],[-7.03,38.9549],[-7.0149,38.9919],[-6.9874,39.0016],[-6.9799,39.0347],[-6.9799,39.0678],[-6.9848616368286445,39.090921227621486],[-6.9815,39.0884],[-6.9593,39.0547],[-6.9655,39.0424],[-6.9513,39.024],[-6.9641,39.0123],[-6.9834,38.9808],[-7.0204,38.9402],[-7.0269,38.924],[-7.041974536906774,38.91391027011818]]],"type":"Polygon"}},{"type":"Feature","id":"physical-component:7bfc9313cdfe042a2f0212c7a161c140decd84a084d7475db4c269d6d17f56ea","properties":{"source_payload_id":"physical-component:7bfc9313cdfe042a2f0212c7a161c140decd84a084d7475db4c269d6d17f56ea"},"geometry":{"coordinates":[[[-7.418,39.5192],[-7.3985812396478075,39.53308350623311],[-7.3911,39.5299],[-7.3921,39.5272],[-7.3891,39.525],[-7.388690648326763,39.52277130755682],[-7.418,39.5192]]],"type":"Polygon"}},{"type":"Feature","id":"physical-component:7eada69acc964ca5bf0cd8fc9b4daf8f28e1e90e9feeb118e1ee158116a8e746","properties":{"source_payload_id":"physical-component:7eada69acc964ca5bf0cd8fc9b4daf8f28e1e90e9feeb118e1ee158116a8e746"},"geometry":{"coordinates":[[[-6.8055,40.6687],[-6.7939,40.6617],[-6.813,40.6223],[-6.8373,40.5947],[-6.8378,40.5797],[-6.839889105922048,40.57754560951789],[-6.845,40.5774],[-6.836,40.6181],[-6.8155,40.6422],[-6.8117,40.6592],[-6.8117,40.7032],[-6.812005,40.704521666666665],[-6.8107,40.7008],[-6.8071,40.6979],[-6.8075,40.6937],[-6.8025,40.6803],[-6.8055,40.6687]]],"type":"Polygon"}},{"type":"Feature","id":"physical-component:81715418ebb1378868499c484250187691453a3962bcf56a1fd157f50a059687","properties":{"source_payload_id":"physical-component:81715418ebb1378868499c484250187691453a3962bcf56a1fd157f50a059687"},"geometry":{"coordinates":[[[-7.282155785383279,37.887237471036876],[-7.2795,37.8767],[-7.2865,37.8655],[-7.2891,37.8617],[-7.292396028452874,37.85977731673582],[-7.282155785383279,37.887237471036876]]],"type":"Polygon"}},{"type":"Feature","id":"physical-component:8a9da68d4a199c2930fc1999b14750f351b8f7707a4ff5f8f96c7858c82e0c80","properties":{"source_payload_id":"physical-component:8a9da68d4a199c2930fc1999b14750f351b8f7707a4ff5f8f96c7858c82e0c80"},"geometry":{"coordinates":[[[-7.0746,38.8854],[-7.04402699703287,38.90061006897614],[-7.0422,38.8991],[-7.0331,38.8792],[-7.0537,38.8577],[-7.0748,38.8466],[-7.0892,38.8189],[-7.1285,38.8138],[-7.1548,38.7939],[-7.158,38.7846],[-7.1914,38.7685],[-7.2034,38.7505],[-7.2253,38.7375],[-7.2415,38.7352],[-7.2644,38.7037],[-7.2641,38.6838],[-7.268,38.6693],[-7.2667,38.6563],[-7.267565772697297,38.65124965926577],[-7.2833,38.6549],[-7.2759,38.7366],[-7.2503,38.7629],[-7.2407,38.7828],[-7.211,38.7839],[-7.1895,38.8087],[-7.1043,38.8487],[-7.0674,38.8638],[-7.0746,38.8854]]],"type":"Polygon"}},{"type":"Feature","id":"physical-component:8b10be8cc2e60506339d3eb7b376d36709e604929600cd6d894908642c21bc2c","properties":{"source_payload_id":"physical-component:8b10be8cc2e60506339d3eb7b376d36709e604929600cd6d894908642c21bc2c"},"geometry":{"coordinates":[[[-7.7704353705315405,41.89336792057506],[-7.7635,41.899],[-7.745,41.8931],[-7.739305171823273,41.892710610039195],[-7.7553,41.8876],[-7.7704353705315405,41.89336792057506]]],"type":"Polygon"}},{"type":"Feature","id":"physical-component:8b34218b54993932979b87b8efb970d0442b57cf76f913165a57193b70c07020","properties":{"source_payload_id":"physical-component:8b34218b54993932979b87b8efb970d0442b57cf76f913165a57193b70c07020"},"geometry":{"coordinates":[[[-8.6635,42.0022],[-8.6583,42.0217],[-8.6569,42.0318],[-8.656089884119233,42.03219132716274],[-8.6542,42.0162],[-8.6601,41.9964],[-8.675448529411769,41.993645135746604],[-8.6635,42.0022]]],"type":"Polygon"}},{"type":"Feature","id":"physical-component:8c9a08ce682e4bde1525e972bb100feb814633d9d00e4332e7f59cbd1420785c","properties":{"source_payload_id":"physical-component:8c9a08ce682e4bde1525e972bb100feb814633d9d00e4332e7f59cbd1420785c"},"geometry":{"coordinates":[[[-8.765522450823658,41.92961959348099],[-8.760889136035185,41.931779912032674],[-8.767,41.9135],[-8.783424722699392,41.91447135456824],[-8.765522450823658,41.92961959348099]]],"type":"Polygon"}},{"type":"Feature","id":"physical-component:8f92dd8349fcefe09e97f4e34fb0cfe805bec3769d1ad629b35d65bc91c12b3b","properties":{"source_payload_id":"physical-component:8f92dd8349fcefe09e97f4e34fb0cfe805bec3769d1ad629b35d65bc91c12b3b"},"geometry":{"coordinates":[[[-7.3204,39.4496],[-7.315845042363178,39.468427158232195],[-7.3133,39.4668],[-7.3005,39.4627],[-7.3089,39.4316],[-7.3023,39.4222],[-7.3074,39.4014],[-7.3235,39.3819],[-7.3123,39.3708],[-7.3114036184210525,39.365780263157895],[-7.3269,39.3683],[-7.3379,39.3955],[-7.3379,39.4303],[-7.3204,39.4496]]],"type":"Polygon"}},{"type":"Feature","id":"physical-component:94a7c1eeea203cba9a06f5af8b2939c3cc6604c4882a6d100961bf2428cdc1ad","properties":{"source_payload_id":"physical-component:94a7c1eeea203cba9a06f5af8b2939c3cc6604c4882a6d100961bf2428cdc1ad"},"geometry":{"coordinates":[[[-7.0876,41.9739],[-7.08578797835519,41.96867102325355],[-7.095001995687713,41.97650933660934],[-7.0876,41.9739]]],"type":"Polygon"}},{"type":"Feature","id":"physical-component:95e8e5de1d09bfa8d2fca4f4106793cf615bd2076a1f58a3ba3d0390d92214c5","properties":{"source_payload_id":"physical-component:95e8e5de1d09bfa8d2fca4f4106793cf615bd2076a1f58a3ba3d0390d92214c5"},"geometry":{"coordinates":[[[-8.087905496243575,41.81277619612495],[-8.0869,41.8131],[-8.086494891704127,41.8127653453208],[-8.087905496243575,41.81277619612495]]],"type":"Polygon"}},{"type":"Feature","id":"physical-component:983203de90f67bfa6519d9c4209a7c4014c3205d2aa32ab1e91140715d5cca53","properties":{"source_payload_id":"physical-component:983203de90f67bfa6519d9c4209a7c4014c3205d2aa32ab1e91140715d5cca53"},"geometry":{"coordinates":[[[-7.7221,41.9005],[-7.7041,41.9073],[-7.6973,41.9072],[-7.693250149741357,41.90506849986387],[-7.6974,41.9061],[-7.727654794827713,41.896433096643996],[-7.7221,41.9005]]],"type":"Polygon"}},{"type":"Feature","id":"physical-component:98a0a9eba18768ea843f12a3981a316ca1f89441a5427db008de30ab127b47ff","properties":{"source_payload_id":"physical-component:98a0a9eba18768ea843f12a3981a316ca1f89441a5427db008de30ab127b47ff"},"geometry":{"coordinates":[[[-6.43048460376255,41.344596451895896],[-6.420838986807387,41.342373593667546],[-6.426391739871509,41.33532586862462],[-6.43048460376255,41.344596451895896]]],"type":"Polygon"}},{"type":"Feature","id":"physical-component:9cc39611d78f104746d736d32812b8ea1f4f658e8152051779898869554bf4de","properties":{"source_payload_id":"physical-component:9cc39611d78f104746d736d32812b8ea1f4f658e8152051779898869554bf4de"},"geometry":{"coordinates":[[[-6.8057,40.368],[-6.819695635350946,40.394757612874606],[-6.8127,40.3913],[-6.8096,40.3844],[-6.8005,40.3789],[-6.781,40.3647],[-6.781314868004223,40.36454071383316],[-6.8057,40.368]]],"type":"Polygon"}},{"type":"Feature","id":"physical-component:a1ad449c3035d6ee93d8c07ac3eef6292300891765e6ba3a7debe76135dc1b2c","properties":{"source_payload_id":"physical-component:a1ad449c3035d6ee93d8c07ac3eef6292300891765e6ba3a7debe76135dc1b2c"},"geometry":{"coordinates":[[[-6.9789,38.1049],[-6.985,38.1028],[-6.986745677749361,38.10360010230179],[-6.987,38.1056],[-6.974876019117229,38.10828836097836],[-6.9752,38.1081],[-6.9755,38.1043],[-6.9789,38.1049]]],"type":"Polygon"}},{"type":"Feature","id":"physical-component:a49d8ebb65c4048faa4b8be882bd58a38e918faee34e9a939bd332e786d65de3","properties":{"source_payload_id":"physical-component:a49d8ebb65c4048faa4b8be882bd58a38e918faee34e9a939bd332e786d65de3"},"geometry":{"coordinates":[[[-7.121981952959277,38.00463848341453],[-7.121812153344209,38.00594143556281],[-7.1207,38.0052],[-7.121981952959277,38.00463848341453]]],"type":"Polygon"}},{"type":"Feature","id":"physical-component:aab42339d88cd5ed739b64a554826d9469f192bcf3cef2c86920edec9d692b44","properties":{"source_payload_id":"physical-component:aab42339d88cd5ed739b64a554826d9469f192bcf3cef2c86920edec9d692b44"},"geometry":{"coordinates":[[[-7.6002,41.8604],[-7.6068,41.8535],[-7.6062,41.8487],[-7.6097,41.8487],[-7.611309688843916,41.847005590690614],[-7.624540387794979,41.88053856906659],[-7.6184,41.8851],[-7.6075,41.8795],[-7.584,41.8771],[-7.5984,41.8693],[-7.6002,41.8604]]],"type":"Polygon"}},{"type":"Feature","id":"physical-component:acfe454fee41398a64a7bcf349d13095bcaf839e1003ca2ae97d71049a3ea96f","properties":{"source_payload_id":"physical-component:acfe454fee41398a64a7bcf349d13095bcaf839e1003ca2ae97d71049a3ea96f"},"geometry":{"coordinates":[[[-6.846813045218087,40.442587795118044],[-6.862,40.4642],[-6.865588153887798,40.490306912769846],[-6.8267,40.513],[-6.803413093760859,40.53174669181516],[-6.803,40.5297],[-6.795,40.5119],[-6.8147,40.5016],[-6.8199,40.4881],[-6.8353,40.4754],[-6.8497,40.4526],[-6.846813045218087,40.442587795118044]]],"type":"Polygon"}},{"type":"Feature","id":"physical-component:af078ca6c0314ccbc518d4f43a391489da3824763e34c7eeddb736d1c428a3d2","properties":{"source_payload_id":"physical-component:af078ca6c0314ccbc518d4f43a391489da3824763e34c7eeddb736d1c428a3d2"},"geometry":{"coordinates":[[[-6.816605704697986,40.72445805369127],[-6.811,40.7173],[-6.813141666666667,40.709447222222224],[-6.816605704697986,40.72445805369127]]],"type":"Polygon"}},{"type":"Feature","id":"physical-component:bc4b3acc803749948ba91da979b6bbfe3d6da263d375c189299a85effbd39fe6","properties":{"source_payload_id":"physical-component:bc4b3acc803749948ba91da979b6bbfe3d6da263d375c189299a85effbd39fe6"},"geometry":{"coordinates":[[[-7.444602247886163,37.66589981439472],[-7.4441,37.6647],[-7.4534,37.6483],[-7.4578,37.6458],[-7.45930931876607,37.646760475578404],[-7.444602247886163,37.66589981439472]]],"type":"Polygon"}},{"type":"Feature","id":"physical-component:c165841ef6a4d89f0646fac59d748e0ef0d9001a3448c01d0b88750d748b3960","properties":{"source_payload_id":"physical-component:c165841ef6a4d89f0646fac59d748e0ef0d9001a3448c01d0b88750d748b3960"},"geometry":{"coordinates":[[[-8.199,42.1544],[-8.189,42.1351],[-8.1932,42.1278],[-8.186,42.097],[-8.1843,42.0786],[-8.1873,42.0746],[-8.185792939666241,42.072279127086006],[-8.1967,42.0648],[-8.2101,42.0923],[-8.2071,42.1199],[-8.2012,42.1397],[-8.2012,42.1482828125],[-8.2011,42.1484],[-8.199,42.1544]]],"type":"Polygon"}},{"type":"Feature","id":"physical-component:c693425aa025e6ba10e4ced1b32bfad7ffdefd3a73c2312f46606e6ca72529d4","properties":{"source_payload_id":"physical-component:c693425aa025e6ba10e4ced1b32bfad7ffdefd3a73c2312f46606e6ca72529d4"},"geometry":{"coordinates":[[[-7.1414,41.9908],[-7.13679404036846,41.989158795993355],[-7.14769066985646,41.98828373205742],[-7.1414,41.9908]]],"type":"Polygon"}},{"type":"Feature","id":"physical-component:ce6b9b0eb37343e272de20283db2e8aa11ab25ac17b3c88a4f09c2e0fc5acaaa","properties":{"source_payload_id":"physical-component:ce6b9b0eb37343e272de20283db2e8aa11ab25ac17b3c88a4f09c2e0fc5acaaa"},"geometry":{"coordinates":[[[-7.0621,38.0269],[-7.0932,38.0407],[-7.1083,38.0409],[-7.1145,38.0371],[-7.1162,38.0318],[-7.1175,38.0325],[-7.118478593272171,38.03152140672783],[-7.1171,38.0421],[-7.0776,38.0447],[-7.0529,38.02],[-7.031959175562644,38.020892559730115],[-7.0384,38.0174],[-7.0634,38.0197],[-7.0621,38.0269]]],"type":"Polygon"}},{"type":"Feature","id":"physical-component:d23cc79620bc8c34d8708fedd31fa4417e6db7b7f4f7ea5219b34a8a5b45348e","properties":{"source_payload_id":"physical-component:d23cc79620bc8c34d8708fedd31fa4417e6db7b7f4f7ea5219b34a8a5b45348e"},"geometry":{"coordinates":[[[-6.78,41.9813],[-6.810847085201793,41.9813],[-6.8115,41.9925],[-6.8056,41.9909],[-6.7687,41.9839],[-6.7506,41.9434],[-6.6993,41.9333],[-6.5994,41.9482],[-6.5885,41.9678],[-6.5776,41.9617],[-6.5491,41.9445],[-6.546,41.9307],[-6.5712,41.8836],[-6.5179,41.8754],[-6.5223,41.8543],[-6.5284,41.8468],[-6.528166081871344,41.846380896686156],[-6.5713,41.8562],[-6.5725,41.9465],[-6.5931,41.9424],[-6.6436,41.9243],[-6.6772,41.9173],[-6.7387,41.9202],[-6.78,41.9813]]],"type":"Polygon"}},{"type":"Feature","id":"physical-component:d470a5dcd578bb056972c452261f70797a774ee6ee91e0530f969ef5181fefc3","properties":{"source_payload_id":"physical-component:d470a5dcd578bb056972c452261f70797a774ee6ee91e0530f969ef5181fefc3"},"geometry":{"coordinates":[[[-6.498035789473756,41.26547368421052],[-6.496807653954983,41.26569880070072],[-6.497,41.2656],[-6.498035789473756,41.26547368421052]]],"type":"Polygon"}},{"type":"Feature","id":"physical-component:d70330c6c588799c9466082edaa8fc3c41941bc3b9edbec5185c8f5c9d8d23bc","properties":{"source_payload_id":"physical-component:d70330c6c588799c9466082edaa8fc3c41941bc3b9edbec5185c8f5c9d8d23bc"},"geometry":{"coordinates":[[[-6.9579,41.9693],[-6.95369572543675,41.960664192789004],[-6.962675901583662,41.97038438345136],[-6.9579,41.9693]]],"type":"Polygon"}},{"type":"Feature","id":"physical-component:dbcdac4e6ee6203361df2c84d9099a8a929f6686adc57b9d049be7cd58b98719","properties":{"source_payload_id":"physical-component:dbcdac4e6ee6203361df2c84d9099a8a929f6686adc57b9d049be7cd58b98719"},"geometry":{"coordinates":[[[-6.9086,40.9989],[-6.892,40.9815],[-6.888416410202357,40.97440595489038],[-6.9052,40.9845],[-6.9332,41.0085],[-6.9407,41.0282],[-6.9238,41.0344],[-6.923265899892412,41.03433521696808],[-6.9301,41.0301],[-6.9314,41.0177],[-6.9086,40.9989]]],"type":"Polygon"}},{"type":"Feature","id":"physical-component:de27fbfc400bad57d8ff547644542ccba435de4fd4ac0671926207e86b0f3033","properties":{"source_payload_id":"physical-component:de27fbfc400bad57d8ff547644542ccba435de4fd4ac0671926207e86b0f3033"},"geometry":{"coordinates":[[[-7.2775,38.6103],[-7.266676133852467,38.63217322950647],[-7.265,38.6285],[-7.2458,38.6211],[-7.2594,38.6064],[-7.2617,38.5953],[-7.2742,38.5767],[-7.286,38.5738],[-7.2905,38.5568],[-7.3034,38.544],[-7.3021,38.5272],[-7.3111,38.5162],[-7.3141,38.5133],[-7.315174632824409,38.50069097486027],[-7.3464,38.5317],[-7.3128,38.5577],[-7.2775,38.6103]]],"type":"Polygon"}},{"type":"Feature","id":"physical-component:e87586a7048554a7b099b9a5c95de859c2d7eeb2257fb1c6a7ed1a8d3036c646","properties":{"source_payload_id":"physical-component:e87586a7048554a7b099b9a5c95de859c2d7eeb2257fb1c6a7ed1a8d3036c646"},"geometry":{"coordinates":[[[-6.3146,41.4176],[-6.296569762419006,41.43788401727862],[-6.295,41.4357],[-6.3089,41.4199],[-6.3141,41.4169],[-6.314149955192671,41.416886219257194],[-6.3146,41.4176]]],"type":"Polygon"}},{"type":"Feature","id":"physical-component:edc36e9e9d4f954b6d875999a978252248dcef2469e500dfa8bd23d5fa5f0e9e","properties":{"source_payload_id":"physical-component:edc36e9e9d4f954b6d875999a978252248dcef2469e500dfa8bd23d5fa5f0e9e"},"geometry":{"coordinates":[[[-7.303480590534086,38.46457056013895],[-7.3031946538836525,38.482698943776406],[-7.3,38.4836],[-7.2977,38.4734],[-7.3014,38.4658],[-7.303480590534086,38.46457056013895]]],"type":"Polygon"}},{"type":"Feature","id":"physical-component:f713bf79a674138b3c436dc8bdb475c8fa9dd2d43df70438d6e725bfedec3ffd","properties":{"source_payload_id":"physical-component:f713bf79a674138b3c436dc8bdb475c8fa9dd2d43df70438d6e725bfedec3ffd"},"geometry":{"coordinates":[[[-7.4247,41.8165],[-7.427095823095792,41.814495331695355],[-7.433,41.8101],[-7.4549,41.8122],[-7.4596,41.849],[-7.476422790113111,41.86329937159614],[-7.4742,41.8638],[-7.4525,41.8651],[-7.4463,41.8569],[-7.4437,41.8394],[-7.4272,41.8331],[-7.4247,41.8165]]],"type":"Polygon"}},{"type":"Feature","id":"physical-component:fcc0986c67a20716a15a7e3cd2e57d8ea35c8ec564d5c2ec4c1edc41f65c7df1","properties":{"source_payload_id":"physical-component:fcc0986c67a20716a15a7e3cd2e57d8ea35c8ec564d5c2ec4c1edc41f65c7df1"},"geometry":{"coordinates":[[[-8.291547597563724,42.11142946086172],[-8.2918,42.111],[-8.295440630182426,42.11025936981758],[-8.2948,42.1109],[-8.291547597563724,42.11142946086172]]],"type":"Polygon"}}]}
