{"type":"FeatureCollection","features":[{"type":"Feature","id":"osm:whole-named-island:fugloy","properties":{"name":"Fugloy"},"geometry":{"type":"Polygon","coordinates":[[[-6.2888037,62.341753],[-6.288809,62.3416925],[-6.2888305,62.3416465],[-6.2888071,62.3415947],[-6.2887652,62.3415375],[-6.2887182,62.3414695],[-6.2886744,62.3413959],[-6.2886462,62.3413315],[-6.288624,62.3412845],[-6.2886315,62.3412573],[-6.2886879,62.3412476],[-6.2887365,62.3412332],[-6.2887193,62.3411885],[-6.2886889,62.3411706],[-6.288659,62.3411528],[-6.2885873,62.3411064],[-6.2884968,62.3410572],[-6.2884404,62.3410286],[-6.2883709,62.3410036],[-6.2883273,62.3409629],[-6.2882733,62.340927],[-6.2882158,62.3408966],[-6.288137,62.3408625],[-6.2880662,62.3408269],[-6.2879819,62.3407946],[-6.2878959,62.3407542],[-6.2878311,62.3407233],[-6.2877686,62.3406865],[-6.2876994,62.3406446],[-6.2876306,62.3405933],[-6.2875822,62.3405515],[-6.2875475,62.3405237],[-6.2874534,62.3404773],[-6.2874039,62.3404806],[-6.2873454,62.3404744],[-6.2872466,62.3404764],[-6.2871113,62.340459],[-6.2870031,62.3404515],[-6.2868291,62.3404332],[-6.2867243,62.3404075],[-6.286617,62.3403907],[-6.2865016,62.340374],[-6.2863746,62.3403661],[-6.286296,62.3403685],[-6.2862076,62.3403661],[-6.2861067,62.3403863],[-6.2860744,62.3404084],[-6.2860405,62.3404441],[-6.2860106,62.3404914],[-6.2859484,62.3405294],[-6.2859174,62.3405467],[-6.2858303,62.3406029],[-6.2857472,62.3406456],[-6.2856813,62.3406729],[-6.2856389,62.3406959],[-6.2855709,62.3407258],[-6.2854841,62.3407606],[-6.2853844,62.3407874],[-6.2852738,62.3408185],[-6.2851651,62.3408495],[-6.2850546,62.340876],[-6.2849643,62.340902],[-6.2848869,62.3409231],[-6.2847939,62.3409547],[-6.2846974,62.3409869],[-6.2846019,62.3410237],[-6.2844957,62.3410719],[-6.2843916,62.3411158],[-6.2842576,62.3411735],[-6.2841209,62.341247],[-6.2840095,62.3413122],[-6.2838972,62.341363],[-6.2837845,62.3414119],[-6.2836928,62.3414541],[-6.2836267,62.3414758],[-6.2835561,62.3414823],[-6.2834764,62.3415002],[-6.2833687,62.3415299],[-6.2832662,62.3415435],[-6.2831568,62.3415679],[-6.2830448,62.3416049],[-6.283001,62.3416131],[-6.2829598,62.3416122],[-6.2828527,62.34162],[-6.2827478,62.3416327],[-6.2826248,62.341656],[-6.2825041,62.3416873],[-6.2823796,62.3417126],[-6.2822531,62.3417533],[-6.2821247,62.3417907],[-6.2820034,62.3418345],[-6.2819072,62.3418738],[-6.2818193,62.3419139],[-6.2817654,62.3419267],[-6.2817233,62.3419356],[-6.2816816,62.3419419],[-6.2815833,62.3419532],[-6.281483,62.3419807],[-6.2813739,62.3420216],[-6.2812626,62.3420513],[-6.281145,62.3420886],[-6.2810435,62.3421255],[-6.280978,62.3421457],[-6.2809679,62.3421543],[-6.2808913,62.3421869],[-6.2807612,62.3422331],[-6.2806181,62.342272],[-6.2804843,62.342296],[-6.2803604,62.3423174],[-6.2802897,62.3423253],[-6.2801944,62.3423361],[-6.2801041,62.3423403],[-6.280019,62.3423406],[-6.2799757,62.342344],[-6.2798865,62.3423516],[-6.2797659,62.3423653],[-6.2796346,62.3423887],[-6.2795192,62.3424137],[-6.2794307,62.3424322],[-6.2793519,62.3424266],[-6.2792811,62.3424055],[-6.2792579,62.342393],[-6.2792201,62.3423686],[-6.2791711,62.3423284],[-6.2791453,62.342315],[-6.2791096,62.3422888],[-6.279073,62.3422623],[-6.2789663,62.3422503],[-6.2788767,62.3422571],[-6.2787204,62.342242],[-6.2785966,62.3422175],[-6.2785394,62.3421925],[-6.2785035,62.3421736],[-6.2784501,62.3421264],[-6.2784035,62.3420971],[-6.2783309,62.3420494],[-6.2782682,62.3420069],[-6.2780892,62.3419772],[-6.2779013,62.3419466],[-6.2776777,62.3419223],[-6.2774578,62.3419211],[-6.277167,62.3419179],[-6.276986,62.3419497],[-6.2769651,62.3419441],[-6.2768433,62.3419091],[-6.2766877,62.3418959],[-6.2765116,62.3418912],[-6.2763726,62.3418966],[-6.276283,62.3419079],[-6.276232,62.3419203],[-6.2761277,62.3419635],[-6.2759058,62.342008],[-6.2757862,62.3420231],[-6.2756335,62.3420603],[-6.2751924,62.3420485],[-6.2750561,62.3420357],[-6.2748991,62.3420314],[-6.27483,62.3420342],[-6.2747351,62.3420822],[-6.2746696,62.342103],[-6.2745618,62.3421325],[-6.2744394,62.3421704],[-6.2743277,62.342195],[-6.2742149,62.3422288],[-6.2741325,62.3422587],[-6.2740212,62.3422787],[-6.2739439,62.3422899],[-6.2738509,62.3423017],[-6.2737409,62.3423215],[-6.2737012,62.342325],[-6.2736222,62.3423275],[-6.2735514,62.3423507],[-6.2735272,62.3423902],[-6.2734941,62.3424398],[-6.2734811,62.3424609],[-6.2734492,62.3424919],[-6.2734006,62.3425375],[-6.2733364,62.3425827],[-6.2733125,62.3426017],[-6.2732982,62.342621],[-6.2732517,62.3426551],[-6.2731403,62.3427211],[-6.2731078,62.3427559],[-6.2731136,62.3427866],[-6.2731401,62.3428221],[-6.2731633,62.3428718],[-6.2731889,62.3429126],[-6.273202,62.3429523],[-6.2732243,62.3429928],[-6.2732509,62.3430289],[-6.2732672,62.3430665],[-6.2732906,62.343099],[-6.2733003,62.34314],[-6.2733053,62.3431784],[-6.2732873,62.3432148],[-6.2732529,62.3432477],[-6.27321,62.3432752],[-6.2731588,62.3433003],[-6.2731044,62.3433154],[-6.273052,62.3433333],[-6.2729929,62.3433587],[-6.2729451,62.343389],[-6.2729066,62.3434204],[-6.2728593,62.3434574],[-6.2728124,62.3434887],[-6.272782,62.3435173],[-6.2727454,62.3435473],[-6.2727053,62.343575],[-6.2726722,62.3435834],[-6.2726366,62.3435809],[-6.2725764,62.3435762],[-6.2725012,62.3435853],[-6.2724546,62.3436066],[-6.2724158,62.343638],[-6.2723643,62.3436678],[-6.2722988,62.3436975],[-6.2722512,62.3437113],[-6.272187,62.3437357],[-6.2721139,62.3437581],[-6.2720308,62.3437769],[-6.2719567,62.3437823],[-6.2718675,62.3437776],[-6.2717893,62.3437731],[-6.2717032,62.3437665],[-6.2716161,62.3437644],[-6.2715523,62.3437605],[-6.271485,62.3437537],[-6.2714514,62.3437481],[-6.271412,62.3437428],[-6.2713804,62.3437351],[-6.2713012,62.3437329],[-6.2712332,62.3437265],[-6.2711548,62.3437245],[-6.2710943,62.3437366],[-6.2709948,62.3437477],[-6.2709028,62.3437728],[-6.2708608,62.3437945],[-6.2708279,62.3438211],[-6.2708035,62.3438615],[-6.2708038,62.3438767],[-6.2708003,62.3438863],[-6.2708051,62.3439162],[-6.2707718,62.3439562],[-6.2707374,62.3439928],[-6.2707229,62.3440114],[-6.2707006,62.3440365],[-6.2706515,62.3440802],[-6.2706019,62.3441234],[-6.2705341,62.3441696],[-6.2704475,62.3442141],[-6.2703807,62.3442367],[-6.2703385,62.3442508],[-6.2702478,62.3442826],[-6.2701857,62.3443057],[-6.2701192,62.3443424],[-6.2700523,62.3443817],[-6.2699958,62.3444191],[-6.2699281,62.3444667],[-6.2698674,62.3445098],[-6.269809,62.3445574],[-6.2697418,62.344607],[-6.2696646,62.3446398],[-6.2695829,62.3446678],[-6.2695082,62.3446958],[-6.2694388,62.3447252],[-6.2693579,62.3447557],[-6.269282,62.344778],[-6.2692092,62.3447918],[-6.2691669,62.3448015],[-6.2690674,62.3448379],[-6.2689704,62.3449],[-6.2688861,62.3449479],[-6.2687508,62.3450083],[-6.2686238,62.3450827],[-6.2684963,62.3451529],[-6.2684366,62.3451605],[-6.2682247,62.3451961],[-6.2679566,62.3452254],[-6.2677257,62.3452561],[-6.2674771,62.3452769],[-6.2672784,62.3452854],[-6.2670684,62.3453074],[-6.2669004,62.3453211],[-6.2668145,62.3453222],[-6.2667735,62.345327],[-6.2666727,62.3453295],[-6.2665897,62.3453311],[-6.2664958,62.3453314],[-6.2664218,62.3453246],[-6.2663465,62.3453109],[-6.2662574,62.3452925],[-6.2661683,62.345269],[-6.2660714,62.3452401],[-6.2659914,62.3452124],[-6.2659528,62.345195],[-6.265912,62.345177],[-6.2658787,62.3451568],[-6.265832,62.3451273],[-6.2657474,62.345088],[-6.2656629,62.3450584],[-6.2655317,62.3449995],[-6.2654776,62.3449711],[-6.265236,62.3449509],[-6.2650978,62.3449379],[-6.2648723,62.3449319],[-6.2647647,62.3449244],[-6.2646871,62.3449131],[-6.2645887,62.3449151],[-6.2644919,62.3449033],[-6.2643968,62.3448778],[-6.2643088,62.3448709],[-6.2642517,62.3448683],[-6.2641996,62.3448687],[-6.2641235,62.3448655],[-6.2640234,62.3448592],[-6.263926,62.3448544],[-6.2638261,62.3448498],[-6.263756,62.3448475],[-6.2636978,62.3448423],[-6.2636484,62.3448352],[-6.2636229,62.3448189],[-6.2636197,62.3447896],[-6.2636184,62.3447691],[-6.2636059,62.3447466],[-6.2635604,62.3447078],[-6.2635348,62.344685],[-6.2634481,62.3446689],[-6.2633055,62.3446283],[-6.2631536,62.3445876],[-6.2629415,62.3445498],[-6.2628079,62.3445141],[-6.2626439,62.3444914],[-6.2625069,62.3444831],[-6.2623145,62.3444459],[-6.2622013,62.344406],[-6.2621255,62.3443858],[-6.2620143,62.344378],[-6.2619528,62.344373],[-6.2618873,62.3443692],[-6.2617592,62.3443662],[-6.2616568,62.3443646],[-6.2616188,62.3443611],[-6.2615868,62.3443548],[-6.2615406,62.3443246],[-6.2614792,62.3442894],[-6.2614195,62.3442735],[-6.2613779,62.344269],[-6.2613403,62.3442727],[-6.2612885,62.3442856],[-6.261223,62.3442966],[-6.2611509,62.3442913],[-6.2610537,62.3442733],[-6.2609585,62.3442548],[-6.2607902,62.3442421],[-6.2607067,62.3442339],[-6.2605613,62.3442155],[-6.2605151,62.3442109],[-6.2604737,62.3442084],[-6.2603761,62.3442058],[-6.2601603,62.3442091],[-6.2598779,62.3442106],[-6.2597548,62.344212],[-6.2596495,62.3441908],[-6.2595914,62.3441884],[-6.2595517,62.3441799],[-6.259454,62.3441515],[-6.259378,62.3441297],[-6.2593018,62.3441],[-6.2591202,62.3440197],[-6.2590477,62.3439767],[-6.2590048,62.3439346],[-6.259004,62.3439045],[-6.259012,62.3438797],[-6.2589897,62.3438483],[-6.2589111,62.343815],[-6.258792,62.3437734],[-6.258684,62.3437217],[-6.2585912,62.3436647],[-6.2585245,62.3436123],[-6.2584586,62.343548],[-6.258408,62.3434898],[-6.2584079,62.3434498],[-6.2584049,62.3434022],[-6.2583302,62.3433378],[-6.2582423,62.3432715],[-6.2581928,62.3431935],[-6.2581281,62.3431216],[-6.2580587,62.3430665],[-6.2580224,62.3430333],[-6.2580245,62.3430117],[-6.2580788,62.342963],[-6.2581485,62.3429045],[-6.2581864,62.3428467],[-6.2581798,62.342782],[-6.2581622,62.3427081],[-6.2581782,62.3426426],[-6.2581818,62.3425777],[-6.25818,62.3425471],[-6.2581768,62.3424917],[-6.2581462,62.3424101],[-6.2581118,62.3423291],[-6.2580579,62.3422617],[-6.2579997,62.3422076],[-6.257991,62.3421437],[-6.2579931,62.3420717],[-6.25798,62.3419855],[-6.2579732,62.3419012],[-6.2579892,62.3418277],[-6.2580403,62.3417866],[-6.2580963,62.3417545],[-6.2581192,62.341741],[-6.2582009,62.3417062],[-6.2582275,62.3416958],[-6.2582571,62.3416873],[-6.2583033,62.3416652],[-6.2583219,62.3416527],[-6.2583489,62.3416361],[-6.258387,62.3416117],[-6.2584406,62.3415807],[-6.2584461,62.341535],[-6.2584201,62.3415069],[-6.2583993,62.3414376],[-6.2583323,62.3413441],[-6.2582786,62.3412235],[-6.2582824,62.3411133],[-6.258334,62.341014],[-6.2584009,62.3409514],[-6.2584626,62.340852],[-6.258474,62.3407608],[-6.2584016,62.3406353],[-6.2583019,62.3404856],[-6.2582009,62.3403552],[-6.2581311,62.3402793],[-6.2580407,62.3402124],[-6.2576815,62.3400927],[-6.2574415,62.3400018],[-6.2572967,62.3399448],[-6.2571597,62.3398585],[-6.2570572,62.3398146],[-6.256975,62.3397618],[-6.2569767,62.3396703],[-6.2569546,62.3396096],[-6.2569236,62.3395453],[-6.2568917,62.3394846],[-6.2568805,62.3394153],[-6.2568568,62.3393627],[-6.2568348,62.3393086],[-6.2567733,62.339252],[-6.2567322,62.3391866],[-6.2566965,62.3391582],[-6.2566739,62.3391058],[-6.2566473,62.3390882],[-6.2566071,62.3390432],[-6.2565716,62.3389859],[-6.2565396,62.3389378],[-6.2565122,62.338881],[-6.2564656,62.3388178],[-6.2564094,62.338753],[-6.256343,62.3386907],[-6.2562815,62.3386299],[-6.256239,62.338565],[-6.2562199,62.3385064],[-6.2562402,62.3384493],[-6.2562711,62.3383909],[-6.2563073,62.3383291],[-6.2563281,62.3382484],[-6.2563316,62.3381814],[-6.2563222,62.3381071],[-6.2563028,62.3380556],[-6.2563306,62.3379946],[-6.2563404,62.337912],[-6.2562875,62.3378319],[-6.2562347,62.3377441],[-6.2562375,62.3376666],[-6.2563047,62.3375873],[-6.2563617,62.3375146],[-6.2563993,62.3374348],[-6.2563918,62.3373496],[-6.2564165,62.3372663],[-6.2564543,62.3372082],[-6.256478,62.3371808],[-6.2565009,62.3371515],[-6.2565169,62.3370867],[-6.2565314,62.3370051],[-6.2565507,62.3369119],[-6.2565529,62.336829],[-6.2565495,62.3367343],[-6.2565507,62.3366403],[-6.2565654,62.3365472],[-6.2565792,62.3364547],[-6.2565882,62.3363561],[-6.2566077,62.3362583],[-6.2566165,62.3361502],[-6.2566291,62.3360395],[-6.256649,62.3359304],[-6.2566747,62.3358539],[-6.2566712,62.3358401],[-6.2566731,62.3358183],[-6.2566935,62.3357573],[-6.2567317,62.3356742],[-6.2567796,62.3355767],[-6.2568368,62.3354809],[-6.2568799,62.3354058],[-6.2569153,62.3353237],[-6.2569335,62.3352344],[-6.2569239,62.335152],[-6.2569013,62.3350793],[-6.2568942,62.335027],[-6.2569185,62.3349947],[-6.2569284,62.3349823],[-6.2569851,62.3349278],[-6.2570369,62.3348588],[-6.2571078,62.3347821],[-6.2571884,62.3347008],[-6.2572445,62.3346371],[-6.2573359,62.3344998],[-6.2573874,62.3344148],[-6.257408,62.3343287],[-6.2574997,62.3341186],[-6.2575487,62.3340239],[-6.2576407,62.3339384],[-6.2577294,62.333859],[-6.257813,62.3337777],[-6.2579003,62.3337062],[-6.2580021,62.3336458],[-6.2580461,62.3336243],[-6.2580773,62.3336134],[-6.2581153,62.3335819],[-6.2581649,62.3335401],[-6.2582213,62.3334813],[-6.2582802,62.3334245],[-6.2583542,62.3333832],[-6.2584147,62.3333282],[-6.2584235,62.3332717],[-6.2584974,62.3332347],[-6.2585968,62.3331953],[-6.2587084,62.3331364],[-6.2587843,62.3330613],[-6.2588207,62.3329949],[-6.258854,62.3329229],[-6.2589113,62.3328594],[-6.2589801,62.3327937],[-6.2590439,62.3327262],[-6.2591102,62.3326526],[-6.2591352,62.3326218],[-6.2591538,62.332604],[-6.2591901,62.3325651],[-6.2592134,62.3325142],[-6.259155,62.3324754],[-6.259064,62.3324545],[-6.2590137,62.3324274],[-6.2589971,62.3323768],[-6.2590304,62.3323188],[-6.259083,62.3322743],[-6.2591678,62.3322349],[-6.2592581,62.3322122],[-6.2593141,62.3322261],[-6.2593252,62.3322706],[-6.2593748,62.3322905],[-6.2594367,62.3322676],[-6.259496,62.3322229],[-6.2595541,62.3321836],[-6.2596076,62.3321531],[-6.2596584,62.3321177],[-6.2597067,62.3320615],[-6.2597315,62.3320024],[-6.2597236,62.3319493],[-6.2597172,62.3318878],[-6.2597476,62.3318313],[-6.2597599,62.3317692],[-6.2597406,62.3317051],[-6.2597281,62.3316608],[-6.2597172,62.3316219],[-6.259701,62.3315504],[-6.2597059,62.3314894],[-6.2597457,62.3314438],[-6.2598101,62.3314087],[-6.2598923,62.3313813],[-6.2599626,62.3313652],[-6.2600508,62.3313317],[-6.2601391,62.331293],[-6.2601919,62.3312568],[-6.2602087,62.3312392],[-6.2602242,62.3312182],[-6.2602373,62.3311649],[-6.2602225,62.3311065],[-6.2602073,62.3310322],[-6.2601936,62.3308633],[-6.2601569,62.330771],[-6.2601279,62.3306769],[-6.2600964,62.3306086],[-6.2600764,62.3305648],[-6.2600309,62.3304591],[-6.2599913,62.3303553],[-6.2599829,62.3302735],[-6.2600157,62.3302044],[-6.2600541,62.3301594],[-6.2600987,62.3301124],[-6.2601618,62.3300563],[-6.2602209,62.3299907],[-6.2602885,62.3299273],[-6.2603717,62.3298686],[-6.2604547,62.3298026],[-6.2605621,62.3297377],[-6.2606714,62.3296763],[-6.2607664,62.3296055],[-6.260846,62.3295274],[-6.2609118,62.329445],[-6.2609536,62.3293745],[-6.2609662,62.3293094],[-6.2609324,62.3292337],[-6.2608729,62.3291683],[-6.2608093,62.3291272],[-6.2607922,62.3290759],[-6.2608352,62.3290236],[-6.2609077,62.3289901],[-6.2609996,62.3290021],[-6.2610852,62.3290087],[-6.261183,62.3289974],[-6.2612754,62.3289817],[-6.2613602,62.3289653],[-6.2614458,62.3289459],[-6.2615716,62.3289187],[-6.2616953,62.328894],[-6.2617976,62.3288642],[-6.261878,62.3288353],[-6.2619056,62.3288184],[-6.2619608,62.3287828],[-6.2620192,62.3287428],[-6.2620645,62.3287111],[-6.2621128,62.3286681],[-6.2621746,62.3286033],[-6.2622419,62.3285262],[-6.2623052,62.3284492],[-6.2624213,62.3283022],[-6.2624341,62.3282828],[-6.2624759,62.3282141],[-6.262469,62.3281413],[-6.2625187,62.328004],[-6.262508,62.32793],[-6.2625346,62.3278576],[-6.2626207,62.3277826],[-6.2627084,62.3276961],[-6.2627878,62.3276018],[-6.2628414,62.3275137],[-6.2629951,62.3273363],[-6.2630639,62.327256],[-6.2631066,62.327178],[-6.2630947,62.3270925],[-6.2630501,62.3270112],[-6.2630262,62.3269349],[-6.2630176,62.3268516],[-6.2630287,62.3267649],[-6.2630611,62.3266947],[-6.2630869,62.3266509],[-6.2631072,62.3266325],[-6.2631449,62.3266002],[-6.2631902,62.3265661],[-6.2632273,62.3265333],[-6.2632761,62.3264977],[-6.2633341,62.326466],[-6.2633989,62.3264434],[-6.2634442,62.3264297],[-6.2635697,62.3263972],[-6.263667,62.3263845],[-6.26376,62.3263674],[-6.2638716,62.3263487],[-6.2639965,62.3263327],[-6.2641193,62.3263394],[-6.2643359,62.3262998],[-6.264463,62.3262773],[-6.2646299,62.3262646],[-6.2647863,62.3262619],[-6.2649574,62.3262407],[-6.2653386,62.326236],[-6.2654373,62.32624],[-6.2655326,62.3262557],[-6.2656235,62.326293],[-6.2657422,62.3263361],[-6.265863,62.326395],[-6.265986,62.3264539],[-6.2660777,62.3265071],[-6.266186,62.3265426],[-6.2662588,62.3265837],[-6.2663362,62.3266126],[-6.2663869,62.326636],[-6.2664626,62.3266624],[-6.2665182,62.3266802],[-6.2665788,62.3266974],[-6.2667384,62.3267589],[-6.2667714,62.3267946],[-6.2668179,62.3268337],[-6.2668916,62.3268564],[-6.2670231,62.3269513],[-6.267159,62.3270245],[-6.2672549,62.3270608],[-6.2673447,62.3271004],[-6.2674205,62.3271794],[-6.2675049,62.3272793],[-6.2675316,62.3273124],[-6.2675725,62.3273857],[-6.2675673,62.3274207],[-6.2675541,62.3274589],[-6.2675328,62.3274971],[-6.2674996,62.3275309],[-6.2674195,62.3275562],[-6.2673814,62.3275869],[-6.2674075,62.327597],[-6.2674592,62.327602],[-6.2674874,62.3276037],[-6.2675421,62.3275938],[-6.2675971,62.3275843],[-6.2677008,62.3275755],[-6.2678803,62.3275928],[-6.2680497,62.3276144],[-6.2680936,62.3276263],[-6.268261,62.3276761],[-6.2683854,62.3277638],[-6.2684888,62.3278173],[-6.2686478,62.3278662],[-6.2688943,62.3279327],[-6.2690213,62.3279753],[-6.2690985,62.3280217],[-6.2691769,62.3280666],[-6.2692855,62.3281074],[-6.269358,62.3281569],[-6.2694481,62.3282],[-6.2695768,62.3282423],[-6.2696718,62.3282958],[-6.2697998,62.3283282],[-6.2699419,62.328386],[-6.2700667,62.32844],[-6.2702154,62.328481],[-6.2703664,62.3285144],[-6.2704871,62.3285499],[-6.2706486,62.3285652],[-6.270831,62.328597],[-6.2709686,62.3286374],[-6.2710097,62.3286704],[-6.2710842,62.3286964],[-6.2712906,62.3287339],[-6.2714039,62.3287319],[-6.271438,62.3286903],[-6.2714241,62.3286549],[-6.2715247,62.3286326],[-6.2715982,62.3286538],[-6.2716469,62.3286993],[-6.2715973,62.3287168],[-6.2715315,62.3287293],[-6.2715545,62.3287655],[-6.2716888,62.3287866],[-6.2718515,62.3287865],[-6.2720075,62.3288121],[-6.2720911,62.3288759],[-6.2722186,62.3289],[-6.2723332,62.3289239],[-6.2724472,62.3289619],[-6.2725619,62.3289828],[-6.2726621,62.328971],[-6.2727794,62.328962],[-6.272886,62.3289861],[-6.272999,62.3290144],[-6.2730758,62.3290051],[-6.2732123,62.3290219],[-6.2733414,62.3290181],[-6.2734293,62.3290558],[-6.2735151,62.3291056],[-6.2736577,62.32913],[-6.2737832,62.3291258],[-6.2738035,62.3290806],[-6.2738905,62.3291025],[-6.2740068,62.3290935],[-6.2741045,62.3291007],[-6.2741683,62.3291116],[-6.2742226,62.329133],[-6.2742646,62.3291538],[-6.2742974,62.3291366],[-6.2742637,62.3290843],[-6.2743126,62.3290215],[-6.2742728,62.3289522],[-6.2743822,62.3288789],[-6.2744376,62.3287931],[-6.2745326,62.3287704],[-6.2746362,62.3288171],[-6.2746819,62.3288788],[-6.2746751,62.3289604],[-6.2746338,62.3290092],[-6.2747422,62.3289858],[-6.2747936,62.3289229],[-6.2748795,62.3288726],[-6.2749089,62.3288048],[-6.275007,62.3287758],[-6.275065,62.3287289],[-6.2751263,62.328682],[-6.275243,62.3286461],[-6.275353,62.3286034],[-6.2754865,62.3285956],[-6.2756349,62.3285989],[-6.2757034,62.3285623],[-6.2757107,62.3285169],[-6.2757611,62.3284713],[-6.2757367,62.3284413],[-6.2757019,62.328387],[-6.2757735,62.328375],[-6.275883,62.328364],[-6.2759384,62.3283195],[-6.275923,62.3282777],[-6.2758939,62.3282662],[-6.2758461,62.3282344],[-6.2759254,62.3281906],[-6.27596,62.3281332],[-6.2759675,62.3280801],[-6.2759333,62.328027],[-6.2759431,62.3279784],[-6.2759425,62.3278524],[-6.2759594,62.3277709],[-6.2759783,62.3276893],[-6.275967,62.3276255],[-6.2759408,62.327573],[-6.2758767,62.3275157],[-6.2758914,62.3274562],[-6.2759209,62.3273205],[-6.2758615,62.3272633],[-6.2758588,62.3271753],[-6.2759433,62.3270589],[-6.2759028,62.3269989],[-6.2758309,62.3269152],[-6.2757518,62.3268192],[-6.2757684,62.3266419],[-6.2757746,62.3264829],[-6.2757536,62.326321],[-6.2758015,62.3261509],[-6.2758427,62.326056],[-6.2759022,62.3259632],[-6.2759837,62.3258743],[-6.2760889,62.3257786],[-6.2761723,62.3256907],[-6.2762225,62.3256132],[-6.2762065,62.3255206],[-6.2762253,62.325434],[-6.2763084,62.3253565],[-6.2763763,62.3252724],[-6.2764144,62.3251783],[-6.2764264,62.3250771],[-6.2765352,62.3249969],[-6.2766289,62.3249386],[-6.2767421,62.324866],[-6.2770874,62.3247228],[-6.2771714,62.3246715],[-6.2772294,62.3246113],[-6.2772786,62.3245535],[-6.2772929,62.3244825],[-6.2773678,62.3244079],[-6.2774833,62.3243562],[-6.2776178,62.3243092],[-6.2776721,62.3242427],[-6.2777502,62.3241951],[-6.2779139,62.324167],[-6.2781377,62.3240858],[-6.278113,62.3240247],[-6.278184,62.3239574],[-6.2782712,62.3238816],[-6.2783697,62.3238184],[-6.2784908,62.3237648],[-6.2786134,62.3237117],[-6.2787241,62.3236424],[-6.2788105,62.3235843],[-6.2789066,62.3235382],[-6.2790213,62.3235003],[-6.2791631,62.3234698],[-6.2792117,62.3234479],[-6.2792666,62.3234128],[-6.2793373,62.3233923],[-6.2794291,62.3233582],[-6.2794963,62.3233329],[-6.279598,62.3233038],[-6.2797011,62.3232573],[-6.2797876,62.3232176],[-6.2799075,62.3231678],[-6.2799971,62.3231112],[-6.280024,62.3230678],[-6.279997,62.3230195],[-6.2800296,62.3229255],[-6.280114,62.3228793],[-6.2801859,62.3228364],[-6.2802271,62.3227928],[-6.2802789,62.3227582],[-6.2803331,62.3227269],[-6.2803834,62.3226896],[-6.2804403,62.3226562],[-6.2804802,62.3226177],[-6.2805212,62.322579],[-6.280554,62.3225511],[-6.2805949,62.3225386],[-6.2807003,62.3224981],[-6.2807245,62.3224625],[-6.2807828,62.3224265],[-6.2808513,62.3223784],[-6.2809179,62.3223259],[-6.2809764,62.3222585],[-6.2810269,62.3221935],[-6.2814582,62.322007],[-6.2815419,62.3219885],[-6.281626,62.3219652],[-6.2817453,62.3219265],[-6.2818421,62.3218874],[-6.2819149,62.3218278],[-6.2820574,62.3217584],[-6.2821864,62.3217338],[-6.2822954,62.3216799],[-6.2824292,62.3216209],[-6.2825785,62.3215837],[-6.282683,62.3215198],[-6.2829049,62.3214193],[-6.2830006,62.3213736],[-6.2830883,62.3213432],[-6.2831879,62.3213015],[-6.2832815,62.3212656],[-6.2834177,62.3212247],[-6.2835165,62.3211828],[-6.2838703,62.3209576],[-6.2839748,62.3209296],[-6.2840822,62.3209099],[-6.2842151,62.320881],[-6.2842926,62.3208648],[-6.2844113,62.3208481],[-6.2845133,62.3208368],[-6.2846448,62.3208184],[-6.284844,62.3207838],[-6.2850088,62.3207625],[-6.2851553,62.3207448],[-6.2852854,62.3207268],[-6.285393,62.3207036],[-6.2854742,62.3206508],[-6.2854954,62.3205525],[-6.285418,62.3205258],[-6.2853508,62.3204623],[-6.2853521,62.3204029],[-6.2854365,62.3203564],[-6.285516,62.3203223],[-6.2855788,62.3202883],[-6.285711,62.3202641],[-6.2858458,62.3202373],[-6.2859956,62.3202049],[-6.2861659,62.3201542],[-6.2862297,62.320144],[-6.2863973,62.3201441],[-6.2864824,62.3201272],[-6.2865498,62.3201103],[-6.2865893,62.3200737],[-6.2867064,62.3200766],[-6.2868364,62.3200721],[-6.2869381,62.3200405],[-6.2870982,62.3200011],[-6.2872392,62.3199582],[-6.2874553,62.3199325],[-6.2876909,62.3199152],[-6.2878924,62.319906],[-6.2879563,62.3199208],[-6.2881012,62.319906],[-6.288207,62.3198736],[-6.2884005,62.3198302],[-6.2886155,62.3198201],[-6.2886746,62.31978],[-6.2888643,62.3197357],[-6.2890363,62.3197042],[-6.2891484,62.3196727],[-6.2893138,62.3196362],[-6.2893625,62.3196028],[-6.2898174,62.3195517],[-6.2899708,62.3195236],[-6.2900664,62.3195051],[-6.2902032,62.3194693],[-6.2904441,62.3194573],[-6.2906369,62.319459],[-6.2907134,62.3194451],[-6.2907996,62.3194265],[-6.2908624,62.3194159],[-6.2909473,62.3194151],[-6.2909667,62.3194118],[-6.2910058,62.319407],[-6.2910441,62.3194032],[-6.2910863,62.3194002],[-6.2911292,62.3193933],[-6.2911572,62.3193768],[-6.291365,62.3193719],[-6.2914595,62.3193327],[-6.2916361,62.3192806],[-6.2916532,62.3192477],[-6.2916163,62.3192239],[-6.2915333,62.3192272],[-6.2914413,62.3192075],[-6.2914296,62.319187],[-6.2915001,62.3191516],[-6.2916062,62.3191177],[-6.2916361,62.3191303],[-6.2916887,62.3191219],[-6.2917559,62.3191138],[-6.29185,62.3190973],[-6.2918966,62.3190803],[-6.2919783,62.3190654],[-6.2920257,62.3190558],[-6.2920916,62.3190437],[-6.2926104,62.3190469],[-6.2927764,62.3190507],[-6.2928773,62.319058],[-6.2929379,62.3190869],[-6.293013,62.319103],[-6.2931462,62.3191054],[-6.2933192,62.3190993],[-6.2934256,62.3191086],[-6.2935185,62.3191234],[-6.2935893,62.3191464],[-6.2936573,62.3191657],[-6.293729,62.3191797],[-6.2938211,62.3191705],[-6.2938966,62.3191749],[-6.2939791,62.3191599],[-6.2941443,62.3191472],[-6.294237,62.3191443],[-6.2943166,62.319149],[-6.2944551,62.3191467],[-6.2945679,62.319167],[-6.2946658,62.3191716],[-6.2947618,62.3191664],[-6.2949129,62.319192],[-6.2950264,62.3191741],[-6.2951411,62.3191783],[-6.2952249,62.3191969],[-6.2953249,62.3192048],[-6.2955125,62.3192375],[-6.2956893,62.3192894],[-6.2957493,62.3193213],[-6.295749,62.3193743],[-6.2956608,62.319414],[-6.2957227,62.3194619],[-6.2958645,62.3194921],[-6.2959955,62.3194898],[-6.2961463,62.3194771],[-6.2962929,62.3194809],[-6.2963856,62.3195242],[-6.2965188,62.3195246],[-6.2966323,62.3195038],[-6.2967446,62.3195133],[-6.296869,62.319529],[-6.2969921,62.319515],[-6.2971027,62.3194802],[-6.297218,62.319503],[-6.2973498,62.319511],[-6.2974895,62.3194936],[-6.2976349,62.319522],[-6.297776,62.3195463],[-6.2979457,62.3195607],[-6.2984338,62.3196065],[-6.2985383,62.3195984],[-6.298652,62.319594],[-6.2987367,62.3195816],[-6.2988896,62.319585],[-6.2989684,62.3195587],[-6.2990479,62.3194537],[-6.299118,62.3193285],[-6.2992277,62.3191819],[-6.2993664,62.3190282],[-6.2995707,62.3188768],[-6.299731,62.3187272],[-6.2999288,62.3185893],[-6.3000991,62.3184484],[-6.3001945,62.3183237],[-6.3003736,62.3181812],[-6.3004166,62.3181554],[-6.3004329,62.3181107],[-6.3004278,62.3180739],[-6.3004662,62.3180534],[-6.3004547,62.3180163],[-6.3005036,62.3179996],[-6.3006918,62.3179858],[-6.3007896,62.3179685],[-6.3008687,62.3179725],[-6.3009673,62.3179951],[-6.3010759,62.3180105],[-6.301187,62.3180092],[-6.3013023,62.3180032],[-6.3013934,62.3179882],[-6.3014569,62.3180094],[-6.301534,62.318027],[-6.3016286,62.3180214],[-6.3017357,62.3180364],[-6.3018268,62.3180325],[-6.3019281,62.3180398],[-6.3019978,62.3180405],[-6.3021005,62.318065],[-6.3022087,62.318096],[-6.3023171,62.3181086],[-6.3024251,62.3181006],[-6.3025467,62.3181165],[-6.3026606,62.3181307],[-6.3027842,62.3181417],[-6.3028934,62.3181239],[-6.3029718,62.3180995],[-6.3030635,62.3180703],[-6.3031635,62.3180509],[-6.303273,62.3180438],[-6.3034467,62.3180229],[-6.3034937,62.3180562],[-6.3035199,62.3180871],[-6.3035261,62.3181105],[-6.3034875,62.3181226],[-6.3034531,62.3181385],[-6.3034666,62.3181478],[-6.3035459,62.3181548],[-6.303635,62.3181428],[-6.3038504,62.3181471],[-6.3040324,62.3181613],[-6.3042048,62.318186],[-6.3043413,62.3181979],[-6.3044986,62.3181866],[-6.3046366,62.3181596],[-6.3047755,62.3181721],[-6.3048155,62.3181908],[-6.3048612,62.318205],[-6.3049192,62.3181973],[-6.3049839,62.3181847],[-6.3050213,62.3181581],[-6.3050777,62.3181432],[-6.3051628,62.3181435],[-6.3052534,62.3181545],[-6.3053305,62.3181745],[-6.3053566,62.3182016],[-6.3053507,62.3182222],[-6.3053975,62.3182429],[-6.3054179,62.3182616],[-6.3054747,62.3182721],[-6.3055981,62.3182499],[-6.3057428,62.3182157],[-6.3058342,62.3182037],[-6.3059644,62.3181758],[-6.3060795,62.3181897],[-6.3061627,62.3181937],[-6.3062257,62.3181792],[-6.3063204,62.3181761],[-6.3063616,62.3181866],[-6.3063865,62.3182091],[-6.3064123,62.3182291],[-6.3064766,62.3182398],[-6.3065449,62.3182318],[-6.3066361,62.3182414],[-6.3067385,62.3182557],[-6.3068091,62.318279],[-6.3068354,62.3183072],[-6.3068711,62.318328],[-6.306978,62.318348],[-6.307087,62.3183473],[-6.307168,62.318353],[-6.3071526,62.3183762],[-6.3072126,62.3184121],[-6.3073163,62.3184341],[-6.3074611,62.3184102],[-6.3076237,62.3183967],[-6.3077535,62.3183719],[-6.3078926,62.3183331],[-6.3079788,62.3182714],[-6.3080659,62.3182097],[-6.3081816,62.3181949],[-6.3083079,62.3182066],[-6.3084308,62.318202],[-6.3085555,62.3181812],[-6.3086694,62.3181445],[-6.3087735,62.3181613],[-6.3089103,62.3181646],[-6.3090196,62.3181555],[-6.309107,62.3181718],[-6.3092749,62.3181657],[-6.3095028,62.3181254],[-6.3096739,62.3181108],[-6.3098455,62.3181068],[-6.3099837,62.318085],[-6.3100591,62.3180662],[-6.3101101,62.3180495],[-6.3101296,62.3180324],[-6.310212,62.3180173],[-6.3103107,62.3179787],[-6.3102864,62.3179304],[-6.3103602,62.3178559],[-6.3104037,62.3177941],[-6.3104569,62.3177524],[-6.3104707,62.3177425],[-6.310452,62.31772],[-6.3104491,62.3176821],[-6.3104843,62.317649],[-6.31051,62.317606],[-6.3105451,62.3175669],[-6.3105568,62.3175358],[-6.3105418,62.3175174],[-6.3104858,62.3175228],[-6.3104371,62.3175358],[-6.310349,62.3175549],[-6.3102521,62.3175664],[-6.310212,62.3175574],[-6.3101716,62.3175332],[-6.3101656,62.3175172],[-6.3101267,62.3174922],[-6.3100976,62.3174882],[-6.3099783,62.3174882],[-6.3099461,62.3174935],[-6.3099244,62.3174911],[-6.3099114,62.3174802],[-6.3098752,62.3174804],[-6.3098405,62.3174575],[-6.3098218,62.3174454],[-6.3097905,62.3174264],[-6.3097786,62.3173872],[-6.3097552,62.3173348],[-6.3097191,62.3173384],[-6.3096615,62.317348],[-6.3096372,62.317318],[-6.3096502,62.3172724],[-6.309749,62.3172473],[-6.3097816,62.3171995],[-6.3098381,62.3171434],[-6.3098497,62.3171045],[-6.309743,62.3171069],[-6.3096976,62.3170988],[-6.3096582,62.317115],[-6.3095825,62.3171138],[-6.3095315,62.3171159],[-6.3094983,62.3170962],[-6.3094978,62.3170466],[-6.3095523,62.3170102],[-6.309561,62.3169736],[-6.3095953,62.3169069],[-6.3095754,62.3168734],[-6.3096132,62.3168418],[-6.3096764,62.3168086],[-6.3097467,62.3167961],[-6.3098224,62.3167593],[-6.3099077,62.3167083],[-6.3099668,62.3166906],[-6.3099819,62.3166471],[-6.309998,62.3166036],[-6.3099802,62.31657],[-6.3099671,62.3165381],[-6.3099423,62.316507],[-6.3099516,62.3164751],[-6.3100085,62.3164509],[-6.3100935,62.3164358],[-6.3101762,62.3164264],[-6.3102607,62.3164196],[-6.3103285,62.316417],[-6.3103523,62.3164414],[-6.3103751,62.3164692],[-6.3104236,62.3164858],[-6.3104606,62.3165077],[-6.3105148,62.3165182],[-6.3105836,62.3165124],[-6.310644,62.3165197],[-6.3107144,62.3165186],[-6.3107834,62.31651],[-6.3108568,62.3165122],[-6.3109298,62.3165022],[-6.310982,62.3164807],[-6.3110204,62.3164568],[-6.3110683,62.3164402],[-6.3111342,62.3164489],[-6.3111908,62.3164578],[-6.3112496,62.3164559],[-6.3113065,62.3164591],[-6.3113621,62.3164689],[-6.3114215,62.3164637],[-6.3114719,62.3164725],[-6.3114706,62.3164988],[-6.3115088,62.3165154],[-6.3115792,62.3165127],[-6.311621,62.316489],[-6.3116925,62.3164892],[-6.3117552,62.3165016],[-6.311821,62.316495],[-6.31189,62.3164721],[-6.3119797,62.3164563],[-6.3120509,62.3164417],[-6.3121147,62.3164428],[-6.3121832,62.3164416],[-6.3122764,62.3164442],[-6.3123751,62.3164307],[-6.3124383,62.3164267],[-6.3124983,62.3164322],[-6.312567,62.3164262],[-6.312648,62.316467],[-6.3127122,62.3164688],[-6.3127737,62.3164604],[-6.3128335,62.3164653],[-6.3128727,62.3164789],[-6.3129207,62.3164896],[-6.3129769,62.3164914],[-6.3130274,62.3164937],[-6.3130684,62.3165026],[-6.3131213,62.3165047],[-6.3131603,62.3165027],[-6.3132097,62.3164989],[-6.3132522,62.3165103],[-6.3132948,62.3165203],[-6.3133462,62.316529],[-6.3133931,62.316547],[-6.313422,62.3165678],[-6.3134325,62.3165939],[-6.3134262,62.3166165],[-6.3134136,62.3166355],[-6.3133891,62.316651],[-6.3133701,62.3166603],[-6.3133544,62.3166684],[-6.3133117,62.3166808],[-6.3132846,62.3166902],[-6.3132755,62.3167063],[-6.3132583,62.3167256],[-6.3132257,62.3167412],[-6.3132069,62.3167474],[-6.3132402,62.3167468],[-6.3132752,62.3167445],[-6.3133111,62.3167369],[-6.3133325,62.3167253],[-6.3133736,62.3167165],[-6.3134165,62.3166986],[-6.3134664,62.3166827],[-6.3135307,62.316657],[-6.3135918,62.316646],[-6.3136208,62.3166419],[-6.313655,62.3166405],[-6.3136863,62.316608],[-6.3137762,62.3165866],[-6.3137916,62.3165953],[-6.3138212,62.3165899],[-6.313813,62.3165802],[-6.3138871,62.3165641],[-6.3141266,62.3165119],[-6.3141774,62.3165378],[-6.3142085,62.3165321],[-6.3142509,62.316525],[-6.3142792,62.3165331],[-6.3143185,62.3165347],[-6.314337,62.3165475],[-6.3143798,62.3165547],[-6.3144108,62.3165735],[-6.3144341,62.3165859],[-6.3144634,62.3165982],[-6.3144889,62.3166111],[-6.3145216,62.3166251],[-6.3145687,62.3166326],[-6.3146187,62.3166303],[-6.3146793,62.3166244],[-6.3147362,62.3166223],[-6.3147903,62.3166257],[-6.3148299,62.3166402],[-6.3148527,62.3166658],[-6.3148746,62.3166915],[-6.3148677,62.3167136],[-6.3148235,62.3167345],[-6.3147794,62.3167452],[-6.3147684,62.3167619],[-6.3147901,62.3167687],[-6.3148476,62.3167632],[-6.3148991,62.3167599],[-6.3149511,62.3167665],[-6.3149903,62.3167796],[-6.3150323,62.3167902],[-6.3150812,62.3167926],[-6.3151287,62.3167989],[-6.3151841,62.3168024],[-6.3152378,62.3168071],[-6.31529,62.3168139],[-6.3153449,62.3168191],[-6.3153984,62.3168193],[-6.3154496,62.3168144],[-6.3155013,62.3168071],[-6.3155535,62.3168162],[-6.3155847,62.3168275],[-6.3156061,62.3168428],[-6.3156349,62.3168614],[-6.3156486,62.3168819],[-6.3156431,62.316901],[-6.3156143,62.3169161],[-6.3156213,62.3169256],[-6.3156414,62.3169422],[-6.3156574,62.3169591],[-6.3156921,62.3169715],[-6.3157184,62.3169843],[-6.3157563,62.316997],[-6.3158008,62.3170049],[-6.3158415,62.3170114],[-6.3158831,62.3170183],[-6.3159111,62.3170178],[-6.316025,62.3170259],[-6.3160818,62.3170402],[-6.3161512,62.3170536],[-6.3162105,62.3170744],[-6.3162501,62.3170991],[-6.3162729,62.3171242],[-6.3163181,62.3171382],[-6.3163691,62.3171686],[-6.3164081,62.3171968],[-6.3164523,62.3172194],[-6.3164692,62.317239],[-6.3164407,62.3172975],[-6.3164116,62.3173185],[-6.3163776,62.3173402],[-6.3163579,62.3173546],[-6.316423,62.317354],[-6.3164892,62.3173626],[-6.3165502,62.3173789],[-6.3166049,62.3173963],[-6.3166282,62.3174143],[-6.3165868,62.3174323],[-6.3165571,62.3174458],[-6.3165359,62.3174602],[-6.3165813,62.3175037],[-6.3165463,62.3175688],[-6.3165938,62.317555],[-6.3166426,62.3175308],[-6.3167012,62.3175117],[-6.3167445,62.3174879],[-6.3167921,62.3174659],[-6.3168404,62.3174431],[-6.3169001,62.3174498],[-6.3169264,62.3174776],[-6.3169284,62.3175075],[-6.3169721,62.3175294],[-6.3169898,62.3175568],[-6.3170279,62.3175758],[-6.317091,62.3175792],[-6.3171347,62.3175714],[-6.3171666,62.3175597],[-6.3172106,62.3175364],[-6.3172399,62.3175149],[-6.3172668,62.3174889],[-6.3172964,62.3174622],[-6.317345,62.3174365],[-6.3173867,62.3174117],[-6.3173891,62.3173812],[-6.3173831,62.3173477],[-6.3174152,62.3173206],[-6.3174741,62.3172973],[-6.317546,62.3172855],[-6.3176037,62.3172919],[-6.3176538,62.317309],[-6.3176898,62.3173333],[-6.3177307,62.3173565],[-6.3177898,62.3173653],[-6.3178533,62.3173722],[-6.3179096,62.3173896],[-6.3179409,62.3174112],[-6.3179666,62.3174379],[-6.3180165,62.3174573],[-6.3180687,62.3174735],[-6.3181523,62.3174987],[-6.318203,62.3175182],[-6.3182502,62.3175435],[-6.3182939,62.31757],[-6.3183487,62.3175896],[-6.3184193,62.3176126],[-6.3184743,62.3176601],[-6.3184927,62.3176866],[-6.3184857,62.3177131],[-6.3184655,62.3177362],[-6.3184364,62.3177569],[-6.3184093,62.3177755],[-6.3183649,62.3177828],[-6.318318,62.3177863],[-6.3182713,62.3177899],[-6.3182298,62.3177956],[-6.3181997,62.3178014],[-6.3181771,62.3178152],[-6.31819,62.3178201],[-6.3182023,62.317825],[-6.3182663,62.3178308],[-6.3183339,62.3178249],[-6.3183868,62.3178159],[-6.3184293,62.3178075],[-6.3184612,62.3177948],[-6.3185054,62.317787],[-6.318559,62.3178004],[-6.3185909,62.3178287],[-6.3186343,62.3178558],[-6.3186648,62.3178765],[-6.3186434,62.3178988],[-6.3186219,62.3179191],[-6.3186378,62.3179339],[-6.3186536,62.3179488],[-6.3186969,62.3179373],[-6.3187315,62.3179183],[-6.3187566,62.3179096],[-6.3188336,62.3178803],[-6.3188582,62.3178506],[-6.3188896,62.3178262],[-6.3189465,62.3178114],[-6.3190098,62.3177957],[-6.3190845,62.3177916],[-6.319162,62.3177954],[-6.3192221,62.3178035],[-6.3192764,62.3178237],[-6.3193136,62.3178598],[-6.3193532,62.3179041],[-6.319381,62.3179368],[-6.3193937,62.3179638],[-6.3193867,62.3179909],[-6.3193766,62.3180217],[-6.3193614,62.3180537],[-6.3193282,62.3180854],[-6.3192797,62.3181162],[-6.3192265,62.3181397],[-6.3191809,62.3181603],[-6.3191316,62.3181807],[-6.319099,62.3182053],[-6.319071,62.318231],[-6.3190389,62.3182526],[-6.3190077,62.3182741],[-6.3189989,62.3182911],[-6.3190412,62.3182954],[-6.3191104,62.3182908],[-6.3191696,62.3182584],[-6.3192736,62.3182316],[-6.319289,62.318209],[-6.3193145,62.3181909],[-6.3193284,62.3181621],[-6.3193812,62.3181497],[-6.3194415,62.3181388],[-6.3194832,62.3181237],[-6.3195166,62.3180959],[-6.3195645,62.3180756],[-6.3196055,62.3180528],[-6.3196608,62.3180417],[-6.3197296,62.3180317],[-6.3197979,62.318019],[-6.3198611,62.3180069],[-6.3199213,62.3180074],[-6.3199851,62.3180173],[-6.3200237,62.3180351],[-6.3200441,62.3180597],[-6.3200759,62.3180816],[-6.320103,62.3181079],[-6.3201226,62.3181409],[-6.3201343,62.3181651],[-6.3201254,62.3181902],[-6.3201015,62.318201],[-6.3201056,62.318228],[-6.3200931,62.3182541],[-6.3200532,62.318266],[-6.3199516,62.3182819],[-6.3199115,62.3182873],[-6.3198742,62.318284],[-6.3196921,62.3182968],[-6.3196467,62.3182954],[-6.3195971,62.3183042],[-6.3195445,62.3183138],[-6.3194392,62.3183483],[-6.3193922,62.3183683],[-6.319365,62.3183835],[-6.3193724,62.3183964],[-6.3194187,62.3183977],[-6.3194523,62.3184016],[-6.3194543,62.3184225],[-6.3194511,62.3184433],[-6.3194589,62.3184622],[-6.3194374,62.3184813],[-6.319409,62.3184911],[-6.3193849,62.3185051],[-6.3193668,62.3185236],[-6.3193529,62.3185398],[-6.3193589,62.3185576],[-6.319375,62.3185762],[-6.3193974,62.3185737],[-6.3194888,62.3185279],[-6.3195348,62.3185166],[-6.3195762,62.3185144],[-6.3196209,62.3185207],[-6.3196513,62.3185362],[-6.3196672,62.3185546],[-6.3196709,62.3185622],[-6.3196588,62.3185675],[-6.3196149,62.3185724],[-6.3195899,62.3185764],[-6.3195541,62.3185829],[-6.3195335,62.3185858],[-6.3195289,62.3185914],[-6.3195403,62.3186048],[-6.3195436,62.3186185],[-6.3195329,62.3186253],[-6.319536,62.3186331],[-6.3195498,62.3186494],[-6.3195439,62.3186555],[-6.3195274,62.3186584],[-6.3194692,62.3186693],[-6.319403,62.3186754],[-6.3193267,62.3186772],[-6.3192479,62.3186805],[-6.3191765,62.318693],[-6.3191343,62.3187058],[-6.3191156,62.3187289],[-6.3191992,62.3187287],[-6.3193462,62.3187298],[-6.3194371,62.3187271],[-6.3195558,62.3187349],[-6.319609,62.3187366],[-6.3196573,62.3187421],[-6.3197135,62.3187502],[-6.3197673,62.3187558],[-6.319821,62.3187602],[-6.3198634,62.3187719],[-6.3198992,62.3187838],[-6.3199454,62.3187802],[-6.3199847,62.3187854],[-6.3200452,62.318791],[-6.3201027,62.3187873],[-6.3201674,62.3187814],[-6.3202331,62.3187829],[-6.3202947,62.3187882],[-6.3203467,62.3187997],[-6.3203921,62.3188152],[-6.3204402,62.3188267],[-6.3204982,62.3188322],[-6.320545,62.3188323],[-6.320512,62.3188476],[-6.3204555,62.3188651],[-6.320531,62.318862],[-6.320597,62.3188556],[-6.320656,62.3188471],[-6.3207244,62.3188359],[-6.3208185,62.3188231],[-6.3208801,62.3188262],[-6.3209434,62.3188248],[-6.3210025,62.3188374],[-6.3210629,62.318852],[-6.3211228,62.3188594],[-6.3211887,62.3188556],[-6.3212311,62.3188646],[-6.3212715,62.3188808],[-6.3213121,62.3188771],[-6.3213682,62.3188821],[-6.3214119,62.3189032],[-6.3214474,62.318922],[-6.3214847,62.3189379],[-6.3215366,62.318948],[-6.3216062,62.3189469],[-6.3216703,62.31896],[-6.3217384,62.3189806],[-6.3217966,62.3189985],[-6.3218528,62.3190118],[-6.3218885,62.3190325],[-6.3219305,62.3190456],[-6.3219983,62.31908],[-6.32204,62.3190993],[-6.3220698,62.3191509],[-6.322074,62.3191847],[-6.3220842,62.3192136],[-6.3221063,62.3192375],[-6.3221489,62.3192563],[-6.3222102,62.3192598],[-6.3222715,62.3192588],[-6.3223613,62.3192684],[-6.322431,62.319264],[-6.3224931,62.3192704],[-6.3225478,62.3192841],[-6.3226035,62.3192927],[-6.3226252,62.3192803],[-6.322692,62.3192684],[-6.3227552,62.3192781],[-6.3227937,62.3193018],[-6.3228199,62.3193273],[-6.3228469,62.3193525],[-6.3228775,62.3193745],[-6.3229401,62.3193858],[-6.3230072,62.3193856],[-6.3230621,62.3194044],[-6.3231052,62.3194249],[-6.3231719,62.3194334],[-6.3232415,62.3194405],[-6.3233084,62.3194405],[-6.3233575,62.3194542],[-6.3234095,62.3194705],[-6.3234759,62.3194862],[-6.3235355,62.3194981],[-6.3235919,62.3195029],[-6.3236373,62.3194946],[-6.3236543,62.319475],[-6.3236991,62.3194748],[-6.3237469,62.3194825],[-6.3237961,62.3194635],[-6.3238558,62.3194336],[-6.3239518,62.3194225],[-6.3240341,62.3194314],[-6.3241535,62.3194511],[-6.3241926,62.3194697],[-6.3242552,62.3194537],[-6.3243186,62.319447],[-6.3243768,62.3194338],[-6.3244407,62.3194222],[-6.3244963,62.3194285],[-6.3245633,62.3194228],[-6.3246221,62.3194195],[-6.3246688,62.3194383],[-6.3246916,62.3194632],[-6.3247215,62.3194848],[-6.3247651,62.3195006],[-6.324817,62.3195198],[-6.3248761,62.3195328],[-6.3249635,62.3195813],[-6.3249997,62.3195999],[-6.3250469,62.3196211],[-6.3250885,62.3196392],[-6.3251475,62.3196573],[-6.3252089,62.3196701],[-6.3252249,62.3196824],[-6.3251785,62.3196908],[-6.3251265,62.3196939],[-6.325074,62.3196983],[-6.3250283,62.3197052],[-6.3249837,62.3197122],[-6.3249642,62.3197244],[-6.3249202,62.3197372],[-6.3248903,62.3197576],[-6.3248708,62.3197813],[-6.3248999,62.319817],[-6.3249434,62.3198614],[-6.3250168,62.3198856],[-6.3250949,62.3199039],[-6.3251725,62.3199142],[-6.3252707,62.3199257],[-6.3253326,62.3199386],[-6.3254017,62.3199369],[-6.3255186,62.3199708],[-6.3256115,62.3200091],[-6.3256937,62.3200445],[-6.3257957,62.3200767],[-6.3258948,62.3201801],[-6.325979,62.3202227],[-6.3260945,62.3202693],[-6.326147,62.3203202],[-6.326234,62.3203587],[-6.3262661,62.3203917],[-6.3263362,62.3204251],[-6.3263681,62.320463],[-6.3264355,62.3205052],[-6.3265422,62.3205506],[-6.3266701,62.320597],[-6.3267594,62.3206459],[-6.3268143,62.3207115],[-6.3268636,62.3207729],[-6.3269684,62.3208017],[-6.3270996,62.3208195],[-6.3271624,62.320873],[-6.3272572,62.3208594],[-6.3273509,62.3208634],[-6.3274855,62.320899],[-6.3275744,62.3209565],[-6.3276392,62.3210191],[-6.3276899,62.3210796],[-6.3276541,62.3211113],[-6.3276175,62.3211269],[-6.3276849,62.3211521],[-6.3277604,62.3211661],[-6.3277935,62.3211998],[-6.327857,62.3212134],[-6.3279339,62.321211],[-6.3279861,62.3212449],[-6.3280637,62.3212785],[-6.3281697,62.321301],[-6.3282182,62.3212842],[-6.3282569,62.3212645],[-6.3283147,62.3212871],[-6.328351,62.321334],[-6.3283714,62.3213778],[-6.3283915,62.3214217],[-6.3284296,62.3214627],[-6.3284892,62.3214915],[-6.3285336,62.3215291],[-6.3285806,62.3215634],[-6.3286052,62.3216038],[-6.3286581,62.3216742],[-6.3286832,62.3217099],[-6.3287067,62.3217376],[-6.3286747,62.3217606],[-6.3286406,62.3217833],[-6.3286505,62.3218014],[-6.3286789,62.3218356],[-6.3287027,62.3218961],[-6.3287457,62.321938],[-6.3287985,62.3219736],[-6.3288276,62.322016],[-6.3288358,62.3220528],[-6.3288435,62.3220897],[-6.3288533,62.3221225],[-6.3288572,62.3221578],[-6.3288635,62.3221844],[-6.3288189,62.322194],[-6.3287737,62.3221989],[-6.3287554,62.3221994],[-6.3287915,62.3222203],[-6.3288365,62.3222395],[-6.3288737,62.3222677],[-6.3289181,62.3222844],[-6.3289573,62.3223084],[-6.3289959,62.3223361],[-6.3290186,62.3223493],[-6.3290573,62.3223635],[-6.3290879,62.3223929],[-6.3290935,62.3223997],[-6.3291054,62.3224271],[-6.3291063,62.3224496],[-6.3290994,62.322469],[-6.3290913,62.3224888],[-6.3290609,62.3224992],[-6.3290458,62.3225116],[-6.3290413,62.3225257],[-6.3289887,62.3225394],[-6.3289314,62.322586],[-6.3289918,62.3227137],[-6.3290381,62.3227688],[-6.3290851,62.3228241],[-6.3291415,62.322873],[-6.3292151,62.3229235],[-6.3292847,62.3229588],[-6.3293461,62.322983],[-6.329381,62.3230044],[-6.3295281,62.3230831],[-6.3295869,62.3231096],[-6.3296172,62.3231424],[-6.3296727,62.3231689],[-6.3297363,62.3231868],[-6.3297662,62.3232219],[-6.329787,62.3232473],[-6.3298085,62.3232729],[-6.3298348,62.3233035],[-6.3298894,62.3233329],[-6.3299402,62.3233559],[-6.3299965,62.3233757],[-6.3301001,62.3234426],[-6.3301503,62.3234617],[-6.3301751,62.323485],[-6.3301583,62.323532],[-6.3301451,62.323545],[-6.3301505,62.3235578],[-6.3302113,62.3236193],[-6.330266,62.3236464],[-6.3303203,62.323664],[-6.3303607,62.3236865],[-6.3303889,62.3237202],[-6.3304126,62.3237514],[-6.3304359,62.3237827],[-6.3304639,62.323809],[-6.3304905,62.3238317],[-6.3305412,62.3238587],[-6.3305834,62.3238797],[-6.3306469,62.3239047],[-6.3307226,62.3239294],[-6.3307301,62.3239597],[-6.3307444,62.3239983],[-6.3307009,62.3240493],[-6.3306766,62.3240769],[-6.3306592,62.3240865],[-6.3306772,62.3241559],[-6.3307136,62.3241993],[-6.3307856,62.3242798],[-6.3308385,62.3243153],[-6.3309049,62.3243901],[-6.330931,62.3244214],[-6.3309494,62.3244517],[-6.3309468,62.3244725],[-6.3309548,62.3244936],[-6.3309834,62.3245113],[-6.3310259,62.3245217],[-6.3311018,62.3245592],[-6.3311937,62.3246032],[-6.3312337,62.3246532],[-6.3312671,62.3247005],[-6.3312682,62.3247428],[-6.3312952,62.3247881],[-6.331322,62.3248294],[-6.331342,62.3248763],[-6.331341,62.3249287],[-6.3313853,62.324976],[-6.3314377,62.3250255],[-6.3315017,62.3250665],[-6.3315482,62.3251359],[-6.3315794,62.3251732],[-6.3316066,62.325212],[-6.3316271,62.3252862],[-6.3316288,62.3253266],[-6.3316387,62.3253645],[-6.3316665,62.3253989],[-6.3316984,62.3254401],[-6.3317082,62.3254719],[-6.3317126,62.3254887],[-6.3317134,62.3254992],[-6.3317065,62.3255107],[-6.3317023,62.3255236],[-6.3317016,62.3255349],[-6.3317225,62.3255604],[-6.3317453,62.3255861],[-6.3317866,62.3256066],[-6.3318201,62.3256304],[-6.3318402,62.3256545],[-6.3318589,62.3256804],[-6.331864,62.32571],[-6.3318592,62.3257379],[-6.3318472,62.3257624],[-6.3318747,62.3257869],[-6.3318746,62.3258168],[-6.3318629,62.3258317],[-6.3318782,62.3258507],[-6.3318924,62.3258676],[-6.3319068,62.3258844],[-6.3319198,62.3258969],[-6.3319295,62.3259238],[-6.3319285,62.3259578],[-6.3319591,62.3259971],[-6.3319847,62.3260382],[-6.3319514,62.3260842],[-6.3319728,62.3261151],[-6.3319847,62.3261474],[-6.3320178,62.3261793],[-6.3320013,62.3262177],[-6.3319728,62.3262698],[-6.3319835,62.3262858],[-6.3319964,62.3262961],[-6.3320232,62.3263085],[-6.3320336,62.326323],[-6.3320633,62.3263581],[-6.3321227,62.3263863],[-6.3321541,62.3264175],[-6.3321273,62.3264498],[-6.3321093,62.3264858],[-6.33212,62.3265092],[-6.3321383,62.3265915],[-6.3321567,62.3266148],[-6.3321799,62.3266394],[-6.3322156,62.3266603],[-6.3322458,62.3266816],[-6.3322672,62.3267065],[-6.3322981,62.3267254],[-6.3323181,62.3267482],[-6.3323547,62.3267683],[-6.332405,62.3268043],[-6.3324341,62.3268026],[-6.3324513,62.326827],[-6.3324325,62.326872],[-6.3324516,62.3269071],[-6.3324668,62.3269332],[-6.3324883,62.3269589],[-6.3325077,62.3269851],[-6.3325105,62.3270104],[-6.3325001,62.32704],[-6.3325327,62.3270956],[-6.332545,62.3271172],[-6.3325531,62.3271407],[-6.3325576,62.3271685],[-6.3325718,62.3271909],[-6.332622,62.3272509],[-6.3326642,62.3272778],[-6.3326869,62.3272844],[-6.3327608,62.3273728],[-6.3327423,62.3273854],[-6.3327693,62.3274009],[-6.3327879,62.3274173],[-6.3327982,62.3274402],[-6.3327896,62.3274687],[-6.3327642,62.3275157],[-6.3327675,62.3275506],[-6.3327708,62.3275882],[-6.3327751,62.3276231],[-6.3327818,62.3276401],[-6.3327912,62.3276561],[-6.3327949,62.327674],[-6.3328078,62.32769],[-6.3328244,62.3277098],[-6.332827,62.3277146],[-6.3328649,62.3277311],[-6.3329245,62.3277941],[-6.3330029,62.3277965],[-6.3330328,62.327821],[-6.3330489,62.3278404],[-6.3330615,62.3278555],[-6.333087,62.3278841],[-6.3331496,62.3278931],[-6.3331821,62.3278532],[-6.3332356,62.3278278],[-6.3332553,62.3277955],[-6.3333077,62.3278028],[-6.3333841,62.3278238],[-6.3334219,62.3278546],[-6.3334568,62.3278945],[-6.3334807,62.3279327],[-6.3334564,62.3279857],[-6.3334378,62.3280006],[-6.3334237,62.3280233],[-6.33342,62.3280458],[-6.333472,62.3281083],[-6.3334641,62.3281269],[-6.3334417,62.328144],[-6.3334178,62.3281573],[-6.3333972,62.3281784],[-6.3333594,62.3281873],[-6.3333451,62.3282026],[-6.3333553,62.3282276],[-6.3333291,62.3282623],[-6.3332556,62.3282898],[-6.3331585,62.3283137],[-6.3331092,62.3283435],[-6.3330248,62.3283519],[-6.3329778,62.3283737],[-6.3329154,62.3284004],[-6.3328963,62.3284063],[-6.3328785,62.3284096],[-6.3329075,62.3284444],[-6.3329573,62.3284374],[-6.3329892,62.3284618],[-6.3330509,62.328463],[-6.3330988,62.3284704],[-6.3331676,62.3284777],[-6.3332615,62.3284912],[-6.3332852,62.328517],[-6.3333414,62.3285842],[-6.3333629,62.3286124],[-6.3333847,62.3286406],[-6.3333875,62.3286726],[-6.3334061,62.328702],[-6.3334035,62.3287261],[-6.333378,62.3287488],[-6.3333567,62.3287775],[-6.3333654,62.328808],[-6.3333897,62.328837],[-6.3334133,62.3288644],[-6.3334405,62.3288831],[-6.3334904,62.3288974],[-6.3335135,62.3288946],[-6.3335322,62.3289087],[-6.3335693,62.328953],[-6.3335836,62.3289747],[-6.3335887,62.328998],[-6.3335966,62.3290246],[-6.3336075,62.3290453],[-6.333628,62.329073],[-6.3336304,62.3291014],[-6.3336353,62.3291347],[-6.3336279,62.3291635],[-6.3336105,62.3291913],[-6.3336067,62.3292409],[-6.3336153,62.3292675],[-6.3336323,62.3292886],[-6.3336426,62.3293044],[-6.3336765,62.3293228],[-6.333703,62.3293436],[-6.3337283,62.329374],[-6.3337532,62.3294044],[-6.3337513,62.3294255],[-6.3337427,62.329453],[-6.3337311,62.3294855],[-6.3337232,62.3295028],[-6.3337487,62.3295695],[-6.3337517,62.3295922],[-6.3337592,62.329615],[-6.3337786,62.3296383],[-6.3338045,62.3296734],[-6.3338347,62.3297048],[-6.3338625,62.3297325],[-6.3338775,62.3297538],[-6.3338769,62.3297746],[-6.3338877,62.3297937],[-6.3339424,62.329859],[-6.3339415,62.329878],[-6.3339213,62.3298962],[-6.3339182,62.3299187],[-6.3339235,62.3299489],[-6.3339523,62.3299734],[-6.3340221,62.3299922],[-6.3340625,62.3300017],[-6.3340758,62.330017],[-6.3340889,62.3300323],[-6.3341021,62.3300464],[-6.3341058,62.3300682],[-6.3341012,62.3300962],[-6.3340873,62.3301148],[-6.334073,62.3301331],[-6.3340595,62.3301589],[-6.3340339,62.330186],[-6.3339992,62.3302134],[-6.3339546,62.3302208],[-6.333893,62.3302256],[-6.3338308,62.3302352],[-6.3337712,62.3302305],[-6.3337181,62.3302195],[-6.3336859,62.3302231],[-6.3336865,62.3302545],[-6.3336786,62.3302886],[-6.3336681,62.330316],[-6.3336915,62.3303462],[-6.333715,62.3303743],[-6.3337523,62.3303899],[-6.3337931,62.3304017],[-6.3338347,62.3304135],[-6.3338656,62.3304272],[-6.333918,62.3304262],[-6.33395,62.3304376],[-6.3339754,62.3304679],[-6.3339903,62.3304811],[-6.334004,62.3304963],[-6.3340274,62.3305159],[-6.3340614,62.3305565],[-6.334065,62.3305781],[-6.3340455,62.3305945],[-6.334051,62.330608],[-6.3340865,62.3306187],[-6.334118,62.3306322],[-6.3341507,62.3306713],[-6.3341748,62.3306876],[-6.3342055,62.3307069],[-6.3342268,62.3307253],[-6.3342346,62.3307456],[-6.3342295,62.3307658],[-6.3342389,62.3307804],[-6.3342485,62.330792],[-6.3342704,62.3307991],[-6.3343,62.3307997],[-6.3343197,62.3308152],[-6.3343374,62.3308364],[-6.3343361,62.3308564],[-6.3343119,62.3308782],[-6.3342805,62.3308999],[-6.3342477,62.3309254],[-6.3342149,62.3309541],[-6.3341946,62.3309827],[-6.3342186,62.3310145],[-6.3342441,62.3310456],[-6.3342462,62.3310735],[-6.3342218,62.3310931],[-6.3341816,62.331103],[-6.3341445,62.3311147],[-6.3341183,62.3311315],[-6.3341092,62.3311653],[-6.3341027,62.3311961],[-6.3341041,62.3312316],[-6.3341225,62.331267],[-6.3341474,62.3312996],[-6.3341733,62.3313322],[-6.3341987,62.3313665],[-6.3341938,62.331401],[-6.3341691,62.331433],[-6.334156,62.3314636],[-6.3341649,62.3314914],[-6.3341685,62.3315211],[-6.3341557,62.331545],[-6.3341503,62.331568],[-6.3341815,62.3316052],[-6.3341956,62.3316283],[-6.3342066,62.3316567],[-6.3342361,62.3316769],[-6.3342898,62.3316942],[-6.3343123,62.3317176],[-6.3343355,62.3317453],[-6.3343529,62.3317723],[-6.3344063,62.331836],[-6.3344289,62.3318897],[-6.3344471,62.3319317],[-6.3344592,62.3319685],[-6.3344665,62.3320053],[-6.334477,62.3320377],[-6.3344992,62.3320697],[-6.3344934,62.3321036],[-6.334469,62.3321401],[-6.3344403,62.3321664],[-6.3344085,62.3321893],[-6.3343672,62.3322045],[-6.3342835,62.332254],[-6.3342403,62.3322708],[-6.3342059,62.3322849],[-6.3341448,62.332311],[-6.3340738,62.3323341],[-6.3340519,62.3323384],[-6.3339908,62.3323513],[-6.3339226,62.332375],[-6.3338653,62.3323934],[-6.3338357,62.3324027],[-6.3338683,62.3324413],[-6.3339287,62.3324586],[-6.3339982,62.3324782],[-6.3340507,62.3324994],[-6.3340848,62.3325054],[-6.3341328,62.3325069],[-6.3341529,62.3325263],[-6.3341751,62.3325437],[-6.3342071,62.3325385],[-6.3342233,62.3325261],[-6.3342558,62.3325208],[-6.3342832,62.3325339],[-6.3343005,62.3325535],[-6.3343292,62.3325616],[-6.3344041,62.3326111],[-6.3344136,62.3326225],[-6.3344369,62.3326261],[-6.3344599,62.3326458],[-6.3344743,62.3326629],[-6.3344819,62.3326742],[-6.3344995,62.3327018],[-6.3345031,62.3327284],[-6.3345094,62.332756],[-6.3345106,62.3327797],[-6.3344821,62.3328007],[-6.3344851,62.3328199],[-6.3345215,62.3328332],[-6.3345657,62.3328563],[-6.3345479,62.332891],[-6.3345819,62.3329107],[-6.3346567,62.3329138],[-6.3346865,62.3329489],[-6.3346981,62.3329836],[-6.3346913,62.3330143],[-6.3346663,62.3330252],[-6.3346759,62.3330616],[-6.3346578,62.3330837],[-6.3345975,62.3330923],[-6.3344902,62.3331186],[-6.3344139,62.3331422],[-6.3343588,62.3331546],[-6.3342807,62.3331633],[-6.3341868,62.3331649],[-6.3341078,62.3331651],[-6.334035,62.3331767],[-6.3339613,62.3331912],[-6.3338836,62.3332144],[-6.3338095,62.3332278],[-6.3337248,62.3332285],[-6.3336403,62.3332144],[-6.3335706,62.3332205],[-6.3335112,62.3332322],[-6.3334508,62.3332329],[-6.3333485,62.3332515],[-6.3333645,62.3332728],[-6.3334203,62.3332868],[-6.3334738,62.3333061],[-6.3335294,62.3333234],[-6.333568,62.3333282],[-6.3336295,62.333345],[-6.3336932,62.3333446],[-6.3337531,62.3333438],[-6.3338112,62.3333577],[-6.3338718,62.3333761],[-6.3339394,62.33339],[-6.3340121,62.3334024],[-6.334071,62.3334229],[-6.3341028,62.3334577],[-6.3341327,62.3334929],[-6.3341315,62.3335336],[-6.3341151,62.3335709],[-6.3340983,62.3336082],[-6.3340945,62.3336421],[-6.3339998,62.3337101],[-6.3339282,62.3337421],[-6.3338764,62.3337754],[-6.3338292,62.3338075],[-6.3337755,62.3338314],[-6.3337085,62.3338442],[-6.3336479,62.3338686],[-6.3336326,62.3339076],[-6.3336385,62.3339574],[-6.3336366,62.3340068],[-6.3336323,62.3340525],[-6.3336304,62.3340967],[-6.3336202,62.3341328],[-6.3336258,62.3341714],[-6.3336774,62.334207],[-6.3337689,62.334216],[-6.3338227,62.3342519],[-6.3338505,62.3342958],[-6.3338219,62.3343303],[-6.3337794,62.3343424],[-6.3337103,62.3343571],[-6.3337388,62.3343774],[-6.3337687,62.3344117],[-6.3337682,62.3344499],[-6.3337635,62.3344894],[-6.3337532,62.3345259],[-6.3337702,62.334562],[-6.3337467,62.3346135],[-6.3337019,62.3346339],[-6.3336488,62.3346501],[-6.3336224,62.3346731],[-6.3336221,62.3347035],[-6.3335933,62.3347269],[-6.3335561,62.3347472],[-6.3335058,62.3347651],[-6.3335047,62.3347985],[-6.3335191,62.3348332],[-6.3334767,62.3348943],[-6.3334893,62.3349273],[-6.3335127,62.3349683],[-6.333517,62.3350127],[-6.3335233,62.3350527],[-6.3335419,62.3350888],[-6.3335574,62.3351237],[-6.3335113,62.3351449],[-6.3335012,62.3351798],[-6.3335008,62.3352168],[-6.3335024,62.3352498],[-6.333478,62.3352824],[-6.3334533,62.3353134],[-6.3334291,62.3353475],[-6.333395,62.3354038],[-6.3333702,62.3354494],[-6.3333769,62.3354657],[-6.333363,62.3355057],[-6.3333554,62.3355518],[-6.3333824,62.335596],[-6.3333862,62.3356346],[-6.3333645,62.3356612],[-6.3333797,62.335704],[-6.3334157,62.3356891],[-6.3334561,62.3356696],[-6.3335125,62.3356647],[-6.3335277,62.335691],[-6.3335115,62.3357251],[-6.3334947,62.3357595],[-6.3334603,62.335783],[-6.3333962,62.3358074],[-6.3334171,62.3359459],[-6.3334259,62.3360339],[-6.3334314,62.3361275],[-6.3335094,62.3362244],[-6.3335229,62.3364931],[-6.3335049,62.3365688],[-6.3334981,62.3366339],[-6.3336093,62.3368441],[-6.3336063,62.3369093],[-6.3336365,62.3369547],[-6.3336994,62.3370299],[-6.3337449,62.3370955],[-6.3337391,62.3371192],[-6.3337704,62.3371725],[-6.333813,62.3372268],[-6.333871,62.3372881],[-6.333912,62.3373353],[-6.3339945,62.3373771],[-6.3340817,62.3374108],[-6.3341164,62.3374833],[-6.3340944,62.3376158],[-6.3341346,62.3377037],[-6.3342242,62.3377599],[-6.3342728,62.3378113],[-6.3342394,62.3378819],[-6.3340886,62.3379202],[-6.3339248,62.3379233],[-6.3338781,62.3379599],[-6.3339592,62.3380839],[-6.3340641,62.3381223],[-6.3341916,62.3381107],[-6.3343124,62.3380888],[-6.3344223,62.3380921],[-6.3345444,62.3381698],[-6.3345892,62.3382359],[-6.3345342,62.3383217],[-6.3345399,62.3384202],[-6.334503,62.3385153],[-6.3343834,62.3385906],[-6.3344051,62.3386404],[-6.3345983,62.3386653],[-6.3347191,62.3387181],[-6.334772,62.3387787],[-6.3348417,62.33887],[-6.3348582,62.3389436],[-6.334759,62.3390186],[-6.3345726,62.3390399],[-6.3344511,62.3390102],[-6.3343226,62.3390354],[-6.3341664,62.3390769],[-6.3340846,62.3391378],[-6.3340915,62.3392018],[-6.3341918,62.3392377],[-6.3342155,62.3392896],[-6.3340748,62.3393624],[-6.3339443,62.3394378],[-6.333755,62.3394761],[-6.333665,62.3395481],[-6.3337463,62.3395977],[-6.3338843,62.3396295],[-6.3339835,62.3396795],[-6.3340272,62.3397452],[-6.3339539,62.3398267],[-6.3337819,62.3398551],[-6.3336227,62.3398395],[-6.3336636,62.3398178],[-6.3337378,62.3397632],[-6.3337837,62.3397058],[-6.3337581,62.3396493],[-6.3336273,62.3396338],[-6.3335272,62.3396945],[-6.3333197,62.3396974],[-6.3332516,62.3397141],[-6.333182,62.3397315],[-6.3331014,62.3397539],[-6.3330315,62.3397791],[-6.3329812,62.3398048],[-6.3329749,62.3398384],[-6.3330033,62.3398734],[-6.3330573,62.3399029],[-6.3331296,62.3399244],[-6.3332134,62.3399312],[-6.3333003,62.3399323],[-6.3333845,62.3399395],[-6.3334397,62.3399574],[-6.3334894,62.3399918],[-6.3336217,62.3400769],[-6.3337746,62.3402001],[-6.3338713,62.3402992],[-6.3340006,62.3403101],[-6.3339787,62.3403717],[-6.3339119,62.3404444],[-6.3338694,62.3405194],[-6.3338348,62.3405943],[-6.3338162,62.3406965],[-6.3339376,62.3408431],[-6.3339472,62.3409225],[-6.3338396,62.3409801],[-6.3337868,62.3409682],[-6.333705,62.3410081],[-6.3336012,62.341096],[-6.3335161,62.3411729],[-6.3335262,62.3412463],[-6.3334067,62.3413194],[-6.3333251,62.3414114],[-6.3332008,62.3414917],[-6.3331096,62.3414457],[-6.3329512,62.3413898],[-6.3329115,62.3414287],[-6.3329768,62.3414789],[-6.3330667,62.3415429],[-6.333014,62.3415862],[-6.3328931,62.3415952],[-6.3329436,62.3416665],[-6.3329673,62.3417329],[-6.332851,62.3418163],[-6.33278,62.3418787],[-6.3326005,62.3419388],[-6.3323477,62.341989],[-6.3322857,62.3420339],[-6.3322279,62.3420902],[-6.3322099,62.3421425],[-6.3322116,62.3422034],[-6.3322343,62.3422745],[-6.3322777,62.3423258],[-6.332341,62.3423493],[-6.3324155,62.3424385],[-6.3324671,62.3425129],[-6.33243,62.3425909],[-6.3323353,62.3426599],[-6.3323387,62.3427166],[-6.3324132,62.3427538],[-6.3325131,62.3427446],[-6.3326003,62.3427116],[-6.3326932,62.3427028],[-6.3327659,62.3427567],[-6.332818,62.3428066],[-6.3328147,62.3428671],[-6.3328018,62.3429029],[-6.332928,62.3429166],[-6.3330365,62.3429467],[-6.3331192,62.3429835],[-6.3331703,62.3430418],[-6.3332132,62.3431029],[-6.3331427,62.3431644],[-6.3329954,62.3432129],[-6.3328591,62.3432374],[-6.3327886,62.3432243],[-6.3327028,62.3432425],[-6.3326397,62.3433141],[-6.3325255,62.343375],[-6.3324703,62.3434565],[-6.3324938,62.343525],[-6.3325128,62.3435736],[-6.3324143,62.3436],[-6.3323909,62.3436696],[-6.3324258,62.3437266],[-6.3325064,62.3437893],[-6.3325225,62.3438483],[-6.3324229,62.3438622],[-6.332429,62.3438224],[-6.3323779,62.3437723],[-6.3323016,62.3437697],[-6.3322614,62.343844],[-6.332196,62.3439104],[-6.3320527,62.3439005],[-6.3319603,62.3439423],[-6.3318076,62.344045],[-6.3317029,62.3440796],[-6.331754,62.3441561],[-6.3315306,62.3442446],[-6.3314966,62.3443795],[-6.3318387,62.344683],[-6.33186,62.3447289],[-6.3318836,62.3447847],[-6.3319137,62.3448311],[-6.3318984,62.3448352],[-6.3318304,62.3448476],[-6.3317962,62.3448432],[-6.3317344,62.3448543],[-6.3316591,62.3448718],[-6.3315914,62.3448997],[-6.331516,62.3449333],[-6.3314566,62.344969],[-6.3313888,62.3450531],[-6.3313512,62.3450899],[-6.3313419,62.3451195],[-6.3313647,62.3451475],[-6.331397,62.3451608],[-6.3314321,62.3451577],[-6.3314913,62.3451482],[-6.3317418,62.3451206],[-6.3318126,62.3451078],[-6.3318858,62.3451096],[-6.331955,62.3451147],[-6.3320136,62.3451263],[-6.3320866,62.3451411],[-6.3321519,62.3451407],[-6.332217,62.3451526],[-6.3322638,62.3451792],[-6.3323207,62.3451967],[-6.3324088,62.3451938],[-6.3324604,62.3452239],[-6.3324922,62.3452715],[-6.332561,62.3453115],[-6.3325178,62.3453306],[-6.3323955,62.3453111],[-6.3322714,62.3453057],[-6.3321951,62.3453315],[-6.3321178,62.345357],[-6.3319641,62.3454078],[-6.3318489,62.3454458],[-6.331655,62.3455087],[-6.3314186,62.3456267],[-6.3311842,62.3457471],[-6.3310571,62.3459352],[-6.3309649,62.3460917],[-6.3309025,62.3461821],[-6.3311045,62.3463724],[-6.331315,62.346482],[-6.3315841,62.346647],[-6.331916,62.3468634],[-6.3323033,62.347214],[-6.3322634,62.347271],[-6.3322606,62.3473352],[-6.3321981,62.3473734],[-6.3321617,62.3474322],[-6.3321943,62.3475622],[-6.3322482,62.3476082],[-6.3322585,62.3476802],[-6.3321485,62.3477502],[-6.3319838,62.3477287],[-6.3318119,62.3477231],[-6.3317428,62.3476614],[-6.3316644,62.3476012],[-6.3314756,62.3474925],[-6.3312861,62.347384],[-6.3311118,62.3472913],[-6.3309459,62.3472096],[-6.3307119,62.3471675],[-6.3304821,62.3471195],[-6.3302443,62.3471456],[-6.3297263,62.3472767],[-6.3293692,62.3474268],[-6.3292203,62.347454],[-6.32912,62.34748],[-6.3290607,62.3475266],[-6.3290288,62.3475549],[-6.3289927,62.3475793],[-6.3289429,62.3476014],[-6.3288847,62.3476251],[-6.3288633,62.3476528],[-6.3287823,62.347676],[-6.3286978,62.347743],[-6.3286321,62.3477573],[-6.3285949,62.3477732],[-6.3285612,62.3478349],[-6.3286016,62.3479436],[-6.3287271,62.347988],[-6.3288339,62.3480813],[-6.3289202,62.3481821],[-6.3290057,62.348283],[-6.3289687,62.3483434],[-6.3289013,62.3483848],[-6.3288161,62.3483936],[-6.3287494,62.3483936],[-6.3286356,62.3483879],[-6.3285243,62.3483675],[-6.3283265,62.3484084],[-6.3282592,62.3484359],[-6.3281917,62.3484636],[-6.3280575,62.3485189],[-6.328021,62.3485559],[-6.327937,62.348632],[-6.327907,62.3486638],[-6.3279037,62.3487044],[-6.3279132,62.3487872],[-6.3279551,62.3488353],[-6.3279934,62.3488653],[-6.3281335,62.3489535],[-6.3282699,62.3490143],[-6.3284217,62.3491163],[-6.3285405,62.3492527],[-6.3286571,62.3493996],[-6.3286924,62.3495834],[-6.3281596,62.3496321],[-6.3280442,62.349711],[-6.3280307,62.3498267],[-6.3279789,62.3499121],[-6.3278323,62.349973],[-6.327666,62.35028],[-6.3273489,62.3503969],[-6.3270423,62.3504651],[-6.3268953,62.3505571],[-6.3267288,62.3506496],[-6.3265408,62.3507627],[-6.3264154,62.3508896],[-6.3263424,62.3510206],[-6.3263289,62.3511589],[-6.3262328,62.3512547],[-6.3262061,62.3513609],[-6.3261324,62.3515084],[-6.3260323,62.3516119],[-6.3260241,62.3517055],[-6.3260908,62.3517823],[-6.3260995,62.3520649],[-6.3260069,62.3522072],[-6.3258838,62.3523725],[-6.3257268,62.352481],[-6.3255821,62.3525855],[-6.3254445,62.3526922],[-6.3252575,62.3527859],[-6.3250605,62.3528475],[-6.3248894,62.3529355],[-6.3247238,62.3530118],[-6.3245366,62.3530493],[-6.32434,62.3530608],[-6.324139,62.3531089],[-6.3239819,62.3531562],[-6.3238475,62.3531898],[-6.323657,62.3532113],[-6.3234613,62.3532433],[-6.3233351,62.3532992],[-6.3233679,62.353361],[-6.3232226,62.3534133],[-6.3230682,62.3534283],[-6.3229931,62.3533895],[-6.322919,62.3533656],[-6.3226548,62.353414],[-6.3224881,62.3534319],[-6.3223485,62.3534447],[-6.3221994,62.3534843],[-6.3219946,62.3535411],[-6.3219105,62.3535749],[-6.3216413,62.3535901],[-6.3215577,62.3535961],[-6.3214681,62.3536231],[-6.3213443,62.3536499],[-6.3211898,62.3536782],[-6.3210153,62.3536877],[-6.320869,62.3536946],[-6.3207262,62.3537188],[-6.3205712,62.3537472],[-6.3203982,62.353744],[-6.3202351,62.3537216],[-6.320047,62.3536931],[-6.3199054,62.3537067],[-6.3197327,62.3537137],[-6.3195621,62.3536994],[-6.3193955,62.353703],[-6.3192284,62.3537323],[-6.3190471,62.3537273],[-6.318931,62.3537155],[-6.3184565,62.3537438],[-6.3182942,62.3537583],[-6.3181258,62.353779],[-6.3179748,62.3537799],[-6.3178199,62.3537868],[-6.3176499,62.3537951],[-6.3175268,62.3538147],[-6.3174004,62.3538378],[-6.3172455,62.3538673],[-6.3170868,62.3538843],[-6.3169356,62.3538662],[-6.3167864,62.3538779],[-6.3166161,62.3539106],[-6.3164974,62.3539375],[-6.3163514,62.3539276],[-6.316319,62.3538809],[-6.3162505,62.3538734],[-6.3160499,62.3538465],[-6.3158295,62.3538209],[-6.3157343,62.3538169],[-6.315545,62.3538002],[-6.315468,62.3538039],[-6.3152274,62.3538511],[-6.3150279,62.353918],[-6.3148033,62.3539603],[-6.314675,62.3539836],[-6.314523,62.3539791],[-6.3144211,62.3539683],[-6.3143225,62.3539591],[-6.3142129,62.3539511],[-6.314148,62.3539491],[-6.3140299,62.3539487],[-6.3139069,62.3539343],[-6.3137887,62.3539349],[-6.3135595,62.3539723],[-6.3134207,62.3539901],[-6.313291,62.3540402],[-6.3131877,62.3540816],[-6.3129965,62.3541336],[-6.3128783,62.3541502],[-6.312755,62.354145],[-6.3126674,62.3541383],[-6.3126006,62.354137],[-6.3125246,62.3541495],[-6.3124532,62.3541621],[-6.3122051,62.3541825],[-6.3121418,62.3541913],[-6.3120752,62.3542326],[-6.3120351,62.354257],[-6.311975,62.3542683],[-6.3119342,62.3542927],[-6.3118947,62.3543193],[-6.3118223,62.3543597],[-6.3118061,62.3544045],[-6.3117398,62.3544379],[-6.3116531,62.3544726],[-6.3116156,62.3545038],[-6.3115772,62.3545374],[-6.3115332,62.3545713],[-6.3113983,62.3545972],[-6.3113253,62.3545841],[-6.3112069,62.3545605],[-6.3111808,62.3545314],[-6.3111622,62.3544958],[-6.3111474,62.3544551],[-6.3111179,62.3544198],[-6.3110935,62.354394],[-6.3110336,62.3543709],[-6.3109566,62.354348],[-6.3108965,62.3543285],[-6.3108572,62.3543182],[-6.3107898,62.3543126],[-6.3107263,62.3542837],[-6.3106551,62.3542593],[-6.3103617,62.3542266],[-6.3103088,62.3542246],[-6.3102481,62.3542397],[-6.3100351,62.354282],[-6.3099489,62.3542974],[-6.3099085,62.3542977],[-6.309813,62.3543083],[-6.3097542,62.3542922],[-6.309513,62.3542444],[-6.3093222,62.3542028],[-6.309118,62.354179],[-6.3089933,62.3541527],[-6.3089083,62.354123],[-6.3086458,62.3540978],[-6.3084214,62.3540977],[-6.3083577,62.3541176],[-6.308127,62.3541527],[-6.307975,62.3541898],[-6.3078824,62.3542196],[-6.3078181,62.3542637],[-6.307781,62.3543415],[-6.3077534,62.3543845],[-6.3077384,62.3544087],[-6.3077161,62.3544294],[-6.3076806,62.3544494],[-6.3076387,62.3544569],[-6.3075962,62.354437],[-6.307564,62.3544012],[-6.3075181,62.3543649],[-6.3075061,62.3543283],[-6.307502,62.3542902],[-6.3075049,62.3542513],[-6.3074819,62.354219],[-6.3074594,62.3541934],[-6.3074495,62.3541743],[-6.3074307,62.3541296],[-6.3073955,62.3540966],[-6.3072442,62.3540468],[-6.3070749,62.3539827],[-6.3068274,62.3539119],[-6.3065472,62.3538817],[-6.3062452,62.3538507],[-6.3060019,62.3538212],[-6.305776,62.3538152],[-6.3056045,62.3538563],[-6.3053811,62.3539056],[-6.3050762,62.3539801],[-6.3048475,62.353997],[-6.3048173,62.3540099],[-6.3047882,62.3540311],[-6.3047178,62.3540425],[-6.3046449,62.3540593],[-6.304613,62.3540701],[-6.3045738,62.3540865],[-6.3044966,62.3541078],[-6.304395,62.354106],[-6.3043055,62.3541088],[-6.3042321,62.3541345],[-6.3041741,62.3541442],[-6.3041257,62.354121],[-6.3040973,62.3540767],[-6.3040502,62.3540352],[-6.3039946,62.3539944],[-6.3039518,62.3539572],[-6.3039526,62.3539214],[-6.3039662,62.3538853],[-6.303968,62.3538765],[-6.3039708,62.3538546],[-6.3039558,62.3538311],[-6.3039298,62.3537823],[-6.3039431,62.3537294],[-6.3039662,62.3536786],[-6.3039836,62.3536192],[-6.3039868,62.3535574],[-6.3039705,62.3535143],[-6.3039596,62.35346],[-6.3039449,62.3534127],[-6.3039205,62.353367],[-6.3038954,62.3533211],[-6.3038441,62.3532773],[-6.3037839,62.3532366],[-6.3037405,62.3531811],[-6.3037108,62.3531268],[-6.3036733,62.3530779],[-6.3036353,62.3530355],[-6.303623,62.3530181],[-6.3036203,62.3529993],[-6.303618,62.3529751],[-6.3035933,62.3529608],[-6.3035815,62.3529446],[-6.3035536,62.3529213],[-6.3034927,62.3528944],[-6.3034317,62.3528599],[-6.3033658,62.3528291],[-6.3033093,62.352798],[-6.3032203,62.3527722],[-6.303122,62.3527455],[-6.3030437,62.3527277],[-6.3030093,62.3527206],[-6.30293,62.3527059],[-6.3028591,62.3526863],[-6.3027956,62.3526598],[-6.3027277,62.3526406],[-6.3026157,62.3526313],[-6.3024939,62.352635],[-6.3024145,62.3526287],[-6.3023377,62.3526154],[-6.3022611,62.3526013],[-6.3022014,62.3525829],[-6.3021332,62.3525679],[-6.302025,62.3525572],[-6.3019719,62.3525529],[-6.3018538,62.3525479],[-6.3017095,62.3525432],[-6.301546,62.3525461],[-6.3014333,62.3525443],[-6.3013847,62.3525322],[-6.3013337,62.3525225],[-6.3012195,62.3524915],[-6.3011227,62.3524485],[-6.3010123,62.3524112],[-6.3008939,62.352392],[-6.3008562,62.352387],[-6.3008072,62.3523837],[-6.3007506,62.3523914],[-6.3006878,62.3523883],[-6.3006335,62.3523825],[-6.3005828,62.3523781],[-6.3005303,62.35237],[-6.3004946,62.3523535],[-6.300478,62.3523326],[-6.3004695,62.3523079],[-6.3004745,62.3522821],[-6.3004932,62.3522539],[-6.3005248,62.3522334],[-6.3005707,62.3522226],[-6.3006095,62.3522156],[-6.3006984,62.3522078],[-6.3007683,62.3521947],[-6.3008414,62.3521776],[-6.3009176,62.3521538],[-6.3009641,62.3521034],[-6.3009765,62.3520627],[-6.3009955,62.3520141],[-6.3009793,62.3519176],[-6.3009407,62.3518342],[-6.3008526,62.3517492],[-6.3008123,62.3517296],[-6.3007659,62.3517064],[-6.3006832,62.3516683],[-6.3006068,62.3516351],[-6.300546,62.3516126],[-6.3005131,62.3515995],[-6.3004855,62.3515804],[-6.300453,62.351552],[-6.3004247,62.3515179],[-6.3003805,62.351486],[-6.3003429,62.3514674],[-6.3002927,62.3514485],[-6.3002174,62.3514213],[-6.3001604,62.3513952],[-6.3000916,62.351362],[-6.3000322,62.3513273],[-6.2999976,62.351285],[-6.2999728,62.3512445],[-6.2999461,62.3512169],[-6.299902,62.3511934],[-6.2998701,62.3511646],[-6.2998485,62.3511292],[-6.2998623,62.351091],[-6.2998861,62.3510586],[-6.2998773,62.3510255],[-6.2998921,62.350992],[-6.2999271,62.3509553],[-6.2999444,62.3509212],[-6.2999419,62.3508877],[-6.2999362,62.3508623],[-6.2999237,62.3508347],[-6.2999113,62.3508136],[-6.2998902,62.3507745],[-6.2998385,62.3507132],[-6.2998105,62.3506208],[-6.2998285,62.3505569],[-6.2998471,62.3504841],[-6.299814,62.3504328],[-6.2997009,62.3503932],[-6.2996144,62.3503723],[-6.2995005,62.350342],[-6.299385,62.3503205],[-6.2993164,62.3503186],[-6.299249,62.3503294],[-6.2991904,62.3503282],[-6.299119,62.3503289],[-6.299038,62.3503448],[-6.298962,62.3503526],[-6.2988966,62.3503533],[-6.2988596,62.3503576],[-6.2988226,62.3503639],[-6.298774,62.3503644],[-6.2987143,62.3503574],[-6.2986569,62.3503426],[-6.2985802,62.3503277],[-6.2985087,62.3503202],[-6.2984425,62.3503145],[-6.298398,62.3503094],[-6.2983731,62.3502977],[-6.2983507,62.3502729],[-6.2983252,62.350244],[-6.2982948,62.3502212],[-6.2982795,62.3501876],[-6.2982917,62.3501414],[-6.2983319,62.350085],[-6.2983399,62.3500294],[-6.2983406,62.3499757],[-6.2983445,62.3499165],[-6.2983187,62.3498609],[-6.2983023,62.3498054],[-6.2982673,62.3497579],[-6.2982594,62.3497144],[-6.2982732,62.3496811],[-6.2982831,62.3496608],[-6.2983344,62.349606],[-6.298404,62.3495779],[-6.2984735,62.3495726],[-6.298526,62.3495483],[-6.2985485,62.3495035],[-6.298574,62.3494629],[-6.2987437,62.3493016],[-6.2987765,62.3492617],[-6.2987664,62.3492296],[-6.2987089,62.3492102],[-6.2986442,62.3492188],[-6.2985968,62.3492595],[-6.2985595,62.349299],[-6.2984846,62.3493489],[-6.2984046,62.3493596],[-6.2983577,62.3493499],[-6.2983242,62.3493455],[-6.2982659,62.3493348],[-6.2982321,62.3493041],[-6.2981642,62.3492779],[-6.2980476,62.3493069],[-6.2979137,62.3493393],[-6.2977983,62.3493373],[-6.2977349,62.3493101],[-6.2977286,62.3492654],[-6.2977227,62.3492208],[-6.2976661,62.3491896],[-6.2976693,62.3491321],[-6.2977042,62.3490719],[-6.2977423,62.3490249],[-6.2977177,62.3489773],[-6.2976398,62.3489479],[-6.2975018,62.3489761],[-6.2973898,62.348983],[-6.2973637,62.3489464],[-6.2974126,62.348905],[-6.2975056,62.3488742],[-6.2975785,62.3488315],[-6.29762,62.3487771],[-6.2976408,62.3487529],[-6.2976586,62.3487349],[-6.2976876,62.3486937],[-6.2977444,62.3486392],[-6.2978074,62.3485837],[-6.2978413,62.3485486],[-6.2978592,62.3485312],[-6.2978684,62.3485138],[-6.2978893,62.3484895],[-6.2979234,62.3484824],[-6.2979721,62.3484924],[-6.2980159,62.3484822],[-6.2980209,62.3484413],[-6.2980105,62.3484158],[-6.2980028,62.3483947],[-6.2980025,62.3483637],[-6.298014,62.3483197],[-6.2980428,62.3482536],[-6.2980545,62.3482065],[-6.2979907,62.3481717],[-6.297884,62.3481484],[-6.2978225,62.3481132],[-6.2978089,62.3480698],[-6.2978651,62.3480305],[-6.297951,62.3480262],[-6.2980327,62.3480475],[-6.2981009,62.3480624],[-6.2981425,62.3480569],[-6.2981679,62.3480389],[-6.2981844,62.3480233],[-6.2982151,62.3480104],[-6.2982848,62.3480114],[-6.2983946,62.3480267],[-6.2984704,62.3480193],[-6.2985197,62.3479751],[-6.298515,62.347935],[-6.2984505,62.3478905],[-6.2983675,62.3478549],[-6.2983259,62.3478247],[-6.2983434,62.3477916],[-6.2984244,62.3477742],[-6.2985517,62.3477714],[-6.2987061,62.3477754],[-6.2988011,62.3477726],[-6.2988424,62.3477719],[-6.2989067,62.347758],[-6.2989594,62.3477289],[-6.2989209,62.3476785],[-6.2987422,62.3475747],[-6.2986667,62.3475188],[-6.2986448,62.3474802],[-6.2986734,62.3474449],[-6.2987197,62.3474334],[-6.2987508,62.3474404],[-6.2988151,62.3474561],[-6.2988647,62.3474711],[-6.2988811,62.3474765],[-6.2989438,62.3475005],[-6.2990117,62.3475103],[-6.2990796,62.3474937],[-6.2991699,62.3474858],[-6.2991826,62.3474631],[-6.2991936,62.3474431],[-6.299198,62.3473981],[-6.2993006,62.3473916],[-6.2994124,62.3473908],[-6.2994623,62.3473254],[-6.2995061,62.3472537],[-6.2995535,62.3471931],[-6.2994517,62.3471695],[-6.2992975,62.3471545],[-6.2991845,62.3471344],[-6.2991359,62.3471099],[-6.299194,62.3470784],[-6.2992781,62.3470588],[-6.2993022,62.3470048],[-6.2993617,62.3469683],[-6.2994271,62.3469572],[-6.2994848,62.3469558],[-6.2995684,62.3469578],[-6.29969,62.3469586],[-6.2998621,62.346941],[-6.3000281,62.3469135],[-6.3001751,62.3468822],[-6.3003212,62.3468513],[-6.3004212,62.3467976],[-6.3004999,62.3467351],[-6.3006194,62.3466893],[-6.3007815,62.3466649],[-6.3009414,62.3466433],[-6.3011076,62.3466025],[-6.3012519,62.3465481],[-6.3014048,62.3464952],[-6.3015447,62.3464705],[-6.3016723,62.3464698],[-6.3017804,62.346477],[-6.3018311,62.3464747],[-6.3018659,62.3464675],[-6.3019675,62.3464276],[-6.3020819,62.3463963],[-6.302165,62.3463573],[-6.3022308,62.3462906],[-6.302328,62.3462133],[-6.3024185,62.3461464],[-6.3025204,62.3460558],[-6.3025959,62.3459705],[-6.3026456,62.3459047],[-6.3026741,62.3458275],[-6.3026791,62.345745],[-6.302699,62.3456608],[-6.3027225,62.3455748],[-6.3027487,62.3454886],[-6.302734,62.345417],[-6.3026945,62.3453393],[-6.3026457,62.3452734],[-6.3026031,62.3452006],[-6.302493,62.3451569],[-6.3024115,62.3451063],[-6.3023888,62.3450473],[-6.3024395,62.344979],[-6.302493,62.344909],[-6.3024929,62.3448445],[-6.3024187,62.3447773],[-6.3023285,62.3447303],[-6.3022505,62.344681],[-6.3021417,62.3446317],[-6.3020441,62.3445658],[-6.3019635,62.3444978],[-6.3019199,62.3444685],[-6.3018854,62.3444503],[-6.3017665,62.3443949],[-6.3016145,62.3443359],[-6.301517,62.3443014],[-6.301492,62.3442919],[-6.3014656,62.3442637],[-6.3014818,62.3442391],[-6.3015044,62.3442171],[-6.3014333,62.3441916],[-6.3013067,62.3441759],[-6.3011806,62.344152],[-6.3010673,62.3441276],[-6.3009881,62.3440788],[-6.3009206,62.3440126],[-6.30084,62.3439617],[-6.3007255,62.3439237],[-6.300636,62.3438749],[-6.3005525,62.3438014],[-6.3004298,62.3437341],[-6.3002789,62.3436705],[-6.3001146,62.3436113],[-6.2999563,62.343558],[-6.299799,62.3435046],[-6.2996457,62.3434638],[-6.2994488,62.3434436],[-6.2992381,62.343436],[-6.2990359,62.3434195],[-6.2988686,62.3433783],[-6.2987229,62.3433215],[-6.2985887,62.343263],[-6.2984653,62.3432112],[-6.2983478,62.3431599],[-6.2982437,62.3431302],[-6.2981082,62.343113],[-6.2979918,62.343075],[-6.297862,62.343061],[-6.2977163,62.3430664],[-6.2975935,62.343046],[-6.2975589,62.3430115],[-6.2975952,62.3429719],[-6.2976652,62.3429474],[-6.2977134,62.342909],[-6.2977745,62.3428565],[-6.2978586,62.3427978],[-6.2978934,62.3427718],[-6.2978829,62.3427271],[-6.2978072,62.3427022],[-6.2977108,62.3426812],[-6.2975188,62.3426487],[-6.297431,62.3426418],[-6.2972926,62.3426427],[-6.2971634,62.342653],[-6.2971178,62.3426584],[-6.2970818,62.3426699],[-6.2969651,62.3426982],[-6.2968284,62.3427119],[-6.2966957,62.3427073],[-6.2966128,62.3426816],[-6.2964758,62.3426867],[-6.2963596,62.3426749],[-6.2962798,62.3426183],[-6.2961668,62.3425594],[-6.2960131,62.3425471],[-6.2958339,62.3425273],[-6.2956656,62.3424797],[-6.2955446,62.3424414],[-6.2954187,62.3424117],[-6.2952606,62.3423909],[-6.2951078,62.3423769],[-6.2949906,62.3423622],[-6.2948688,62.3423395],[-6.2947212,62.3423298],[-6.2945352,62.3422991],[-6.2943952,62.3422658],[-6.2942864,62.3422362],[-6.2941871,62.3422162],[-6.2940823,62.3422087],[-6.2939678,62.34217],[-6.2938627,62.3421182],[-6.2937594,62.3420873],[-6.2936424,62.3420536],[-6.2935214,62.3420022],[-6.2933942,62.3419418],[-6.2932573,62.3419113],[-6.293108,62.3418987],[-6.2929709,62.3418716],[-6.2928655,62.3418468],[-6.2927816,62.3418279],[-6.292683,62.3418282],[-6.2925731,62.3418059],[-6.2924567,62.3417724],[-6.2923467,62.3417303],[-6.2922336,62.3416893],[-6.2921301,62.3416626],[-6.2920981,62.3416549],[-6.2920635,62.3416352],[-6.2919817,62.3415974],[-6.2919764,62.3415935],[-6.2919836,62.3415627],[-6.2919885,62.3415333],[-6.2919909,62.3415012],[-6.2919529,62.3414711],[-6.2918783,62.3414476],[-6.2918029,62.3414241],[-6.2917304,62.3413934],[-6.2916675,62.3413559],[-6.2916278,62.3413266],[-6.2915824,62.3413051],[-6.2915347,62.3412872],[-6.2914805,62.341279],[-6.2914001,62.3412744],[-6.2913211,62.3412689],[-6.2912436,62.3412659],[-6.291157,62.3412801],[-6.2910649,62.3413123],[-6.2909745,62.3413262],[-6.290931,62.3413215],[-6.2908238,62.3413109],[-6.2907413,62.3413021],[-6.290665,62.3412941],[-6.2905932,62.3412943],[-6.2905378,62.3413132],[-6.2904458,62.3413611],[-6.2903839,62.3413778],[-6.2903187,62.3413968],[-6.2902627,62.3414209],[-6.2902017,62.3414436],[-6.2901396,62.3414618],[-6.2900888,62.3414789],[-6.2899804,62.3415016],[-6.2899203,62.341504],[-6.28987,62.3415034],[-6.2898324,62.3414998],[-6.2897803,62.3415283],[-6.2897184,62.3415932],[-6.2896904,62.3416507],[-6.2896428,62.3416938],[-6.2895759,62.3417282],[-6.2895266,62.3417809],[-6.2894511,62.3418322],[-6.2893401,62.3418525],[-6.2892619,62.3418657],[-6.2891657,62.3418854],[-6.2890513,62.3418707],[-6.2889221,62.3418546],[-6.2888408,62.3418386],[-6.288801,62.3418126],[-6.2888037,62.341753]],[[-6.3269003,62.3289226],[-6.3268172,62.3288928],[-6.3268103,62.3288248],[-6.3267658,62.328795],[-6.3266778,62.3286476],[-6.3266314,62.3286292],[-6.3267006,62.3285705],[-6.3266086,62.3285944],[-6.3265473,62.3285677],[-6.3265859,62.3285475],[-6.3265859,62.3285048],[-6.3266304,62.3284878],[-6.3266838,62.3285025],[-6.3267115,62.3284934],[-6.326754,62.3284369],[-6.3267134,62.3284098],[-6.3266778,62.3284107],[-6.3266828,62.3283726],[-6.3266363,62.3283538],[-6.3266363,62.3283318],[-6.3265873,62.3283157],[-6.3265065,62.3282891],[-6.3263705,62.3282847],[-6.3261993,62.3283379],[-6.3262092,62.3283748],[-6.326173,62.3284252],[-6.3262371,62.3284482],[-6.3262285,62.328461],[-6.3261954,62.328453],[-6.3262014,62.3284842],[-6.3261498,62.328487],[-6.326062,62.3285349],[-6.326037,62.3285203],[-6.3259867,62.3285363],[-6.3260151,62.3285507],[-6.3259252,62.3285727],[-6.3258864,62.3285571],[-6.3258692,62.3285967],[-6.3256691,62.328641],[-6.3256842,62.328698],[-6.3256364,62.3286808],[-6.3255082,62.328692],[-6.3254888,62.3287052],[-6.3254381,62.3286902],[-6.3254287,62.3287047],[-6.3255115,62.3287278],[-6.3256088,62.3287549],[-6.3257084,62.3287535],[-6.3256184,62.3288474],[-6.3256226,62.3288784],[-6.3255337,62.3288845],[-6.3255787,62.3289026],[-6.325673,62.3289076],[-6.3258176,62.3289704],[-6.3258254,62.3290726],[-6.3257738,62.3291744],[-6.325667,62.3292078],[-6.3256844,62.3292237],[-6.325787,62.3292059],[-6.3258368,62.3292864],[-6.325706,62.329319],[-6.3256862,62.3293622],[-6.3257444,62.3293854],[-6.3257792,62.3294467],[-6.3258728,62.3294765],[-6.3259034,62.3295049],[-6.325958,62.3294846],[-6.3264802,62.3294879],[-6.3265558,62.3295478],[-6.3267347,62.3295765],[-6.3268247,62.3295534],[-6.3268475,62.329523],[-6.3268841,62.3295272],[-6.3269819,62.3294804],[-6.3270551,62.3294692],[-6.3270041,62.3294506],[-6.3271146,62.3294037],[-6.3271362,62.3292783],[-6.3270467,62.3292535],[-6.3271266,62.329239],[-6.327144,62.3292003],[-6.3271122,62.3291733],[-6.3271518,62.3291278],[-6.3271104,62.3291105],[-6.3271188,62.3290796],[-6.3270725,62.3290595],[-6.3270425,62.3290679],[-6.3270731,62.3290347],[-6.3270023,62.3290239],[-6.3270035,62.3290088],[-6.3269117,62.3289676],[-6.3269003,62.3289226]],[[-6.2841831,62.3382899],[-6.2842686,62.33828],[-6.2843542,62.3382392],[-6.2844136,62.3382061],[-6.2844303,62.3381719],[-6.2843423,62.3381465],[-6.284233,62.338141],[-6.284126,62.3381288],[-6.2840714,62.3381013],[-6.2840333,62.3380704],[-6.2840191,62.3380571],[-6.2840036,62.3380295],[-6.2839953,62.3380207],[-6.2839977,62.3380086],[-6.2840333,62.3379882],[-6.2839751,62.3379931],[-6.283905,62.337987],[-6.2836103,62.3379876],[-6.2834843,62.3379722],[-6.28347,62.3379545],[-6.2833393,62.3379468],[-6.2833251,62.3379633],[-6.28323,62.3379942],[-6.283211,62.338056],[-6.2830897,62.3380902],[-6.282978,62.3381399],[-6.2829662,62.3381818],[-6.2829685,62.338237],[-6.2829971,62.3382679],[-6.283047,62.33828],[-6.2830588,62.3383181],[-6.2830577,62.3383462],[-6.2831028,62.3383512],[-6.2831432,62.3383501],[-6.2831646,62.3383429],[-6.2831979,62.3383385],[-6.2832086,62.3383225],[-6.2832466,62.3383076],[-6.2832597,62.3382728],[-6.2832633,62.3382447],[-6.2832953,62.3382353],[-6.2833536,62.3382326],[-6.2836721,62.3382657],[-6.2838884,62.3382767],[-6.2840476,62.3382745],[-6.2840844,62.3382977],[-6.2841213,62.3383109],[-6.2841831,62.3382899]]]}}]}