{
  "type": "FeatureCollection",
  "features": [
    {
      "type": "Feature",
      "id": "physical-component:0009067d3f046760099093ffa957642c95f1a2e660b78bddf609d4d1fcfab1a5",
      "geometry": null,
      "properties": {
        "id": "physical-component:0009067d3f046760099093ffa957642c95f1a2e660b78bddf609d4d1fcfab1a5",
        "source_value": "0009067d3f046760099093ffa957642c95f1a2e660b78bddf609d4d1fcfab1a5",
        "source_property": "subject_id"
      }
    },
    {
      "type": "Feature",
      "id": "physical-component:110e441169327a1bc96c96de0be8eaa5ef3eeb6872b90ade8c0d0d6495c277b2",
      "geometry": null,
      "properties": {
        "id": "physical-component:110e441169327a1bc96c96de0be8eaa5ef3eeb6872b90ade8c0d0d6495c277b2",
        "source_value": "110e441169327a1bc96c96de0be8eaa5ef3eeb6872b90ade8c0d0d6495c277b2",
        "source_property": "subject_id"
      }
    },
    {
      "type": "Feature",
      "id": "physical-component:1cd54a39b974f1a8ee305ab4a590cd9ef02a328d59b244bd1d909746ec39c7c5",
      "geometry": null,
      "properties": {
        "id": "physical-component:1cd54a39b974f1a8ee305ab4a590cd9ef02a328d59b244bd1d909746ec39c7c5",
        "source_value": "1cd54a39b974f1a8ee305ab4a590cd9ef02a328d59b244bd1d909746ec39c7c5",
        "source_property": "subject_id"
      }
    },
    {
      "type": "Feature",
      "id": "physical-component:344d085c5ee3afb809660423e91634ed311f130763a5d2d4f9d6ea91cdd4d3e8",
      "geometry": null,
      "properties": {
        "id": "physical-component:344d085c5ee3afb809660423e91634ed311f130763a5d2d4f9d6ea91cdd4d3e8",
        "source_value": "344d085c5ee3afb809660423e91634ed311f130763a5d2d4f9d6ea91cdd4d3e8",
        "source_property": "subject_id"
      }
    },
    {
      "type": "Feature",
      "id": "physical-component:3eb5716e1e821f25c85a494658b13bc8c3a57de6d6636b5323b5edfb25eca833",
      "geometry": null,
      "properties": {
        "id": "physical-component:3eb5716e1e821f25c85a494658b13bc8c3a57de6d6636b5323b5edfb25eca833",
        "source_value": "3eb5716e1e821f25c85a494658b13bc8c3a57de6d6636b5323b5edfb25eca833",
        "source_property": "subject_id"
      }
    },
    {
      "type": "Feature",
      "id": "physical-component:3f8309e420055c726486ecdb318e368769eb52d038fcb6d8266106380217f8fd",
      "geometry": null,
      "properties": {
        "id": "physical-component:3f8309e420055c726486ecdb318e368769eb52d038fcb6d8266106380217f8fd",
        "source_value": "3f8309e420055c726486ecdb318e368769eb52d038fcb6d8266106380217f8fd",
        "source_property": "subject_id"
      }
    },
    {
      "type": "Feature",
      "id": "physical-component:5b687195caf6d9f5f011be6c6d8517152a2d78e2e5241463c99dac1d254c7d2b",
      "geometry": null,
      "properties": {
        "id": "physical-component:5b687195caf6d9f5f011be6c6d8517152a2d78e2e5241463c99dac1d254c7d2b",
        "source_value": "5b687195caf6d9f5f011be6c6d8517152a2d78e2e5241463c99dac1d254c7d2b",
        "source_property": "subject_id"
      }
    },
    {
      "type": "Feature",
      "id": "physical-component:6deb3a8a2d72ba08aba2d63b73c89788f587ba5ab3bb56ea20f72bb1b538df43",
      "geometry": null,
      "properties": {
        "id": "physical-component:6deb3a8a2d72ba08aba2d63b73c89788f587ba5ab3bb56ea20f72bb1b538df43",
        "source_value": "6deb3a8a2d72ba08aba2d63b73c89788f587ba5ab3bb56ea20f72bb1b538df43",
        "source_property": "subject_id"
      }
    },
    {
      "type": "Feature",
      "id": "physical-component:6f31be024cca8bcc6ed65e7ee1ca2554d4f889b2be2ebcd0e5786ec801a99203",
      "geometry": null,
      "properties": {
        "id": "physical-component:6f31be024cca8bcc6ed65e7ee1ca2554d4f889b2be2ebcd0e5786ec801a99203",
        "source_value": "6f31be024cca8bcc6ed65e7ee1ca2554d4f889b2be2ebcd0e5786ec801a99203",
        "source_property": "subject_id"
      }
    },
    {
      "type": "Feature",
      "id": "physical-component:8046202150652008b4d4fbd5867a9658375702506277ddc782da0e62e7fafafb",
      "geometry": null,
      "properties": {
        "id": "physical-component:8046202150652008b4d4fbd5867a9658375702506277ddc782da0e62e7fafafb",
        "source_value": "8046202150652008b4d4fbd5867a9658375702506277ddc782da0e62e7fafafb",
        "source_property": "subject_id"
      }
    },
    {
      "type": "Feature",
      "id": "physical-component:92137006e45c30dbd06cfb4eef3581c23248d8f0a6ca3ec339df668e268ff33e",
      "geometry": null,
      "properties": {
        "id": "physical-component:92137006e45c30dbd06cfb4eef3581c23248d8f0a6ca3ec339df668e268ff33e",
        "source_value": "92137006e45c30dbd06cfb4eef3581c23248d8f0a6ca3ec339df668e268ff33e",
        "source_property": "subject_id"
      }
    },
    {
      "type": "Feature",
      "id": "physical-component:bc9fe8b0910d6a40dc87ba199db3e3188979c46eba59a3eb7ca2e81e65d06bfe",
      "geometry": null,
      "properties": {
        "id": "physical-component:bc9fe8b0910d6a40dc87ba199db3e3188979c46eba59a3eb7ca2e81e65d06bfe",
        "source_value": "bc9fe8b0910d6a40dc87ba199db3e3188979c46eba59a3eb7ca2e81e65d06bfe",
        "source_property": "subject_id"
      }
    },
    {
      "type": "Feature",
      "id": "physical-component:df78f53425fab964dab064e6fc55437102e2f9ea5a40fc454a6e2fff3f277189",
      "geometry": null,
      "properties": {
        "id": "physical-component:df78f53425fab964dab064e6fc55437102e2f9ea5a40fc454a6e2fff3f277189",
        "source_value": "df78f53425fab964dab064e6fc55437102e2f9ea5a40fc454a6e2fff3f277189",
        "source_property": "subject_id"
      }
    },
    {
      "type": "Feature",
      "id": "physical-component:f93741afbb4a8200db773503c3080ea3e7b9280d8b70d5e85c2251c17dca4704",
      "geometry": null,
      "properties": {
        "id": "physical-component:f93741afbb4a8200db773503c3080ea3e7b9280d8b70d5e85c2251c17dca4704",
        "source_value": "f93741afbb4a8200db773503c3080ea3e7b9280d8b70d5e85c2251c17dca4704",
        "source_property": "subject_id"
      }
    },
    {
      "type": "Feature",
      "id": "physical-component:fa280f14a18aa7559772a8854eb2d79ffbc402c9867d2289ed5bd48449c971ad",
      "geometry": null,
      "properties": {
        "id": "physical-component:fa280f14a18aa7559772a8854eb2d79ffbc402c9867d2289ed5bd48449c971ad",
        "source_value": "fa280f14a18aa7559772a8854eb2d79ffbc402c9867d2289ed5bd48449c971ad",
        "source_property": "subject_id"
      }
    }
  ]
}
