{
  "geometry": {
    "coordinates": [
      [
        [
          -81.101457,
          -6.072068
        ],
        [
          -81.10154689755065,
          -6.07195313362975
        ],
        [
          -81.10135871505447,
          -6.0721432074072945
        ],
        [
          -81.101457,
          -6.072068
        ]
      ]
    ],
    "type": "Polygon"
  },
  "id": "physical-component:d15872b646c35d39fa1f0cc1bda6edc9775a46edd3c2c5278690d770ef211708",
  "properties": {
    "administrative_assignment": null,
    "dateline_connected": false,
    "diagnostic_nearby_locations": [],
    "fragment_bindings": [
      {
        "feature_sha256": "897d2b7fa85054b3c4d4c67123bbe2dd4509d10f5d83ea3f1bcc7cf46d73f7a2",
        "id": "physical-gap:739:2:aa0fd1443e06f21592400f5daea7d46017688b047c09981e90a68e1c46f25f1d"
      }
    ],
    "measured_fragment_area_sum_m2": 27.71966428313268,
    "measured_fragment_count": 1,
    "positive_area_input_overlap": false,
    "touches_blocked_tile": false,
    "touches_domain_boundary": false,
    "touches_reference_shore": true,
    "unmeasured_fragment_ids": [],
    "water_status": "unverified"
  },
  "type": "Feature"
}
