{"type":"FeatureCollection","features":[{"type":"Feature","properties":{"shapeName":"Sechura","shapeISO":"","shapeID":"86281439B13089313750619","shapeGroup":"PER","shapeType":"ADM2"},"geometry":{"type":"Polygon","coordinates":[[[-80.09236894099996,-5.79509126499994],[-80.10917904399997,-5.787907161999954],[-80.11166204399996,-5.784887138999977],[-80.14069923899996,-5.765189598999939],[-80.17213395799996,-5.750543431999972],[-80.19011149199997,-5.733831147999979],[-80.20755413899997,-5.721833515999947],[-80.21696638199995,-5.719392830999936],[-80.23326957299997,-5.712334397999939],[-80.24281168499994,-5.710230965999926],[-80.25339483499994,-5.694421729999931],[-80.25929458399997,-5.693748383999946],[-80.29415950899994,-5.677573499999937],[-80.30594357399997,-5.67662123599996],[-80.32248948699998,-5.679935076999925],[-80.53462951899996,-5.601606252999943],[-80.53752704599998,-5.568173931999979],[-80.552580875,-5.492269863999979],[-80.59146230799996,-5.479368981999926],[-80.60151953999997,-5.479205516999968],[-80.64519005499994,-5.487112324999941],[-80.64868205799996,-5.460783850999974],[-80.64665761899994,-5.453626826999937],[-80.64724992899994,-5.446529294999948],[-80.64222703299998,-5.444764757999963],[-80.64428692599995,-5.442189023999958],[-80.64431699599999,-5.43673285899996],[-80.68560926099997,-5.427142538999931],[-80.69037772899998,-5.426336833999926],[-80.69037680599996,-5.428146107999964],[-80.69750417499995,-5.427048382999942],[-80.72089139099995,-5.419738775999974],[-80.71977303999995,-5.417648541999938],[-80.72375434299994,-5.416483384999935],[-80.72299827999996,-5.411697493999952],[-80.72671787699994,-5.411277365999979],[-80.73790433799996,-5.405201346999945],[-80.73847922299996,-5.407321984999953],[-80.74914759099994,-5.413653859999954],[-80.75617225499997,-5.408853075999957],[-80.75300680399994,-5.408528043999979],[-80.75190519699999,-5.402663590999964],[-80.77221250299993,-5.400231142999928],[-80.85101994399997,-5.406045055999925],[-80.96108224899996,-5.350446675999933],[-80.97219923999995,-5.352599598999973],[-80.98715236499999,-5.373714847999963],[-80.99395111499996,-5.388460973999941],[-80.97327348999994,-5.411054723999939],[-80.95990236499995,-5.421718723999959],[-80.94954886499994,-5.432999973999927],[-80.93452536499996,-5.451624973999969],[-80.91469736499994,-5.480706973999929],[-80.89758398999999,-5.511453098999937],[-80.89378911499995,-5.525484348999953],[-80.88159573999997,-5.549644473999933],[-80.87556248999994,-5.566824223999959],[-80.87251761499994,-5.571490223999945],[-80.86630061499994,-5.590150348999941],[-80.86214448999993,-5.608984348999968],[-80.85511523999998,-5.625240223999981],[-80.85130861499994,-5.645765598999958],[-80.85022848999995,-5.663550723999947],[-80.85151361499999,-5.690001973999927],[-80.85640623999996,-5.731734348999964],[-80.86124411499998,-5.749665973999981],[-80.87043361499997,-5.768790973999955],[-80.87659173999998,-5.775695348999932],[-80.88146673999995,-5.786154348999958],[-80.88488861499997,-5.798058598999944],[-80.89148823999994,-5.809820348999949],[-80.90294923999994,-5.822777348999978],[-80.91781448999996,-5.834142598999961],[-80.94314448999995,-5.845679723999979],[-80.95419136499999,-5.846177723999972],[-80.96106636499997,-5.843220723999934],[-80.96835548999996,-5.844623098999932],[-80.97052336499996,-5.841339848999951],[-80.97645898999997,-5.838380848999975],[-80.98908786499999,-5.838164098999925],[-80.99201561499996,-5.832845723999981],[-81.00420111499994,-5.835867223999969],[-81.00780473999998,-5.832374848999962],[-81.01300786499996,-5.830628848999936],[-81.01345898999995,-5.827906223999946],[-81.01666598999998,-5.830138723999937],[-81.02386723999996,-5.829904348999946],[-81.03598823999994,-5.822675723999964],[-81.04227348999996,-5.817111348999958],[-81.04388098999993,-5.810652348999952],[-81.04744923999993,-5.809023473999957],[-81.05863861499995,-5.793290973999945],[-81.06699411499994,-5.787878973999966],[-81.06806836499999,-5.785818348999953],[-81.08013673999994,-5.789624973999935],[-81.08174411499994,-5.792001973999959],[-81.08362298999998,-5.791660098999955],[-81.08464448999996,-5.796871098999929],[-81.08259573999999,-5.804986348999932],[-81.08544336499995,-5.815660098999956],[-81.08781836499998,-5.820933598999943],[-81.09324798999995,-5.824333973999956],[-81.09240823999994,-5.826341848999959],[-81.09356636499996,-5.830630848999931],[-81.09746098999995,-5.838173723999944],[-81.10262886499999,-5.84321284899994],[-81.10693748999995,-5.844623098999932],[-81.10995511499993,-5.843998223999961],[-81.11312486499997,-5.840984348999939],[-81.12351361499998,-5.84297259899995],[-81.12419336499994,-5.85339447399997],[-81.12851361499997,-5.864464848999944],[-81.13833598999997,-5.877915973999961],[-81.14321499,-5.881732598999974],[-81.14942573999997,-5.889591848999942],[-81.14576761499995,-5.898783348999928],[-81.14469536499996,-5.909132848999946],[-81.14610548999997,-5.915626973999963],[-81.14499023999997,-5.934408223999981],[-81.14818161499994,-5.939998098999979],[-81.14778523999996,-5.944890598999962],[-81.14955661499994,-5.947605473999943],[-81.14513673999994,-5.970322223999972],[-81.14867973999998,-5.974384723999947],[-81.14953911499998,-5.97944922399995],[-81.14294723999996,-6.000003848999938],[-81.13159573999997,-6.022847598999931],[-81.11744923999998,-6.039876973999981],[-81.11739448999998,-6.043394473999967],[-81.11322261499998,-6.050081973999966],[-81.11483986499996,-6.054585848999977],[-81.11149798999998,-6.061941348999937],[-81.10303123999995,-6.071839848999957],[-81.09156636499995,-6.082027348999929],[-81.05108011499993,-6.108576223999933],[-81.00742961499998,-6.132857473999934],[-80.94032624,-6.173507723999933],[-80.89453911499999,-6.203345723999973],[-80.86108598999994,-6.228847598999948],[-80.83451948999993,-6.252947223999968],[-80.80395298999997,-6.283820348999939],[-80.78380473999994,-6.298964848999958],[-80.75691011499998,-6.312152474999948],[-80.70994923999996,-6.33010347499993],[-80.62713286499996,-6.372080099999948],[-80.37621873899997,-6.006968723999933],[-80.368548864,-5.996634723999932],[-80.36360736399996,-5.994431598999938],[-80.35524223899995,-5.986826223999969],[-80.35007223899999,-5.971544973999926],[-80.33471286399998,-5.95390434899997],[-80.32117973899994,-5.943259723999972],[-80.29175386399999,-5.925998098999969],[-80.27875198899994,-5.919992223999941],[-80.21731448899999,-5.903873098999952],[-80.20469336399998,-5.898093723999978],[-80.19617773899995,-5.89208784899995],[-80.16667573899997,-5.892390598999953],[-80.14036723899994,-5.888361223999937],[-80.13086323899995,-5.888665973999935],[-80.12384761399994,-5.891310598999951],[-80.12365823899995,-5.885187473999963],[-80.12010161399996,-5.872218723999936],[-80.11466798899994,-5.870818348999933],[-80.11111323899996,-5.868052723999938],[-80.10607223899996,-5.867449223999927],[-80.100925739,-5.860458973999926],[-80.09728511399999,-5.85782222399996],[-80.09578711399996,-5.854117223999936],[-80.09275586399997,-5.852394473999937],[-80.08953323899993,-5.846173848999968],[-80.08099611399996,-5.836355473999959],[-80.07677923899996,-5.834658223999952],[-80.07530273899994,-5.83149809899993],[-80.06972848899994,-5.827611348999937],[-80.06527736399994,-5.82144134899994],[-80.05779298899995,-5.81880659899997],[-80.05298436399994,-5.811244098999964],[-80.07779486399994,-5.803150348999964],[-80.09236894099996,-5.79509126499994]]]}}]}
