{"type":"FeatureCollection","features":[{"type":"Feature","geometry":null,"properties":{"GEOID":"05","NAME":"Arkansas","STUSAB":"AR","REGION":"3","DIVISION":"7"}},{"type":"Feature","geometry":null,"properties":{"GEOID":"22","NAME":"Louisiana","STUSAB":"LA","REGION":"3","DIVISION":"7"}},{"type":"Feature","geometry":null,"properties":{"GEOID":"40","NAME":"Oklahoma","STUSAB":"OK","REGION":"3","DIVISION":"7"}},{"type":"Feature","geometry":null,"properties":{"GEOID":"48","NAME":"Texas","STUSAB":"TX","REGION":"3","DIVISION":"7"}}]}