{"type":"Feature","id":"osm:named-land:northwestern-hawaii-gardner-pinnacles","geometry":{"type":"MultiPolygon","coordinates":[[[[-167.9993601,24.9996609],[-167.9993294,24.9998054],[-167.9992212,24.9998693],[-167.9990434,24.9998831],[-167.9989073,24.999786],[-167.9988212,24.9996666],[-167.9986211,24.9995025],[-167.9984101,24.9992081],[-167.9983656,24.9990332],[-167.9983489,24.9988082],[-167.9984046,24.9982719],[-167.9985267,24.9981635],[-167.9985656,24.9978608],[-167.9986463,24.9977859],[-167.9990295,24.9976497],[-167.9993713,24.9974802],[-167.9994073,24.9974275],[-167.99946,24.9974108],[-167.9995128,24.9974247],[-167.9995379,24.9975386],[-167.9994462,24.9977941],[-167.999249,24.9980805],[-167.9990629,24.9982219],[-167.9990544,24.9983191],[-167.9991351,24.9984415],[-167.9991933,24.9984831],[-167.9992712,24.9985832],[-167.99946,24.9990442],[-167.9994823,24.9993442],[-167.9994573,24.9995025],[-167.9993601,24.9996609]]],[[[-167.9998309,24.9999308],[-167.9998393,24.9998197],[-167.9999115,24.9997975],[-167.999942,24.9998197],[-167.9999503,24.9999031],[-167.999931,24.999953],[-167.9998615,24.9999558],[-167.9998309,24.9999308]]],[[[-168.0007127,24.9998424],[-168.0007517,24.9999258],[-168.0007377,25.0001009],[-168.0006378,25.0003147],[-168.0005266,25.0003566],[-168.000446,25.0003481],[-168.0004265,25.0002508],[-168.0004767,25.0001092],[-168.0004849,24.9999842],[-168.0006516,24.9998481],[-168.0007127,24.9998424]]]]},"properties":{"name":"Gardner Pinnacles","original_osm":{"name":"Gardner Pinnacles","url":"https://api.openstreetmap.org/api/0.6/map?bbox=-168.126944,24.868056,-167.866944,25.128056","sha256":"4042db2e1fff71d26c3b01e12c49d49e18aace181866d4af7bb83ba9f28e94c3","bytes":73911,"path":"data/macro-improvements/macro-coverage-oceania/osm-e3de5671fd1c.xml.gz","bbox":[-168.126944,24.868056,-167.866944,25.128056],"retrieved_on":"2026-10-02","copyright":"OpenStreetMap and contributors","license":"http://opendatacommons.org/licenses/odbl/1-0/","coastline_ways":3,"source_node_count":97,"archive_sha256":"ac5e565a083b08ce1fb4d83d64cd3e5b522d1766defadbbc082093e200e01b94"},"source_components":[{"osm_way_ids":["42063621"],"osm_source_versions":[{"id":"42063621","version":"2","timestamp":"2026-05-03T15:22:45Z"}],"source_area_km2":0.020772859838289675,"valid_source_ring":true,"geometry_type":"Polygon","whole_source_polygon_inside_query_domain":true,"bbox":[-167.9995379,24.9974108,-167.9983489,24.9998831],"all_location_overlap_fraction":0.0,"intended_region_overlap_fraction":0.0,"intersecting_locations":[],"nearby_locations_0_001_degrees":[],"status":"corroborated-current-source-land-absent-from-existing-footprints"},{"osm_way_ids":["42063620"],"osm_source_versions":[{"id":"42063620","version":"3","timestamp":"2026-05-03T15:47:22Z"}],"source_area_km2":0.0012417438392904588,"valid_source_ring":true,"geometry_type":"Polygon","whole_source_polygon_inside_query_domain":true,"bbox":[-168.0007517,24.9998424,-168.0004265,25.0003566],"all_location_overlap_fraction":0.0,"intended_region_overlap_fraction":0.0,"intersecting_locations":[],"nearby_locations_0_001_degrees":[],"status":"corroborated-current-source-land-absent-from-existing-footprints"},{"osm_way_ids":["42063619"],"osm_source_versions":[{"id":"42063619","version":"2","timestamp":"2026-05-03T15:22:45Z"}],"source_area_km2":0.00017402503926260398,"valid_source_ring":true,"geometry_type":"Polygon","whole_source_polygon_inside_query_domain":true,"bbox":[-167.9999503,24.9997975,-167.9998309,24.9999558],"all_location_overlap_fraction":0.0,"intended_region_overlap_fraction":0.0,"intersecting_locations":[],"nearby_locations_0_001_degrees":[],"status":"corroborated-current-source-land-absent-from-existing-footprints"}]}}
