{"type":"Feature","id":"osm:named-land:line-kingman-reef","geometry":{"type":"MultiPolygon","coordinates":[[[[-162.3665173,6.3823675],[-162.3666145,6.3823847],[-162.3667171,6.3823601],[-162.3667939,6.3822995],[-162.3668341,6.3822295],[-162.3668741,6.3822063],[-162.3669116,6.3822236],[-162.3669444,6.3822089],[-162.3669806,6.3822156],[-162.3670068,6.3822335],[-162.3670128,6.3822609],[-162.3670095,6.3822968],[-162.3669867,6.3823468],[-162.3669618,6.3823755],[-162.3669283,6.3823954],[-162.3668478,6.3824208],[-162.3666165,6.3824707],[-162.3664945,6.3824894],[-162.3663766,6.3824912],[-162.366317,6.3824799],[-162.3662025,6.3824329],[-162.3660914,6.3824241],[-162.3660398,6.3823522],[-162.3660962,6.3822888],[-162.366133,6.3822588],[-162.3661739,6.3822475],[-162.3662081,6.3822642],[-162.3662343,6.3823095],[-162.3662793,6.3823361],[-162.3663885,6.3823261],[-162.3664536,6.3823428],[-162.3665173,6.3823675]]],[[[-162.3832941,6.3843665],[-162.3833579,6.3843797],[-162.3833847,6.3843887],[-162.3834076,6.3844337],[-162.3833911,6.3844776],[-162.3833604,6.3845037],[-162.3833094,6.3845284],[-162.383261,6.3845457],[-162.383189,6.3845719],[-162.3831307,6.3845954],[-162.3830853,6.3845992],[-162.3830462,6.3846045],[-162.3829971,6.3846036],[-162.3829674,6.3846018],[-162.3829397,6.3845975],[-162.3829001,6.3845958],[-162.3828285,6.3846181],[-162.3827526,6.3846147],[-162.3827056,6.3846036],[-162.3826351,6.3845964],[-162.3825894,6.3845972],[-162.3825391,6.3845836],[-162.3824999,6.3845668],[-162.3823889,6.3845575],[-162.3822423,6.3845471],[-162.3820021,6.3845453],[-162.3818384,6.3845466],[-162.3816822,6.3845579],[-162.3815093,6.3845772],[-162.3813767,6.3845883],[-162.3812268,6.3845928],[-162.3810901,6.3845846],[-162.3810061,6.384592],[-162.3809078,6.3846112],[-162.3807846,6.3846259],[-162.3806088,6.384631],[-162.3804548,6.3846414],[-162.3803528,6.3846468],[-162.3802194,6.3846465],[-162.3800748,6.3846377],[-162.3798892,6.3846224],[-162.3797091,6.3845938],[-162.3796038,6.3845779],[-162.3795194,6.3845709],[-162.3794441,6.384566],[-162.3793704,6.3845526],[-162.37927,6.3845244],[-162.3791069,6.3844811],[-162.3790005,6.3844767],[-162.3789271,6.384468],[-162.378901,6.3844684],[-162.3788567,6.384473],[-162.3788028,6.3844763],[-162.3787629,6.3844771],[-162.3786995,6.3844741],[-162.3786294,6.3844582],[-162.3785847,6.3844578],[-162.3785292,6.3844567],[-162.3783973,6.3844318],[-162.3782907,6.3844205],[-162.3782162,6.384405],[-162.3781293,6.3843773],[-162.3780486,6.3843474],[-162.3779627,6.38433],[-162.3778758,6.384333],[-162.3777744,6.3843259],[-162.3776802,6.3843104],[-162.3775819,6.3842991],[-162.3775085,6.3842765],[-162.3773895,6.3842508],[-162.3773129,6.3842271],[-162.3772244,6.3841953],[-162.3771655,6.3841819],[-162.3770972,6.3841639],[-162.3770392,6.3841464],[-162.3769833,6.38413],[-162.3769435,6.3841042],[-162.3768793,6.3840729],[-162.3767676,6.3840338],[-162.3766781,6.3839973],[-162.3765803,6.383967],[-162.3764856,6.3839366],[-162.3764142,6.383915],[-162.3763206,6.3838873],[-162.3762331,6.383861],[-162.3761685,6.3838379],[-162.3760909,6.3838137],[-162.3759677,6.3837824],[-162.3758955,6.3837562],[-162.3757841,6.383733],[-162.375662,6.3837083],[-162.3756164,6.3837042],[-162.375529,6.3836945],[-162.3754597,6.3836862],[-162.3754167,6.3836698],[-162.3754064,6.3836623],[-162.3754022,6.3836487],[-162.3754053,6.3836343],[-162.3754172,6.3836194],[-162.3754343,6.3836132],[-162.375471,6.3836117],[-162.3755155,6.3836112],[-162.3755621,6.3836112],[-162.3756045,6.3836106],[-162.375634,6.3836374],[-162.3756614,6.3836564],[-162.3757427,6.3836862],[-162.3758767,6.3837253],[-162.3759646,6.3837536],[-162.3760665,6.3837865],[-162.3761612,6.3838173],[-162.376213,6.3838358],[-162.3762906,6.3838559],[-162.3763863,6.3838785],[-162.3764478,6.3838898],[-162.376496,6.3838955],[-162.376528,6.3838878],[-162.3765446,6.3839073],[-162.3765803,6.3839299],[-162.376661,6.3839592],[-162.3767634,6.3839916],[-162.3768524,6.3840107],[-162.376899,6.3840379],[-162.3769492,6.38406],[-162.3769989,6.3840847],[-162.3770589,6.3840986],[-162.3771246,6.3841145],[-162.3771572,6.3841181],[-162.377181,6.3841012],[-162.3772017,6.3840981],[-162.3772125,6.3841089],[-162.3772322,6.384132],[-162.3772751,6.3841454],[-162.3773217,6.3841598],[-162.3773864,6.384186],[-162.377464,6.3842025],[-162.3775612,6.384224],[-162.3776792,6.3842467],[-162.3778189,6.3842652],[-162.3779751,6.3842662],[-162.3780693,6.3842765],[-162.3781573,6.3843084],[-162.3782318,6.3843269],[-162.3782825,6.3843454],[-162.3783332,6.3843711],[-162.3784232,6.384368],[-162.3785334,6.3843807],[-162.3786127,6.3843905],[-162.3787065,6.384397],[-162.3787661,6.3843959],[-162.3788358,6.3843937],[-162.3788892,6.3843756],[-162.3789793,6.3843499],[-162.3790683,6.3843369],[-162.3791742,6.3843326],[-162.379311,6.3843309],[-162.3794416,6.384343],[-162.3795233,6.3843517],[-162.3796398,6.3843592],[-162.379766,6.384362],[-162.3799199,6.3843557],[-162.3800676,6.3843598],[-162.380228,6.3843735],[-162.3803428,6.384381],[-162.3804791,6.3843898],[-162.3806899,6.3843974],[-162.3809373,6.3843958],[-162.3811554,6.3844101],[-162.3812578,6.3844236],[-162.3813346,6.3844518],[-162.3813951,6.3844617],[-162.3815123,6.3844637],[-162.3816241,6.3844588],[-162.3816667,6.3844502],[-162.3817237,6.3844297],[-162.3817897,6.3844229],[-162.3818741,6.384387],[-162.3820515,6.3843542],[-162.3821381,6.3843461],[-162.3822147,6.3843321],[-162.3823,6.3843234],[-162.3823763,6.3843192],[-162.3824736,6.3843139],[-162.3825642,6.3843044],[-162.3826225,6.3842889],[-162.3826994,6.3843012],[-162.3827974,6.3842885],[-162.3828542,6.3842949],[-162.3829169,6.3843109],[-162.3829701,6.3843048],[-162.3830243,6.3843223],[-162.3830675,6.3843409],[-162.3831563,6.3843456],[-162.383228,6.3843675],[-162.3832941,6.3843665]]],[[[-162.3493636,6.4023011],[-162.3493149,6.4022485],[-162.349287,6.4022058],[-162.3492417,6.4021281],[-162.3492276,6.4021004],[-162.3492239,6.4020769],[-162.3492238,6.4020645],[-162.349225,6.4020589],[-162.3492287,6.4020553],[-162.3492348,6.4020548],[-162.3492414,6.4020581],[-162.3492495,6.4020673],[-162.3492733,6.4021031],[-162.3492955,6.402126],[-162.3493285,6.4021628],[-162.3493753,6.402195],[-162.3494243,6.4022392],[-162.3494784,6.4022888],[-162.3495216,6.402333],[-162.3496276,6.4024484],[-162.3497823,6.4025983],[-162.3498687,6.4026732],[-162.3499645,6.4027621],[-162.3501036,6.4028883],[-162.3502165,6.4030124],[-162.3502307,6.4030362],[-162.3502456,6.4030524],[-162.3502769,6.4030742],[-162.3504573,6.4032564],[-162.350528,6.4033274],[-162.3505647,6.4033705],[-162.3505923,6.4034043],[-162.3506162,6.4034425],[-162.3506555,6.4034628],[-162.3506889,6.4034929],[-162.3507078,6.4035189],[-162.35073,6.4035726],[-162.3507541,6.4036274],[-162.3507784,6.4036753],[-162.3507953,6.4037075],[-162.3508175,6.4037397],[-162.3508534,6.4037655],[-162.3508921,6.403802],[-162.3509508,6.4038474],[-162.350973,6.4038775],[-162.3509846,6.403904],[-162.3509937,6.4039461],[-162.3510028,6.4039794],[-162.3510178,6.4040111],[-162.3510185,6.4040306],[-162.3510093,6.4040453],[-162.3509867,6.4040515],[-162.35096,6.4040383],[-162.3509247,6.4039909],[-162.3508957,6.403946],[-162.3508611,6.4039108],[-162.3508104,6.4038603],[-162.3507644,6.403814],[-162.3507264,6.4037639],[-162.3506771,6.4036973],[-162.3506526,6.4036442],[-162.3506421,6.403601],[-162.35063,6.4035566],[-162.3506037,6.4035062],[-162.3505764,6.403477],[-162.3505397,6.4034354],[-162.3504878,6.4033804],[-162.3504197,6.4033184],[-162.3502579,6.403178],[-162.3500019,6.4029673],[-162.3498433,6.4028175],[-162.3497271,6.4026645],[-162.3495623,6.4024749],[-162.3494386,6.4023758],[-162.3493636,6.4023011]]]]},"properties":{"name":"Kingman Reef","original_osm":{"name":"Kingman Reef","url":"https://api.openstreetmap.org/api/0.6/map?bbox=-162.5466667,6.2533333,-162.2866667,6.5133333","sha256":"be48a41c986e4fd82233ace690d173788aa5f31dfc45b0bbc5a129c3ebc0b369","bytes":371843,"path":"data/macro-improvements/macro-coverage-oceania/osm-f95f77f8389e.xml.gz","bbox":[-162.54666666666665,6.253333333333334,-162.28666666666666,6.513333333333334],"retrieved_on":"2026-10-02","copyright":"OpenStreetMap and contributors","license":"http://opendatacommons.org/licenses/odbl/1-0/","coastline_ways":3,"source_node_count":1733,"archive_sha256":"ee731671e94e3591aa46926d6df5307b4a2df63823c71db60a4d9fa8603afbfa"},"source_components":[{"osm_way_ids":["1057883120"],"osm_source_versions":[{"id":"1057883120","version":"2","timestamp":"2026-06-02T18:52:51Z"}],"source_area_km2":0.00161285275759644,"valid_source_ring":true,"geometry_type":"Polygon","whole_source_polygon_inside_query_domain":true,"bbox":[-162.3670128,6.3822063,-162.3660398,6.3824912],"all_location_overlap_fraction":0.0,"intended_region_overlap_fraction":0.0,"intersecting_locations":[],"nearby_locations_0_001_degrees":[],"status":"corroborated-current-source-land-absent-from-existing-footprints"},{"osm_way_ids":["238170988"],"osm_source_versions":[{"id":"238170988","version":"4","timestamp":"2022-05-06T07:58:25Z"}],"source_area_km2":0.0028564177980456127,"valid_source_ring":true,"geometry_type":"Polygon","whole_source_polygon_inside_query_domain":true,"bbox":[-162.3510185,6.4020548,-162.3492238,6.4040515],"all_location_overlap_fraction":0.0,"intended_region_overlap_fraction":0.0,"intersecting_locations":[],"nearby_locations_0_001_degrees":[],"status":"corroborated-current-source-land-absent-from-existing-footprints"},{"osm_way_ids":["238170987"],"osm_source_versions":[{"id":"238170987","version":"12","timestamp":"2021-06-28T21:15:39Z"}],"source_area_km2":0.014147666958395857,"valid_source_ring":true,"geometry_type":"Polygon","whole_source_polygon_inside_query_domain":true,"bbox":[-162.3834076,6.3836106,-162.3754022,6.3846468],"all_location_overlap_fraction":0.0,"intended_region_overlap_fraction":0.0,"intersecting_locations":[],"nearby_locations_0_001_degrees":[],"status":"corroborated-current-source-land-absent-from-existing-footprints"}]}}
