{"geometry":{"coordinates":[[[72.75450512001532,28.79079625914011],[72.76534300017937,28.79980700019297],[72.79178600012386,28.7813360000564],[72.79966700023192,28.77825199992992],[72.81301899992695,28.77775200025468],[72.82517200008778,28.77629999984515],[72.83844000040574,28.769968000123185],[72.84706099956554,28.766473999975176],[72.85286978990894,28.764261261248237],[72.86781299967026,28.757754999893393],[72.87869299958231,28.752754000396862],[72.89732399990271,28.74529800010265],[72.91625200042955,28.733958999708136],[72.93438700035983,28.728622000005373],[72.94266499988987,28.73146199967158],[72.94985200036956,28.73700699997312],[72.95761100024754,28.73984500044645],[72.96363099997075,28.738083000130416],[72.97060399957496,28.733505000355535],[72.9962390000299,28.71728100041787],[73.00025199982997,28.715337999848884],[73.01114700043377,28.71379299964724],[73.02180500000082,28.728986999750305],[73.02754999963281,28.73538199967959],[73.03546100022504,28.74296799967351],[73.03775032791538,28.744240284961222],[73.03614465315326,28.75106043758916],[73.03948302382253,28.755693069379674],[73.03954002105519,28.76658662387365],[73.03245310882397,28.766586390949215],[73.03188358076272,28.762848735680677],[73.02571341224422,28.759376473045847],[73.01678900790643,28.75934670278815],[73.01668348685348,28.76404328896666],[73.01138714100381,28.765374359339262],[73.00934165819103,28.77022557315172],[73.00492228083863,28.770174741671042],[73.00585035960648,28.77628318072425],[73.00800480427836,28.777598584007478],[73.01224108505806,28.777582305379156],[73.01411490977534,28.77577809898014],[73.02582737163596,28.775512163155838],[73.02484854322574,28.778730912301796],[73.01883906377185,28.781798694054544],[73.01876813783934,28.78531147204683],[73.01552426703137,28.788861211275957],[72.99431140664615,28.80067166506535],[72.99475991473832,28.812202668018756],[72.99096621461916,28.81267453869907],[72.98779952632714,28.85553422462482],[72.98854201829954,28.863001356727295],[72.9918906070659,28.86610146461095],[72.98995708085465,28.87771042169868],[72.98388835316501,28.87773260887286],[72.98103995922679,28.88248994965153],[72.96108907879801,28.88289686769633],[72.95587809030167,28.88246536758271],[72.94974779682343,28.878316690662814],[72.94869611433427,28.882046755653278],[72.94461039985015,28.885288755871443],[72.93720979059941,28.887339018580917],[72.9438826171891,28.902686013149037],[72.9541866435988,28.914354687019227],[72.96238751277355,28.920056288067315],[72.9585618156753,28.926844844813786],[72.95391690634023,28.92053625624328],[72.94148620632342,28.911821155621908],[72.93469123561209,28.914413521566814],[72.93512829893189,28.926889223658804],[72.92229810567312,28.918929693850316],[72.90902013457162,28.926340726243552],[72.90085971960042,28.926125517578612],[72.90148419893671,28.923094118798588],[72.89118674297384,28.922040717704988],[72.89146303179353,28.919351296025525],[72.88229802283553,28.920218146250477],[72.88162870959735,28.917899994389302],[72.87391446627964,28.918328709302557],[72.86455402205053,28.91924676782412],[72.86537228010673,28.933981853779585],[72.86353259005705,28.9355024400856],[72.84327224212035,28.935958843326034],[72.83961548356774,28.934095094612985],[72.83231317741127,28.93371217767492],[72.83041768892525,28.935523152371616],[72.81807855967782,28.93502467165132],[72.81766547228375,28.940183385255068],[72.81287042922696,28.940823179146435],[72.8133513443891,28.97470556171237],[72.81150494179968,28.98131433229065],[72.73019409158411,28.950120926239833],[72.72176361110184,28.944019318436858],[72.68603515599773,28.925819397347368],[72.67655181941097,28.91880798320193],[72.6485645360246,28.90304347387729],[72.65699799955809,28.891282999910572],[72.66244499983691,28.884352000444494],[72.67189799959306,28.869649999647834],[72.67337000002556,28.863725999855035],[72.68206800003821,28.855769999885638],[72.68713399983426,28.85177399997019],[72.69644200009827,28.843117000049574],[72.70079000005853,28.8384630003672],[72.70481100022755,28.833981999669618],[72.70911399991121,28.82832499959909],[72.72224400016052,28.809899999785216],[72.72782899960868,28.80607999989212],[72.735214000226,28.802345000321566],[72.73944100000222,28.796452000159718],[72.74021855744053,28.79473993559958],[72.74257699982871,28.789547000094046],[72.74682599972016,28.782651999590144],[72.75450512001532,28.79079625914011]]],"type":"Polygon"},"properties":{"shapeGroup":"IND","shapeID":"7132399B78390472834442","shapeISO":"","shapeName":"Ravla","shapeType":"ADM3"},"type":"Feature"}
