{"features":[{"geometry":{"coordinates":[[[48.852794,27.604641],[48.870779,27.605618],[48.884776,27.615058],[48.893809,27.632961],[48.900645,27.632961],[48.90329109430603,27.627448561583947],[48.8989,27.6305],[48.8834,27.6007],[48.8671,27.596],[48.8497,27.6025],[48.84743398857989,27.606645770893607],[48.852794,27.604641]]],"type":"Polygon"},"id":"physical-component:0371ed4a86cd1d0df70b1fbb5c2cfaf48e9eff130fd928b904a2709248d5561f","properties":{"administrative_assignment":null,"dateline_connected":false,"diagnostic_nearby_locations":[],"fragment_bindings":[{"feature_sha256":"17b1c295966581f693d24fc68be79edc9b0df40b6dadce17c83e0b3369876d2b","id":"physical-gap:1269:36:19a7770ee8a234d4f5113ebc3013de854796c79ec314fa28b17d4098a0d97dc5"}],"measured_fragment_area_sum_m2":4921169.089789756,"measured_fragment_count":1,"positive_area_input_overlap":false,"touches_blocked_tile":false,"touches_domain_boundary":false,"touches_reference_shore":true,"unmeasured_fragment_ids":[],"water_status":"unverified"},"type":"Feature"},{"geometry":{"coordinates":[[[49.993663,26.663153],[49.997122799720536,26.659862215470607],[49.9879,26.6627],[49.98773436379317,26.67110227303744],[49.993663,26.663153]]],"type":"Polygon"},"id":"physical-component:04e65790716b2cc4a75edd2facaf7742f9de062f890c3f881547ef91f6bd2afa","properties":{"administrative_assignment":null,"dateline_connected":false,"diagnostic_nearby_locations":[],"fragment_bindings":[{"feature_sha256":"26b100407dbdd6b6b5dcce7e70037037669901179e4ebaf455a50d13aa1eae5e","id":"physical-gap:1269:56:8aae5f54298e353a9e2dd12c1d080f3801e59e926bb012b971489258b826b664"}],"measured_fragment_area_sum_m2":380687.3448030308,"measured_fragment_count":1,"positive_area_input_overlap":false,"touches_blocked_tile":false,"touches_domain_boundary":false,"touches_reference_shore":true,"unmeasured_fragment_ids":[],"water_status":"unverified"},"type":"Feature"},{"geometry":{"coordinates":[[[48.74317120559441,27.966586383216782],[48.7425,27.9686],[48.7429056214079,27.969424992694037],[48.74317120559441,27.966586383216782]]],"type":"Polygon"},"id":"physical-component:089b2da42fa274dce924f9ac51e5e468e6dae46f25f3517c2a19ce2cb3c46609","properties":{"administrative_assignment":null,"dateline_connected":false,"diagnostic_nearby_locations":[],"fragment_bindings":[{"feature_sha256":"d37728cfb1bd4d13063c24798e8f2e2297521b12c8d448200c29766928c74eab","id":"physical-gap:1269:25:cbd0ebc0cc3501cf47fb31f139751ac072edf397e1b44a1712b501600097d337"}],"measured_fragment_area_sum_m2":7471.693059091028,"measured_fragment_count":1,"positive_area_input_overlap":false,"touches_blocked_tile":false,"touches_domain_boundary":false,"touches_reference_shore":true,"unmeasured_fragment_ids":[],"water_status":"unverified"},"type":"Feature"},{"geometry":{"coordinates":[[[49.489106,27.17475],[49.50408,27.187934],[49.516449,27.188381],[49.521762607929965,27.185322863644643],[49.49559436123675,27.162382720874206],[49.489106,27.17475]]],"type":"Polygon"},"id":"physical-component:0e2e2bf5dd2010de92c0e31bf53c4b8bff9be9b257d8dc51265f041215a8a094","properties":{"administrative_assignment":null,"dateline_connected":false,"diagnostic_nearby_locations":[],"fragment_bindings":[{"feature_sha256":"e94bce2439ff752072a79e3e9021d5f5c4bf2820869b2f23a27954a9900e317a","id":"physical-gap:1269:48:f3a7ba8bf7e4090b180655a3a7f69aa761333d05b6f75538e4854fec40715211"}],"measured_fragment_area_sum_m2":4309394.592357369,"measured_fragment_count":1,"positive_area_input_overlap":false,"touches_blocked_tile":false,"touches_domain_boundary":false,"touches_reference_shore":true,"unmeasured_fragment_ids":[],"water_status":"unverified"},"type":"Feature"},{"geometry":{"coordinates":[[[49.552745,27.176744],[49.572113,27.194159],[49.568614,27.17829],[49.5669775663312,27.1739672241537],[49.5549,27.1635],[49.5470858143687,27.17450364915428],[49.552745,27.176744]]],"type":"Polygon"},"id":"physical-component:0f48274513470c8dea9f3cd5a8bfdc70eccbf05b6450653f5eb5917c21f77418","properties":{"administrative_assignment":null,"dateline_connected":false,"diagnostic_nearby_locations":[],"fragment_bindings":[{"feature_sha256":"d51330b687e1b2031d6ea113c67c3dd59815535489f992456e2a3d5181b0eb34","id":"physical-gap:1269:49:a91feae0174fa83e19a2df9b3aeb253175e7b7ef349a5ab2a91db79b96f05d58"}],"measured_fragment_area_sum_m2":3155739.8428516793,"measured_fragment_count":1,"positive_area_input_overlap":false,"touches_blocked_tile":false,"touches_domain_boundary":false,"touches_reference_shore":true,"unmeasured_fragment_ids":[],"water_status":"unverified"},"type":"Feature"},{"geometry":{"coordinates":[[[48.517833,28.354193],[48.5171,28.342434],[48.522227,28.318834],[48.534923,28.298814],[48.618419,28.217271],[48.622575829878045,28.207539299390245],[48.6119,28.2215],[48.5743,28.2578],[48.5409,28.2814],[48.5185,28.3215],[48.5132,28.3431],[48.518520115656855,28.35713409819827],[48.517833,28.354193]]],"type":"Polygon"},"id":"physical-component:0fe7b4077e8b956f806f1fe1370e6a016db66b55b947c2fd5bb19e84e436ef5a","properties":{"administrative_assignment":null,"dateline_connected":false,"diagnostic_nearby_locations":[],"fragment_bindings":[{"feature_sha256":"01d0218fff4e81f1d15418bc889b0a8a7f0b6b106c7953a5c735a6745fcaca2e","id":"physical-gap:1269:22:023062ed640962a70f2acff04800687a8b137961a18d00be3e0cb308ed92e624"}],"measured_fragment_area_sum_m2":6393719.242511077,"measured_fragment_count":1,"positive_area_input_overlap":false,"touches_blocked_tile":false,"touches_domain_boundary":false,"touches_reference_shore":true,"unmeasured_fragment_ids":[],"water_status":"unverified"},"type":"Feature"},{"geometry":{"coordinates":[[[48.865489,27.754055],[48.852794,27.737494],[48.839203,27.728583],[48.846202,27.740302],[48.847667,27.748725],[48.84547,27.773261],[48.848481,27.787299],[48.854259,27.795356],[48.857595,27.803534],[48.85433238414934,27.813491199434058],[48.8701,27.7917],[48.8564,27.7704],[48.86684444872845,27.756436226156524],[48.865489,27.754055]]],"type":"Polygon"},"id":"physical-component:13e6766ae0c034b64504105edceae9b720931533f155113db54e6d996418999d","properties":{"administrative_assignment":null,"dateline_connected":false,"diagnostic_nearby_locations":[],"fragment_bindings":[{"feature_sha256":"952047c0f5808cbaffb50f768cdafbe6d369d3f6d5aa94cdb8ee27cdab4916b4","id":"physical-gap:1269:30:9936c12e0eb72eea88c1984730aab6e213fc47f5d69a304c7223ee67f7238e7a"}],"measured_fragment_area_sum_m2":10748938.927678397,"measured_fragment_count":1,"positive_area_input_overlap":false,"touches_blocked_tile":false,"touches_domain_boundary":false,"touches_reference_shore":true,"unmeasured_fragment_ids":[],"water_status":"unverified"},"type":"Feature"},{"geometry":{"coordinates":[[[49.374848,27.149075],[49.399099,27.144721],[49.407074,27.132717],[49.417166,27.138129],[49.423595,27.14647],[49.435069,27.166815],[49.435883,27.16234],[49.436778,27.16177],[49.438487,27.162055],[49.441905,27.160631],[49.43280056036664,27.144383986496436],[49.4188,27.1222],[49.4202,27.0992],[49.3983,27.112],[49.3813,27.1129],[49.363,27.127],[49.3666,27.1497],[49.372819566537174,27.15201425731616],[49.374848,27.149075]]],"type":"Polygon"},"id":"physical-component:1661cb64a579a9010b85e61f7c782f5e3e67e9a10691e2e649294e5fa63d081b","properties":{"administrative_assignment":null,"dateline_connected":false,"diagnostic_nearby_locations":[],"fragment_bindings":[{"feature_sha256":"9c7658826772025f58f930f05faf950f3cf7f62c804dcbfb90880d8821b413fe","id":"physical-gap:1269:46:496c69cbe2af2b9d474da86ebfdfd91e1334da8eb2e0bf95022f081eac85033d"}],"measured_fragment_area_sum_m2":22820578.24050416,"measured_fragment_count":1,"positive_area_input_overlap":false,"touches_blocked_tile":false,"touches_domain_boundary":false,"touches_reference_shore":true,"unmeasured_fragment_ids":[],"water_status":"unverified"},"type":"Feature"},{"geometry":{"coordinates":[[[48.833995,27.697455],[48.839203,27.708075],[48.846202,27.697089],[48.846573805956105,27.692758880590247],[48.834,27.6867],[48.82704755913479,27.691196415559563],[48.833995,27.697455]]],"type":"Polygon"},"id":"physical-component:16814353c48f2a93ed862d7b07e5af5caefaf1abcd5acf2698bd6d4d1d1dfd6b","properties":{"administrative_assignment":null,"dateline_connected":false,"diagnostic_nearby_locations":[],"fragment_bindings":[{"feature_sha256":"9af74467a3e4420e81b691731ad19d764d013d1c2d5e6ff55355b694625ffb70","id":"physical-gap:1269:34:9b33f2b294d082bfbff26214392ef0b7dc07aa926bf236a280a800a88e873e1f"}],"measured_fragment_area_sum_m2":2154814.230612217,"measured_fragment_count":1,"positive_area_input_overlap":false,"touches_blocked_tile":false,"touches_domain_boundary":false,"touches_reference_shore":true,"unmeasured_fragment_ids":[],"water_status":"unverified"},"type":"Feature"},{"geometry":{"coordinates":[[[50.127696,25.940375],[50.127696,25.933539],[50.1248988858041,25.930901676809672],[50.1148,25.9461],[50.11732035599082,25.957245574270516],[50.127696,25.940375]]],"type":"Polygon"},"id":"physical-component:16a9868dfa68b095bbbae7429f54ab6e4d8737bbc617a48171d778ef01a1ff47","properties":{"administrative_assignment":null,"dateline_connected":false,"diagnostic_nearby_locations":[],"fragment_bindings":[{"feature_sha256":"5fb0304298dc4d3c833ca98dabd292db9c7da03466dd6824ccac4922ecf85666","id":"physical-gap:1270:1:309254152df5d82511ff87647e60cf0f1658b99e823702c50f64247a98d51c0a"}],"measured_fragment_area_sum_m2":1750368.8067612895,"measured_fragment_count":1,"positive_area_input_overlap":false,"touches_blocked_tile":false,"touches_domain_boundary":false,"touches_reference_shore":true,"unmeasured_fragment_ids":[],"water_status":"unverified"},"type":"Feature"},{"geometry":{"coordinates":[[[49.315115,27.286811],[49.317711189117304,27.27326109950196],[49.3137,27.2787],[49.31492987737744,27.287309141642094],[49.315115,27.286811]]],"type":"Polygon"},"id":"physical-component:173a5b8b150dc7d9d4e9dc40b25efff39a13d6632036d90d9da4252030f970ad","properties":{"administrative_assignment":null,"dateline_connected":false,"diagnostic_nearby_locations":[],"fragment_bindings":[{"feature_sha256":"354014cbe074ff0d6e36b70750b47dadf26eb60fe53d857f02c905768c32f5e5","id":"physical-gap:1269:44:fc32caa32e4482478ad15daf65a3a760fc05acdbb55034aa28ecd1d7ef0ee2fc"}],"measured_fragment_area_sum_m2":232786.60356482313,"measured_fragment_count":1,"positive_area_input_overlap":false,"touches_blocked_tile":false,"touches_domain_boundary":false,"touches_reference_shore":true,"unmeasured_fragment_ids":[],"water_status":"unverified"},"type":"Feature"},{"geometry":{"coordinates":[[[48.488292,28.385891],[48.504893,28.389635],[48.50545484189957,28.39005723871636],[48.5063,28.3899],[48.50658178013731,28.39090416194386],[48.509100685336065,28.392797184337848],[48.5045,28.3852],[48.4826,28.3814],[48.48033576534826,28.386388391967117],[48.488292,28.385891]]],"type":"Polygon"},"id":"physical-component:1b7fc84420fcc967cf30017cdfdbe6f9abe976f7d63773fea60ccab38d9b83f4","properties":{"administrative_assignment":null,"dateline_connected":false,"diagnostic_nearby_locations":[],"fragment_bindings":[{"feature_sha256":"712a8b2466b02e67db84998fda72dbfdcc71a265e3fe6e4c20653910309a462d","id":"physical-gap:1269:20:628f28b44718e996880cbd6ab44b1456b7e1efc38fb5ee4c954028d4640da00e"}],"measured_fragment_area_sum_m2":1107732.595335158,"measured_fragment_count":1,"positive_area_input_overlap":false,"touches_blocked_tile":false,"touches_domain_boundary":false,"touches_reference_shore":true,"unmeasured_fragment_ids":[],"water_status":"unverified"},"type":"Feature"},{"geometry":{"coordinates":[[[50.014008,26.710761],[50.00827572196974,26.738384585566745],[50.0222,26.7184],[50.02109372194488,26.702543347876603],[50.014008,26.710761]]],"type":"Polygon"},"id":"physical-component:30d54387687f3b1b9c12e60d7aa73d86a66ebbc86aa82de9ee50fb7aa3a3e580","properties":{"administrative_assignment":null,"dateline_connected":false,"diagnostic_nearby_locations":[],"fragment_bindings":[{"feature_sha256":"359f32a49bc82a5c7c89320bc8fbb19510ac8549a459d7f81be914eaed073d0a","id":"physical-gap:1270:59:b877361424512f9e9a11848f0c1538217c647a82fbaab5ac3ae4eab5bcf5d54c"}],"measured_fragment_area_sum_m2":2158215.5455290317,"measured_fragment_count":1,"positive_area_input_overlap":false,"touches_blocked_tile":false,"touches_domain_boundary":false,"touches_reference_shore":true,"unmeasured_fragment_ids":[],"water_status":"unverified"},"type":"Feature"},{"geometry":{"coordinates":[[[48.837657,27.872301],[48.87190360964961,27.842135962550273],[48.8539,27.8546],[48.8234,27.8698],[48.8177,27.8864],[48.82078071794882,27.894801958042237],[48.837657,27.872301]]],"type":"Polygon"},"id":"physical-component:33fed74f808279e91b71a25a3c28ad43d4b1c429c6edc9fa29dd49f92d8c528b","properties":{"administrative_assignment":null,"dateline_connected":false,"diagnostic_nearby_locations":[],"fragment_bindings":[{"feature_sha256":"50aa1cbc4128ea47bf5e432a5cf88c41768fb55db3d7047482e1ae443d1e5900","id":"physical-gap:1269:28:5f7114253a90e582cbcfb0fb9360d35b7e391ec76d92b9f9d58b47f13f04feb3"}],"measured_fragment_area_sum_m2":4754003.33769558,"measured_fragment_count":1,"positive_area_input_overlap":false,"touches_blocked_tile":false,"touches_domain_boundary":false,"touches_reference_shore":true,"unmeasured_fragment_ids":[],"water_status":"unverified"},"type":"Feature"},{"geometry":{"coordinates":[[[50.107758,25.91474],[50.11807230716139,25.869037840231552],[50.1033,25.8982],[50.1044,25.914],[50.12487698097977,25.930881023344305],[50.107758,25.91474]]],"type":"Polygon"},"id":"physical-component:3d75cba32fa76aac4e889ea0236ade6b0d82aa270a13aa5fd08013b5873fa370","properties":{"administrative_assignment":null,"dateline_connected":false,"diagnostic_nearby_locations":[],"fragment_bindings":[{"feature_sha256":"6847e80acf398bbc9ed98f0db42aa7e62973a33bdc411b366a41947a6a59d5a0","id":"physical-gap:1270:2:3d41ecb991a20f578cbecad5d194f431a8b68653146ae8f0d8bc2eb6fc72906e"}],"measured_fragment_area_sum_m2":2598329.286143897,"measured_fragment_count":1,"positive_area_input_overlap":false,"touches_blocked_tile":false,"touches_domain_boundary":false,"touches_reference_shore":true,"unmeasured_fragment_ids":[],"water_status":"unverified"},"type":"Feature"},{"geometry":{"coordinates":[[[49.56544,27.297797],[49.557465,27.305487],[49.556407,27.304836],[49.551768,27.304023],[49.54363,27.309272],[49.538259,27.311428],[49.538097,27.311469],[49.538097,27.317694],[49.551443,27.322821],[49.55348976409492,27.327139326396882],[49.5564,27.326],[49.56962594212119,27.30139690336596],[49.56544,27.297797]]],"type":"Polygon"},"id":"physical-component:403c6924cf7f8d2f9d7dbfd2963f09d55746e03c456778fa0b3e95685dbccf5a","properties":{"administrative_assignment":null,"dateline_connected":false,"diagnostic_nearby_locations":[],"fragment_bindings":[{"feature_sha256":"9b0ba0f10903ed2dbdd846d8e8e0c3f6eea0151d11d325cc4dee3a8c5b894b97","id":"physical-gap:1269:1:70bf1f556de746a45ccb1fa3176a60263455a731d2cb1f2ee57ea89ae520c6a1"}],"measured_fragment_area_sum_m2":4727357.475926526,"measured_fragment_count":1,"positive_area_input_overlap":false,"touches_blocked_tile":false,"touches_domain_boundary":false,"touches_reference_shore":true,"unmeasured_fragment_ids":[],"water_status":"unverified"},"type":"Feature"},{"geometry":{"coordinates":[[[48.523936,28.414455],[48.527590609052424,28.41229341702377],[48.52246231707568,28.41099784852438],[48.523936,28.414455]]],"type":"Polygon"},"id":"physical-component:430dc07f4fdf39d767c20850a0eedb38ed3caf7eef1575ab2ac4b95cb0d31ee5","properties":{"administrative_assignment":null,"dateline_connected":false,"diagnostic_nearby_locations":[],"fragment_bindings":[{"feature_sha256":"1871adb92e80edaa43e374601d1770c5595b7f3e7001c8cb490e3081b28703a9","id":"physical-gap:1269:21:54b12f81fc576bbe4d387ee311f41c8343899722cf12c2ab87f3e5a1fbd17951"}],"measured_fragment_area_sum_m2":85896.91336880518,"measured_fragment_count":1,"positive_area_input_overlap":false,"touches_blocked_tile":false,"touches_domain_boundary":false,"touches_reference_shore":true,"unmeasured_fragment_ids":[],"water_status":"unverified"},"type":"Feature"},{"geometry":{"coordinates":[[[49.088878,27.551093],[49.106293,27.546861],[49.144298,27.544176],[49.15268,27.546332],[49.170421,27.555732],[49.178477,27.557847],[49.188975,27.556708],[49.20323168252281,27.553011903150562],[49.1989,27.5487],[49.1573,27.5393],[49.1316,27.5376],[49.0952,27.5435],[49.081273792032704,27.55414172495614],[49.088878,27.551093]]],"type":"Polygon"},"id":"physical-component:45b0b07bf20c636237e6284c5a487800a444b5b201e16fececca637916dff758","properties":{"administrative_assignment":null,"dateline_connected":false,"diagnostic_nearby_locations":[],"fragment_bindings":[{"feature_sha256":"96221e001894e27433c4d63029e5928b057e4dd84c14dd25687b894c9fc91589","id":"physical-gap:1269:39:9c4103a0f80fa4ca27f9293c2d04e36acbe1ec326b48a77a77178e2735afd872"}],"measured_fragment_area_sum_m2":10001585.161351059,"measured_fragment_count":1,"positive_area_input_overlap":false,"touches_blocked_tile":false,"touches_domain_boundary":false,"touches_reference_shore":true,"unmeasured_fragment_ids":[],"water_status":"unverified"},"type":"Feature"},{"geometry":{"coordinates":[[[49.972992,26.842353],[49.996352114458965,26.82188024471119],[49.9613,26.8409],[49.95415083436871,26.852121475168108],[49.972992,26.842353]]],"type":"Polygon"},"id":"physical-component:5122c4624720382214959541bc61d8bbe22c65d11d563375db5fb757f95ce896","properties":{"administrative_assignment":null,"dateline_connected":false,"diagnostic_nearby_locations":[],"fragment_bindings":[{"feature_sha256":"0b55f73d6e03214b6abaf672fc467c1be8efdb172b36491b6afe85e3c98d3047","id":"physical-gap:1269:53:2fa7ba55f92cec3e5585656228bf85d32ba75ffcaed105bb97db9ccbd7205b01"}],"measured_fragment_area_sum_m2":2284684.0832117335,"measured_fragment_count":1,"positive_area_input_overlap":false,"touches_blocked_tile":false,"touches_domain_boundary":false,"touches_reference_shore":true,"unmeasured_fragment_ids":[],"water_status":"unverified"},"type":"Feature"},{"geometry":{"coordinates":[[[48.858084,27.662828],[48.867686,27.667792],[48.875011,27.677476],[48.880138,27.687567],[48.880544,27.670315],[48.878429,27.664211],[48.873302,27.659654],[48.878184,27.65058],[48.877126,27.644477],[48.870616,27.641181],[48.85963,27.640448],[48.869802,27.618557],[48.873302,27.612494],[48.848969,27.623358],[48.84586403099518,27.62330815310883],[48.8506,27.6278],[48.8588,27.6609],[48.85785401387158,27.662906637242102],[48.858084,27.662828]]],"type":"Polygon"},"id":"physical-component:535b124b23300a00948c0131e1b43f30c6584f2d8c9cc183574f2630c1524911","properties":{"administrative_assignment":null,"dateline_connected":false,"diagnostic_nearby_locations":[],"fragment_bindings":[{"feature_sha256":"bedb12e9f6c901fa39f5345a10c764def02865f9697090c151f7b9e6bf6d457c","id":"physical-gap:1269:35:4a08da039e555cfb0f880ef4344b76e3c29c8f82d73149e77590debb3f68bc35"}],"measured_fragment_area_sum_m2":10196809.602381513,"measured_fragment_count":1,"positive_area_input_overlap":false,"touches_blocked_tile":false,"touches_domain_boundary":false,"touches_reference_shore":true,"unmeasured_fragment_ids":[],"water_status":"unverified"},"type":"Feature"},{"geometry":{"coordinates":[[[49.997569,26.74136],[49.988703979165614,26.724895417197317],[49.9946,26.7447],[50.0,26.745610843373495],[50.0029,26.7461],[50.00333727216373,26.745472412490383],[50.0,26.743093148936172],[49.997569,26.74136]]],"type":"Polygon"},"id":"physical-component:60bc692dcff24dfcc4321defac2058a15e4a76a53a11b155b616dacbacf4ccdc","properties":{"administrative_assignment":null,"dateline_connected":false,"diagnostic_nearby_locations":[],"fragment_bindings":[{"feature_sha256":"379723d2d565fee703eab15207ea2d2960486f282d3bf73aa781a8fabf4a4715","id":"physical-gap:1269:55:3840be068771eb15d32881073623672bd1b237bddfd54841860cea718d11219c"},{"feature_sha256":"0fa8085c376d95473f3124acabfaf611ccb784552fb2ce5cb64824b43688a3d7","id":"physical-gap:1270:60:4b205866dbe569307667f5dfc89ef9f1e9c54213b5f7e3665d894f42cdfa9857"}],"measured_fragment_area_sum_m2":638152.4251698761,"measured_fragment_count":2,"positive_area_input_overlap":false,"touches_blocked_tile":false,"touches_domain_boundary":false,"touches_reference_shore":true,"unmeasured_fragment_ids":[],"water_status":"unverified"},"type":"Feature"},{"geometry":{"coordinates":[[[50.0088,26.086493],[50.010427,26.07689],[50.007091,26.074408],[50.00094436783537,26.072419540505287],[50.0013,26.0775],[50.006795274407594,26.089605532028312],[50.0088,26.086493]]],"type":"Polygon"},"id":"physical-component:63d04d1d3ffb1b6969cb80cd80fc54b8da85cee8aef5b24dc12eca73231551fa","properties":{"administrative_assignment":null,"dateline_connected":false,"diagnostic_nearby_locations":[],"fragment_bindings":[{"feature_sha256":"75875c85158d9bba1dd03e67e8c4a9a48114f42001e135d0fdad4e1200e7657a","id":"physical-gap:1270:44:032ab8489c8a903c7af438bb4347ee6640f1bbe032b6659f75fe0388f7225656"}],"measured_fragment_area_sum_m2":1015532.2775368809,"measured_fragment_count":1,"positive_area_input_overlap":false,"touches_blocked_tile":false,"touches_domain_boundary":false,"touches_reference_shore":true,"unmeasured_fragment_ids":[],"water_status":"unverified"},"type":"Feature"},{"geometry":{"coordinates":[[[49.150076,27.431342],[49.161388,27.426907],[49.170258,27.421047],[49.176117,27.415839],[49.183116,27.411119],[49.195486,27.40644],[49.201996,27.398668],[49.207042,27.395168],[49.212576,27.396796],[49.216337630533744,27.400132733175642],[49.2183,27.3929],[49.22348925623122,27.40647654246539],[49.229503,27.411811],[49.229666,27.413886],[49.235037,27.418158],[49.237315,27.423977],[49.240245,27.427191],[49.246918,27.423774],[49.254568,27.417792],[49.263845,27.413886],[49.256847,27.400051],[49.25251147295347,27.39690157334795],[49.2324,27.4058],[49.23516738006397,27.3856376595339],[49.23472634398451,27.38516212869707],[49.2125,27.374],[49.1986,27.3886],[49.1876,27.3855],[49.1604,27.41],[49.1293,27.401],[49.1253,27.4158],[49.14329329469861,27.4330626025281],[49.150076,27.431342]]],"type":"Polygon"},"id":"physical-component:65fa2a0e8799933a869ec57df38cc12ea1ebd7c0c8b615d238c25df9000b3919","properties":{"administrative_assignment":null,"dateline_connected":false,"diagnostic_nearby_locations":[],"fragment_bindings":[{"feature_sha256":"e6ed0dc1e341058be178c82dea194f50b4d354786bb76b8d7a693e7e65b045b4","id":"physical-gap:1269:42:7d488bbc32c7cbca4106279c14ae0d4afa5f94353421c6f1d6ddb32d1588072e"}],"measured_fragment_area_sum_m2":31296426.33574597,"measured_fragment_count":1,"positive_area_input_overlap":false,"touches_blocked_tile":false,"touches_domain_boundary":false,"touches_reference_shore":true,"unmeasured_fragment_ids":[],"water_status":"unverified"},"type":"Feature"},{"geometry":{"coordinates":[[[48.667817,28.037665],[48.701996,28.023993],[48.712901,28.022895],[48.747081,28.023993],[48.75587,28.021715],[48.77589,28.011949],[48.787934,28.009711],[48.792003,28.007025],[48.791515,28.0008],[48.788259,27.993883],[48.784516,27.989244],[48.77832658430063,27.986737041144636],[48.7837,27.9998],[48.6946,28.0158],[48.6653,28.0314],[48.664684558042346,28.03934479618064],[48.667817,28.037665]]],"type":"Polygon"},"id":"physical-component:69622970a0788c74bf11800cc0d3d4dd8013bbaf8c90a4f26353560c603cd5f0","properties":{"administrative_assignment":null,"dateline_connected":false,"diagnostic_nearby_locations":[],"fragment_bindings":[{"feature_sha256":"ca1ee56192598922049f85eb0c4e5ebb90955abf0fbd4c8c0a6d87f146c24569","id":"physical-gap:1269:24:7e28608a07b0a2ae77fe9a38aeba38e1daaea04090227171d1e6d89047de07d5"}],"measured_fragment_area_sum_m2":17458662.761541232,"measured_fragment_count":1,"positive_area_input_overlap":false,"touches_blocked_tile":false,"touches_domain_boundary":false,"touches_reference_shore":true,"unmeasured_fragment_ids":[],"water_status":"unverified"},"type":"Feature"},{"geometry":{"coordinates":[[[50.00224531254309,26.096669791637943],[50.0,26.098166666666668],[49.9833,26.1093],[49.9749,26.1392],[49.9633,26.1616],[49.9127,26.1464],[49.9229,26.1644],[49.9536,26.1979],[49.8436,26.2171],[49.7611,26.3228],[49.6655,26.4124],[49.6424,26.4275],[49.59,26.4503],[49.5987,26.4672],[49.6248,26.501],[49.6959,26.6053],[49.7278,26.6466],[49.7561,26.6968],[49.7496,26.674],[49.7583,26.6627],[49.782,26.6483],[49.8174,26.6183],[49.8354,26.5818],[49.8706,26.5602],[49.8883,26.5406],[49.9165,26.5237],[49.8955,26.4932],[49.9293,26.5051],[49.9689,26.4852],[50.0,26.464075471698113],[50.0007,26.4636],[50.0165,26.4481],[50.0572,26.4559],[50.06462214445101,26.46039510156892],[50.076508,26.453762],[50.162283,26.427069],[50.19158,26.403551],[50.209239,26.369534],[50.21033365956496,26.362716441098268],[50.1886,26.3584],[50.1787,26.3702],[50.1796,26.3121],[50.1651,26.2978],[50.1798,26.286],[50.1969,26.2417],[50.1731,26.2133],[50.12,26.2185],[50.1214,26.1765],[50.1082,26.1504],[50.0744,26.1444],[50.077425209302326,26.129096],[50.076671,26.129096],[50.073578,26.131537],[50.071625,26.159247],[50.069591,26.165961],[50.065684,26.173733],[50.057872,26.18358],[50.045665,26.194525],[50.0324,26.201077],[50.021007,26.197659],[50.0,26.161076278107416],[49.994884,26.152167],[49.986827,26.145819],[49.975841,26.139594],[49.980968,26.126125],[49.991547,26.113105],[49.997325,26.108222],[49.999522,26.100898],[50.0,26.10015585837465],[50.00224531254309,26.096669791637943]]],"type":"Polygon"},"id":"physical-component:6b578822101fc2f757a9363b733e0c2dbab549c3fbd88b27dac52869a2d9a1d1","properties":{"administrative_assignment":null,"dateline_connected":false,"diagnostic_nearby_locations":[],"fragment_bindings":[{"feature_sha256":"41d531c5a02e2f93e3e6c4bc16cb8c2a39cbecd8bf7c38634514768d0c94025b","id":"physical-gap:1269:57:504a6408ba230e42d25da856f4292dfce087b78f5445ca66a496679f2f991410"},{"feature_sha256":"ed0bb04346715ef4e6e02b5e6ece2ee2c7591ab44b17a516988e084a2a04d1a9","id":"physical-gap:1270:43:11cf796f7e352dae0ecbce00b997bf0eb275ea53ae1899f9bfd6d5b12ba6a58b"},{"feature_sha256":"c32274a1a21590d2ec1b3b2252be310f8dcd453a4c612ff8a5c6e5fe5c030189","id":"physical-gap:1270:53:b0d1777ccaf97483a6fe17cfc5123ec00ba1f609e7370e2ffcb087eaa0d8ae57"}],"measured_fragment_area_sum_m2":1761763173.8033104,"measured_fragment_count":3,"positive_area_input_overlap":false,"touches_blocked_tile":false,"touches_domain_boundary":false,"touches_reference_shore":true,"unmeasured_fragment_ids":[],"water_status":"unverified"},"type":"Feature"},{"geometry":{"coordinates":[[[49.670421,27.311428],[49.66645123835012,27.312251530946188],[49.65277765585127,27.31561824456362],[49.640391,27.32099],[49.62379,27.324449],[49.61455233708287,27.323333993955405],[49.5808,27.329],[49.5694,27.3435],[49.5482,27.3543],[49.5283,27.3556],[49.4864,27.3446],[49.4687,27.3223],[49.46063209574598,27.299721073511304],[49.456228,27.290351],[49.453624,27.316392],[49.472179,27.342027],[49.501231,27.360541],[49.531261,27.365465],[49.542491,27.363715],[49.551036,27.360053],[49.56544,27.351752],[49.585134,27.344306],[49.638438,27.330634],[49.688813,27.317694],[49.670421,27.311428]]],"type":"Polygon"},"id":"physical-component:6dee6bba0631dccbacf4ae810e573dfa04cf722d5a2e62f860ad6b0c23b20677","properties":{"administrative_assignment":null,"dateline_connected":false,"diagnostic_nearby_locations":[],"fragment_bindings":[{"feature_sha256":"289d7eaec299e4fa85a812a424a2f33b571961026cb8f0f0f01c4954d0228e8f","id":"physical-gap:1269:0:d142997245935daf0f36a6e50e8c945f359525a59545c5ff8ea2f1d725903476"}],"measured_fragment_area_sum_m2":28730590.576143287,"measured_fragment_count":1,"positive_area_input_overlap":false,"touches_blocked_tile":false,"touches_domain_boundary":false,"touches_reference_shore":true,"unmeasured_fragment_ids":[],"water_status":"unverified"},"type":"Feature"},{"geometry":{"coordinates":[[[50.0949,26.117621],[50.08772689157966,26.124400107503174],[50.0934,26.1228],[50.09838379006222,26.115263536979082],[50.0949,26.117621]]],"type":"Polygon"},"id":"physical-component:77a6a76562c08b684892f1d53867a8829ab01002414166ea2fedfa09da17a9e7","properties":{"administrative_assignment":null,"dateline_connected":false,"diagnostic_nearby_locations":[],"fragment_bindings":[{"feature_sha256":"1b42a7e49a8e55b54ad7abae75a86fd7016d7754ac57ed6ce19ac326eca7d9d3","id":"physical-gap:1270:57:d731224406da743268e41be1a0791c64b094d1d31e56a8e2ce9738be67d6ffd1"}],"measured_fragment_area_sum_m2":229853.33744613343,"measured_fragment_count":1,"positive_area_input_overlap":false,"touches_blocked_tile":false,"touches_domain_boundary":false,"touches_reference_shore":true,"unmeasured_fragment_ids":[],"water_status":"unverified"},"type":"Feature"},{"geometry":{"coordinates":[[[49.322602,27.205715],[49.339529,27.207831],[49.33839,27.189602],[49.345225,27.182807],[49.355968,27.185004],[49.366873,27.194159],[49.361827,27.209133],[49.37086,27.218736],[49.386404,27.219631],[49.40089,27.207831],[49.407074,27.215277],[49.412364,27.204006],[49.409434,27.193915],[49.403982,27.183295],[49.40303192902265,27.179281472475406],[49.3865,27.1955],[49.3618,27.1888],[49.3663,27.1676],[49.3441,27.1595],[49.3186,27.1812],[49.31911693940468,27.217041132057624],[49.322602,27.205715]]],"type":"Polygon"},"id":"physical-component:78e330d5b93c451b1030ba14960997501acd321032ac15ac17460a886de1671f","properties":{"administrative_assignment":null,"dateline_connected":false,"diagnostic_nearby_locations":[],"fragment_bindings":[{"feature_sha256":"5332b0992e60e5f9f89899e4d8ebf4d142295c285ef96bec99f7019c939cae01","id":"physical-gap:1269:45:4da8889d01a062cacb03b6144399b12d7c07f83e27543a9fbd70723253776046"}],"measured_fragment_area_sum_m2":27053887.563395653,"measured_fragment_count":1,"positive_area_input_overlap":false,"touches_blocked_tile":false,"touches_domain_boundary":false,"touches_reference_shore":true,"unmeasured_fragment_ids":[],"water_status":"unverified"},"type":"Feature"},{"geometry":{"coordinates":[[[48.791352,27.714911],[48.796886,27.719713],[48.803966,27.736477],[48.81129,27.742825],[48.81129,27.725986363636363],[48.8106,27.7263],[48.795,27.7055],[48.7838,27.7121],[48.78496796703984,27.714451611489604],[48.791352,27.714911]]],"type":"Polygon"},"id":"physical-component:84a07ab3f985f69a22dd067a431a37505df75764ade93a1a76b6231cbd61741e","properties":{"administrative_assignment":null,"dateline_connected":false,"diagnostic_nearby_locations":[],"fragment_bindings":[{"feature_sha256":"4f15e3cd83df2020364ea9a86d6e1f36873d5993b75421abbb50d1719b4158ff","id":"physical-gap:1269:33:444070fffa1c353980b0000af05a843d224491869d3e38c8171ead7c9afe6517"}],"measured_fragment_area_sum_m2":3603045.4826409006,"measured_fragment_count":1,"positive_area_input_overlap":false,"touches_blocked_tile":false,"touches_domain_boundary":false,"touches_reference_shore":true,"unmeasured_fragment_ids":[],"water_status":"unverified"},"type":"Feature"},{"geometry":{"coordinates":[[[49.99830013064019,25.999190096121907],[50.0,25.998660438383],[50.006847,25.996527],[50.021007,26.004462],[50.028168,26.019477],[50.024099,26.035956],[50.033702,26.033352],[50.040538,26.028266],[50.052013,26.015448],[50.057384,26.01317],[50.061697,26.014146],[50.064626,26.013373],[50.065684,26.00552],[50.065766,25.999457],[50.066905,25.996283],[50.069835,25.995103],[50.075938,25.995022],[50.101329,25.989488],[50.111501,25.97602],[50.11166248751661,25.975468728926785],[50.1022,25.9872],[50.0673,25.9882],[50.057,26.0037],[50.0397,26.0089],[50.0176,25.9848],[50.0006,25.9886],[50.0,25.991362790697668],[49.99830013064019,25.999190096121907]]],"type":"Polygon"},"id":"physical-component:886dc7c3a6b31dbcdbfe5d2826aa8990a58855e014baf3d0f2966b1acc8a5ae8","properties":{"administrative_assignment":null,"dateline_connected":false,"diagnostic_nearby_locations":[],"fragment_bindings":[{"feature_sha256":"592126edcb6d89c676d75d512a79b03e72ad8041bc2599ab99be23b88c7b63b7","id":"physical-gap:1269:58:a66d2db4b567635b702eae845d20c34f86a6d4cd0542cd9bb531d328d4eda672"},{"feature_sha256":"3116f425a8d8d3aa7ba6e8b5f0687480c570d5b3edb2b759bb5fbd16dff2842c","id":"physical-gap:1270:0:d2ed37a0d6c9aaa3b1ecbb37052998d6e71785bf5c527f0a91d123d6a4b6c05d"}],"measured_fragment_area_sum_m2":15187302.641938856,"measured_fragment_count":2,"positive_area_input_overlap":false,"touches_blocked_tile":false,"touches_domain_boundary":false,"touches_reference_shore":true,"unmeasured_fragment_ids":[],"water_status":"unverified"},"type":"Feature"},{"geometry":{"coordinates":[[[48.838064,27.804023],[48.8369920773727,27.801573634404516],[48.84,27.8123],[48.85051158506845,27.815718401648276],[48.838064,27.804023]]],"type":"Polygon"},"id":"physical-component:8f13a483498cb5d043cb903c6039654465453cb584f6f650965e890d27064671","properties":{"administrative_assignment":null,"dateline_connected":false,"diagnostic_nearby_locations":[],"fragment_bindings":[{"feature_sha256":"fe31870f4821d6a27370ff596cda4c0e220a4f6b76f18fe2dbb45f103f239b59","id":"physical-gap:1269:31:346b17cf466abc25ffa57f9352487f398a9f3a1b30d5a86f59ee0a2483c134b4"}],"measured_fragment_area_sum_m2":461424.0588635437,"measured_fragment_count":1,"positive_area_input_overlap":false,"touches_blocked_tile":false,"touches_domain_boundary":false,"touches_reference_shore":true,"unmeasured_fragment_ids":[],"water_status":"unverified"},"type":"Feature"},{"geometry":{"coordinates":[[[49.64689683190231,27.0236157561337],[49.6463,27.0234],[49.6374,27.0343],[49.63590150417988,27.03906188671728],[49.64689683190231,27.0236157561337]]],"type":"Polygon"},"id":"physical-component:97b94d2984e43b721849aa7100efceb48f709e68d5cbdb10a1012c12419253a4","properties":{"administrative_assignment":null,"dateline_connected":false,"diagnostic_nearby_locations":[],"fragment_bindings":[{"feature_sha256":"37f28f65832688f60639d7bf775f29784a036debbf4fc576a1ffce390bfcdb3d","id":"physical-gap:1269:51:deabf32f4eb55bf89c380de636e4ef783ea87624f4ce6985cfce2c1d9e5db037"}],"measured_fragment_area_sum_m2":206912.59789377073,"measured_fragment_count":1,"positive_area_input_overlap":false,"touches_blocked_tile":false,"touches_domain_boundary":false,"touches_reference_shore":true,"unmeasured_fragment_ids":[],"water_status":"unverified"},"type":"Feature"},{"geometry":{"coordinates":[[[50.08420833650168,26.718785119244938],[50.0745,26.7242],[50.073386337939674,26.725804203682134],[50.08420833650168,26.718785119244938]]],"type":"Polygon"},"id":"physical-component:ab361fb0dfa35ac445dd24cc9b5a88e761bf64bda9cf772a98123649a8213683","properties":{"administrative_assignment":null,"dateline_connected":false,"diagnostic_nearby_locations":[],"fragment_bindings":[{"feature_sha256":"2a71a3c6e9c08aac5465a54e5e6dc55b4e59fc83ec98be6ce8a28ba2307c918c","id":"physical-gap:1270:62:6bc6f1ddc1a3f817104a37cb8f909337e9729d0cd1c725b8c28e20071bda0b8f"}],"measured_fragment_area_sum_m2":52606.31610506566,"measured_fragment_count":1,"positive_area_input_overlap":false,"touches_blocked_tile":false,"touches_domain_boundary":false,"touches_reference_shore":true,"unmeasured_fragment_ids":[],"water_status":"unverified"},"type":"Feature"},{"geometry":{"coordinates":[[[49.670177,26.990912],[49.699474,26.958238],[49.708263,26.952135],[49.736664,26.940904],[49.74586,26.934272],[49.760509,26.92064],[49.770844,26.91356],[49.833018,26.888007],[49.871837,26.862494],[49.894054,26.860297],[49.917247,26.861477],[49.942149,26.858344],[49.95170724915913,26.853388387306566],[49.8902,26.8566],[49.8709,26.8597],[49.8464,26.8769],[49.813,26.8857],[49.7822,26.8985],[49.7345,26.9329],[49.7324,26.9411],[49.7001,26.9549],[49.6862,26.9727],[49.6677,26.9851],[49.667679738851234,26.994420128432264],[49.670177,26.990912]]],"type":"Polygon"},"id":"physical-component:abd3c4a74a6eca9d23b1b64b576bf2d61e7d2f92304cefd8beed4854b9d1069b","properties":{"administrative_assignment":null,"dateline_connected":false,"diagnostic_nearby_locations":[],"fragment_bindings":[{"feature_sha256":"472c67bf9e564f0288b8131766af6e0d858bf88b8be91e9090d2e793ba3a15b9","id":"physical-gap:1269:52:85f5de822557c3b44b107729b3a6449753f044fa88c07e13daab3d8925e44551"}],"measured_fragment_area_sum_m2":17008884.472661093,"measured_fragment_count":1,"positive_area_input_overlap":false,"touches_blocked_tile":false,"touches_domain_boundary":false,"touches_reference_shore":true,"unmeasured_fragment_ids":[],"water_status":"unverified"},"type":"Feature"},{"geometry":{"coordinates":[[[50.001964,26.816962],[50.052013,26.755927],[50.05465449830859,26.75170035538944],[50.0099,26.8002],[50.0,26.816158208955223],[49.99656710947842,26.821691823527317],[50.0,26.818683245478393],[50.001964,26.816962]]],"type":"Polygon"},"id":"physical-component:acddef64944ccf0b4bbdeb5425fc81a980c8223613458bf4c9e2c504554f670b","properties":{"administrative_assignment":null,"dateline_connected":false,"diagnostic_nearby_locations":[],"fragment_bindings":[{"feature_sha256":"2da0d532b38dd1f0f6662406e844e30d1b154eb99ba7ccd9bd6b6ad88aba44d0","id":"physical-gap:1269:54:e1afc8d294c7dee44866314f0f1017397df082dd7488f203a188282b0dfef3aa"},{"feature_sha256":"c409e95c32ca71fade7ab2db9a12c6a3d083f34322ab0f1caac6127b7b32513a","id":"physical-gap:1270:61:215b9255a2861f1e0e9c6a7e308469329dd37a94f56b51e0d4432d5b09a25fc5"}],"measured_fragment_area_sum_m2":2581041.292931154,"measured_fragment_count":2,"positive_area_input_overlap":false,"touches_blocked_tile":false,"touches_domain_boundary":false,"touches_reference_shore":true,"unmeasured_fragment_ids":[],"water_status":"unverified"},"type":"Feature"},{"geometry":{"coordinates":[[[48.805024,27.756496],[48.823416,27.799628],[48.825531,27.811103],[48.82143955600059,27.826698127299117],[48.8278,27.8312],[48.8299,27.79],[48.8147,27.7713],[48.816487985337524,27.76356422670297],[48.805024,27.756496]]],"type":"Polygon"},"id":"physical-component:acde4895e191c7ca4c202e7b0c9d5e100ca09de0430622d51acb338d11f1bdc6","properties":{"administrative_assignment":null,"dateline_connected":false,"diagnostic_nearby_locations":[],"fragment_bindings":[{"feature_sha256":"a44d3250026e4c4b54dc062925f31fd195ea6a5f3c9a175e11b24e7f86373a19","id":"physical-gap:1269:32:cca7a13ad83808ef7a31eafc7eba172604f3f9c9ee90e970308ad14a0634d5cf"}],"measured_fragment_area_sum_m2":4707186.097031053,"measured_fragment_count":1,"positive_area_input_overlap":false,"touches_blocked_tile":false,"touches_domain_boundary":false,"touches_reference_shore":true,"unmeasured_fragment_ids":[],"water_status":"unverified"},"type":"Feature"},{"geometry":{"coordinates":[[[50.11671,26.67536],[50.09884959588175,26.685523508408867],[50.1013,26.6852],[50.1107,26.6931],[50.105863887845565,26.70473945637168],[50.141938,26.681342],[50.158458,26.664862],[50.161876,26.639228],[50.11671,26.67536]]],"type":"Polygon"},"id":"physical-component:ae3a75371c0b8208b441f60e765bb90fb41d0267e3cdffee02cc683cbe2860ed","properties":{"administrative_assignment":null,"dateline_connected":false,"diagnostic_nearby_locations":[],"fragment_bindings":[{"feature_sha256":"0839ad2ce408a5952eabfce9df2fbfe2f4aad937e133bb5d6557ea708215a061","id":"physical-gap:1270:58:1ff056db4c1a2c81a4b80a16532b7da6b1acb2fbf771f1ef40930cd0170b3f73"}],"measured_fragment_area_sum_m2":14185662.857430972,"measured_fragment_count":1,"positive_area_input_overlap":false,"touches_blocked_tile":false,"touches_domain_boundary":false,"touches_reference_shore":true,"unmeasured_fragment_ids":[],"water_status":"unverified"},"type":"Feature"},{"geometry":{"coordinates":[[[48.616466,28.110541],[48.648123,28.071967],[48.654796,28.061591],[48.653796583649445,28.053596351391015],[48.6387,28.0652],[48.6225,28.0853],[48.6085,28.1232],[48.60850008482166,28.123202109938802],[48.616466,28.110541]]],"type":"Polygon"},"id":"physical-component:b16f8098b8fc562894963e38876c325a21583442042fa4d64077355c3039799a","properties":{"administrative_assignment":null,"dateline_connected":false,"diagnostic_nearby_locations":[],"fragment_bindings":[{"feature_sha256":"47f89952ca2a98b3eedab87811ca569512b516578e409085271b954b9273ba11","id":"physical-gap:1269:23:c13afc48aa683a01774476000e8493399111ed6e02dcdabaddfe20eb78e33ba2"}],"measured_fragment_area_sum_m2":6890730.374854848,"measured_fragment_count":1,"positive_area_input_overlap":false,"touches_blocked_tile":false,"touches_domain_boundary":false,"touches_reference_shore":true,"unmeasured_fragment_ids":[],"water_status":"unverified"},"type":"Feature"},{"geometry":{"coordinates":[[[49.594249,27.090725],[49.612478,27.071967],[49.6197431802,27.061760944763158],[49.617,27.0614],[49.5933,27.0806],[49.58367468267186,27.09516137749641],[49.594249,27.090725]]],"type":"Polygon"},"id":"physical-component:b26007c698e36fcfc21f9efc572bb1a2c4c4b54d54f204eac16876e1868e65d2","properties":{"administrative_assignment":null,"dateline_connected":false,"diagnostic_nearby_locations":[],"fragment_bindings":[{"feature_sha256":"0c6ce12f5c4294e537c68e15489a14e83f8f55d39da28066bd06d1c9ee6630dd","id":"physical-gap:1269:50:cc1778a25d43d856801e7270aea6b72bef8b28219bd20f077cbadebe704260f1"}],"measured_fragment_area_sum_m2":2790863.721499868,"measured_fragment_count":1,"positive_area_input_overlap":false,"touches_blocked_tile":false,"touches_domain_boundary":false,"touches_reference_shore":true,"unmeasured_fragment_ids":[],"water_status":"unverified"},"type":"Feature"},{"geometry":{"coordinates":[[[50.141368,26.035956],[50.125824,26.046454],[50.12266196438011,26.05673169520329],[50.14,26.0523],[50.14534458824358,26.047957522052087],[50.141368,26.035956]]],"type":"Polygon"},"id":"physical-component:b4801d26271005c4a08511d4612bef3d7db3cf0e9fdfe0c7874357af71b11bbb","properties":{"administrative_assignment":null,"dateline_connected":false,"diagnostic_nearby_locations":[],"fragment_bindings":[{"feature_sha256":"d4412921d609c734e44bb39d6ee9a06e916b5ddcd0463965dd5bb407581c07c4","id":"physical-gap:1270:56:0a21e1185985e386d636711119fa7e985dd756cb6f71e80359cb610fd665b23d"}],"measured_fragment_area_sum_m2":2690280.0660417224,"measured_fragment_count":1,"positive_area_input_overlap":false,"touches_blocked_tile":false,"touches_domain_boundary":false,"touches_reference_shore":true,"unmeasured_fragment_ids":[],"water_status":"unverified"},"type":"Feature"},{"geometry":{"coordinates":[[[48.896739,27.572008],[48.914317,27.571519],[48.921641,27.578843],[48.917247,27.585842],[48.909516,27.592678],[48.907481,27.599433],[48.915294,27.608629],[48.926036,27.613837],[48.949067,27.61872],[48.96295969624262,27.61988218915043],[48.9374,27.6061],[48.9211,27.5717],[48.8945,27.5692],[48.895406502489344,27.5758317813694],[48.896739,27.572008]]],"type":"Polygon"},"id":"physical-component:be111497aaedcab52be3af8db70084e3dac789c31516e45c96d1dc043a973c70","properties":{"administrative_assignment":null,"dateline_connected":false,"diagnostic_nearby_locations":[],"fragment_bindings":[{"feature_sha256":"06c1ba4383c061b25ec8ed8e4f9d3f58d6a0fd9b4a74239176f562b82cf12ac9","id":"physical-gap:1269:37:6d566be12e021cb6311d9b0ef44c4155d68857c21ac831c20edd40d7a1a3fbec"}],"measured_fragment_area_sum_m2":9419049.65304397,"measured_fragment_count":1,"positive_area_input_overlap":false,"touches_blocked_tile":false,"touches_domain_boundary":false,"touches_reference_shore":true,"unmeasured_fragment_ids":[],"water_status":"unverified"},"type":"Feature"},{"geometry":{"coordinates":[[[48.773285,27.929755],[48.796235,27.913642],[48.814708,27.906684],[48.815196,27.902248],[48.815300854030866,27.902108199293785],[48.7942,27.904],[48.7763,27.9223],[48.76977908238092,27.9329474357999],[48.773285,27.929755]]],"type":"Polygon"},"id":"physical-component:d28e184d453d05ccf0ab526fbc8bffcfb51b18ef9b8c8d499df6593a1eaa4869","properties":{"administrative_assignment":null,"dateline_connected":false,"diagnostic_nearby_locations":[],"fragment_bindings":[{"feature_sha256":"37377c3a7ad5e4f1c75dd716c04a3843435bdd6b2c905c3e99813848a6384fe4","id":"physical-gap:1269:27:3ce9da1798d1e91911a448713e40a8710b25b08a41926857aaea9a92a39101e5"}],"measured_fragment_area_sum_m2":3469990.8234640835,"measured_fragment_count":1,"positive_area_input_overlap":false,"touches_blocked_tile":false,"touches_domain_boundary":false,"touches_reference_shore":true,"unmeasured_fragment_ids":[],"water_status":"unverified"},"type":"Feature"},{"geometry":{"coordinates":[[[50.182384,26.160102],[50.18195063728355,26.173732099343454],[50.1843,26.1738],[50.19250467515725,26.16591834354973],[50.182384,26.160102]]],"type":"Polygon"},"id":"physical-component:d66884dbdcaad41a0817de64f38b54cfae996f3fc24179605e64f7dc65404511","properties":{"administrative_assignment":null,"dateline_connected":false,"diagnostic_nearby_locations":[],"fragment_bindings":[{"feature_sha256":"38b00dbecd59d4232ba519206de244f73471c70de712d13a07ad51feb7eeed45","id":"physical-gap:1270:54:58fe652bbff9731c8d74e7ea5f8d26564d828d1cd7fc3edf17df75e025002bbb"}],"measured_fragment_area_sum_m2":883562.8836179778,"measured_fragment_count":1,"positive_area_input_overlap":false,"touches_blocked_tile":false,"touches_domain_boundary":false,"touches_reference_shore":true,"unmeasured_fragment_ids":[],"water_status":"unverified"},"type":"Feature"},{"geometry":{"coordinates":[[[49.223399,27.331285],[49.23406,27.333889],[49.245779,27.339423],[49.257335,27.34691],[49.267426,27.355211],[49.278819,27.358791],[49.28885924903673,27.356281501926535],[49.2898,27.3544],[49.29246866682477,27.355300675053357],[49.312755,27.344957],[49.30864999035512,27.334842680568418],[49.2849,27.3416],[49.2598,27.3319],[49.2405,27.3135],[49.2225,27.3081],[49.2174,27.3285],[49.22377406745258,27.3328873451297],[49.223399,27.331285]]],"type":"Polygon"},"id":"physical-component:dc9870bc1da80c683597ed9cd2f1e66f4cad937b98745d024136834c2a3cf476","properties":{"administrative_assignment":null,"dateline_connected":false,"diagnostic_nearby_locations":[],"fragment_bindings":[{"feature_sha256":"5df553b66b3750778a63befd41abd216ef3624f99736d45d745def07cc85e8e3","id":"physical-gap:1269:43:8766b5527291cde6d767c1d985dbfda3ead44a929cdfa317acd3e1a687abba69"}],"measured_fragment_area_sum_m2":18611862.13921681,"measured_fragment_count":1,"positive_area_input_overlap":false,"touches_blocked_tile":false,"touches_domain_boundary":false,"touches_reference_shore":true,"unmeasured_fragment_ids":[],"water_status":"unverified"},"type":"Feature"},{"geometry":{"coordinates":[[[48.50766,28.449164],[48.50774386400873,28.431955414109943],[48.5001,28.4387],[48.5039,28.4624],[48.4961,28.4793],[48.499406721365865,28.48877502852911],[48.50766,28.449164]]],"type":"Polygon"},"id":"physical-component:dcb84a35f808854da4774b6ece7fca32e037828f10b45633ab9d7a7a6a699b7a","properties":{"administrative_assignment":null,"dateline_connected":false,"diagnostic_nearby_locations":[],"fragment_bindings":[{"feature_sha256":"264647a4a1fb43937e75139d25f037a1562c36d10ea27eb22ed4c7ce8465c228","id":"physical-gap:1269:19:6405b05f347b534ede8f0c73b59b28c965114c6250317ada5a8d69c6cdff550e"}],"measured_fragment_area_sum_m2":2387357.8159849625,"measured_fragment_count":1,"positive_area_input_overlap":false,"touches_blocked_tile":false,"touches_domain_boundary":false,"touches_reference_shore":true,"unmeasured_fragment_ids":[],"water_status":"unverified"},"type":"Feature"},{"geometry":{"coordinates":[[[49.017345,27.585191],[49.05421,27.568264],[49.0616442832806,27.55918755091947],[49.0523,27.5588],[49.0278,27.5725],[49.013160600687065,27.58863971042265],[49.017345,27.585191]]],"type":"Polygon"},"id":"physical-component:e4531a4ee540d99c45fe80b1bfb033bc9906e5acc708837ba4856a5dc9155fd7","properties":{"administrative_assignment":null,"dateline_connected":false,"diagnostic_nearby_locations":[],"fragment_bindings":[{"feature_sha256":"fef0e6134570e43d10f4ec9cbcb85bb144b643593fa587e5402d70685429e193","id":"physical-gap:1269:38:b8262b93878b0188041b4e547cb8ce8b7056b2ae37b46511e6d47c81672e01de"}],"measured_fragment_area_sum_m2":3576385.6747809006,"measured_fragment_count":1,"positive_area_input_overlap":false,"touches_blocked_tile":false,"touches_domain_boundary":false,"touches_reference_shore":true,"unmeasured_fragment_ids":[],"water_status":"unverified"},"type":"Feature"},{"geometry":{"coordinates":[[[49.18922,27.441148],[49.181895,27.441148],[49.18003865476739,27.445810858980266],[49.1817,27.4476],[49.1901,27.4456],[49.19090116989318,27.442599007688248],[49.18922,27.441148]]],"type":"Polygon"},"id":"physical-component:eda3e6f5d597891286c4f8a28347644d21f95d83be9fe7336a794de118cd4ffb","properties":{"administrative_assignment":null,"dateline_connected":false,"diagnostic_nearby_locations":[],"fragment_bindings":[{"feature_sha256":"a5038233bae503fd4c857eb238faf1da6a240f58275af9daa626cae9e325b42e","id":"physical-gap:1269:41:0d17e440ed22b513abc4256ee9f526b87e905ef1613dcae07444f93163f10ea2"}],"measured_fragment_area_sum_m2":567977.8729083148,"measured_fragment_count":1,"positive_area_input_overlap":false,"touches_blocked_tile":false,"touches_domain_boundary":false,"touches_reference_shore":true,"unmeasured_fragment_ids":[],"water_status":"unverified"},"type":"Feature"},{"geometry":{"coordinates":[[[49.239757,27.545111],[49.255138,27.532375],[49.278087,27.503241],[49.28533,27.497626],[49.292491,27.494127],[49.299083,27.489895],[49.305349,27.482123],[49.307872,27.474514],[49.309825,27.456692],[49.312755,27.448635],[49.300141,27.448065],[49.292654,27.452948],[49.29165907492795,27.456327940613406],[49.3009,27.4769],[49.2765,27.4863],[49.2649,27.5158],[49.2553,27.5249],[49.2234,27.5338],[49.22227147912068,27.54972950625812],[49.239757,27.545111]]],"type":"Polygon"},"id":"physical-component:f4f3ffa77595101457269a3a68c03ec81033dabe1177f683ec42b8b9427d5e47","properties":{"administrative_assignment":null,"dateline_connected":false,"diagnostic_nearby_locations":[],"fragment_bindings":[{"feature_sha256":"040cc613c6b88d4960e3d043477f9b7b8c091aa41f88fe36c1feee0aed1c88e1","id":"physical-gap:1269:40:016e3d03ff081084b7c154daa8f56089111e190165fc5a5a50181e22608358d4"}],"measured_fragment_area_sum_m2":15583072.54170257,"measured_fragment_count":1,"positive_area_input_overlap":false,"touches_blocked_tile":false,"touches_domain_boundary":false,"touches_reference_shore":true,"unmeasured_fragment_ids":[],"water_status":"unverified"},"type":"Feature"},{"geometry":{"coordinates":[[[49.465668,27.146959],[49.481293,27.144436],[49.50376420960177,27.13573878189334],[49.5199,27.123],[49.514,27.1129],[49.4916,27.1289],[49.4737,27.1307],[49.4538,27.119],[49.4543,27.1056],[49.439,27.099],[49.4343,27.1192],[49.4471,27.1381],[49.44224424301503,27.140372907524878],[49.465668,27.146959]]],"type":"Polygon"},"id":"physical-component:f962632b829e3107e85aff5f3394cad49ec25f5bc242b1785ff09f8cfc587848","properties":{"administrative_assignment":null,"dateline_connected":false,"diagnostic_nearby_locations":[],"fragment_bindings":[{"feature_sha256":"8a61eb36c6f818f5df298da55b9d1b2dff3a9f36601b9b7835cfe867ad1fb3e3","id":"physical-gap:1269:47:493538ae1bdb0f9feb4ba497998414a69d9e0cd368cd6f9dbf1b8233a42e7fbb"}],"measured_fragment_area_sum_m2":17729998.522739388,"measured_fragment_count":1,"positive_area_input_overlap":false,"touches_blocked_tile":false,"touches_domain_boundary":false,"touches_reference_shore":true,"unmeasured_fragment_ids":[],"water_status":"unverified"},"type":"Feature"}],"type":"FeatureCollection"}

