{"geometry":{"coordinates":[[[72.5209,28.8773],[72.6154,28.9294],[72.6456,28.944],[72.6743,28.9652],[72.7575,28.9996],[72.8497,29.0247],[72.8724,29.0379],[72.8951,29.0683],[72.9057,29.1093],[72.9223,29.1449],[72.9979,29.2373],[73.0191,29.2611],[73.0433,29.2782],[73.0659,29.3178],[73.0901,29.3731],[73.1249,29.435],[73.1446,29.4561],[73.1944,29.5311],[73.205,29.5863],[73.2247,29.6087],[73.2262,29.6297],[73.2353,29.6573],[73.2489,29.6823],[73.264,29.7374],[73.2776,29.761],[73.2882,29.8253],[73.3063,29.8607],[73.3214,29.9433],[73.3245,29.9486],[73.3789,29.9774],[73.4364,29.9879],[73.4863,30.0088],[73.5165,30.0258],[73.5755,30.035],[73.6027,30.0481],[73.6707,30.0585],[73.7266,30.0716],[73.7599,30.0899],[73.8249,30.1357],[73.8491,30.1566],[73.8854,30.1815],[73.8975,30.1998],[73.9081,30.2403],[73.9005,30.2586],[73.893,30.3264],[73.8748,30.3434],[73.8174,30.3695],[73.8158,30.3851],[73.7736,30.3745],[73.7636,30.3627],[73.7204,30.326],[73.6973,30.3101],[73.6748,30.303],[73.6536,30.3096],[73.6299,30.3254],[73.6124,30.3279],[73.5814,30.3163],[73.5624,30.3004],[73.5281,30.2877],[73.485,30.257],[73.4607,30.2468],[73.4595,30.234],[73.4211,30.2059],[73.3731,30.1982],[73.3382,30.1727],[73.2974,30.1721],[73.2749,30.1614],[73.2341,30.1302],[73.2081,30.1235],[73.188,30.1072],[73.1513,30.1021],[73.1229,30.0785],[73.0496,30.0765],[73.033,30.0734],[73.02,30.0396],[72.9981,30.0247],[72.962,30.0253],[72.9119,30.0419],[72.894,30.0406],[72.8792,30.0294],[72.8348,30.0299],[72.8011,30.036],[72.7745,30.0212],[72.7544,29.9853],[72.7396,29.9766],[72.7136,29.972],[72.7023,29.9489],[72.6792,29.9325],[72.626,29.9212],[72.6035,29.8966],[72.6106,29.8894],[72.6029,29.8504],[72.6071,29.8315],[72.6177,29.8217],[72.6301,29.7955],[72.6467,29.7817],[72.6733,29.7714],[72.6822,29.7524],[72.707,29.7319],[72.713,29.6918],[72.7366,29.6764],[72.7408,29.6635],[72.7627,29.6558],[72.7792,29.6327],[72.7857,29.5951],[72.768,29.5643],[72.7632,29.538],[72.749,29.5293],[72.7419,29.5097],[72.7165,29.4942],[72.7082,29.484],[72.7041,29.4551],[72.6834,29.4376],[72.6911,29.4154],[72.7419,29.4139],[72.7573,29.4082],[72.7674,29.3943],[72.7934,29.3794],[72.7999,29.3536],[72.791,29.3226],[72.7662,29.2999],[72.7774,29.252],[72.7658,29.2444],[72.7239,29.2457],[72.6979,29.2709],[72.6532,29.2721],[72.62,29.2696],[72.5463,29.257],[72.5333,29.2444],[72.4972,29.2394],[72.4293,29.2394],[72.3629,29.2343],[72.3138,29.1877],[72.3094,29.1726],[72.3138,29.1448],[72.3268,29.1335],[72.3369,29.1095],[72.3354,29.0893],[72.3441,29.0792],[72.3672,29.0691],[72.3845,29.0729],[72.3975,29.0931],[72.4337,29.0918],[72.4553,29.0729],[72.4784,29.0615],[72.4813,29.0426],[72.4799,29.0022],[72.4856,28.9719],[72.5044,28.9719],[72.5116,28.9605],[72.5174,28.9264],[72.5209,28.8773]]],"type":"Polygon"},"id":"gb:PAK:ADM2:60131773B87869837926518","properties":{"id":"gb:PAK:ADM2:60131773B87869837926518","metadata":{"administrative_level":"ADM2","coverage_version":1,"framework_match":{"id":"PAK-1113","overlap":0.999708,"source":"Natural Earth"},"framework_reference":"Modern geographic framework; historical attributes require dated evidence","geographic_area_code":"PAK","geographic_match":"largest source overlap","geographic_overlap":0.99982,"geographic_region_code":40,"granularity_version":3,"hierarchy_overlap":0.999826,"hierarchy_source":"gb:PAK:ADM1","hierarchy_version":4,"license":"Public Domain","original_id":"60131773B87869837926518","parent_match":"Named source administrative unit grouped within this geographic area","parent_source_level":"ADM1","reference_owner_id":"owner:Q843","reference_polity":"Pakistan","reference_polity_evidence":{"classification":"Sovereign country","note":null,"reference_territory":"Pakistan","source":"Natural Earth pinned administrative and sovereignty reference; dates vary","source_url":"https://github.com/nvkelso/natural-earth-vector/tree/ca96624a56bd078437bca8184e78163e5039ad19","uncertainty":false},"reference_polity_status":"reference","reference_version":3,"reference_year":"2019","regional_match":{"method":"reference-territory-constrained overlap","overlap":0.999708,"reference_iso":"PAK","source_id":"PAK-1113"},"remote_version":1,"representative_point":[73.00307693686402,29.6312],"selection_reason":"Districts; tehsils are subordinate subdivisions.","semantic_review":{"continent":"Asia","decision_index":1864,"evidence_file":"geographic-decisions","status":"open"},"semantic_version":1,"source_id":"gb:PAK:ADM2","source_name":"geoBoundaries gbOpen","source_role":"Districts","source_url":"https://github.com/wmgeolab/geoBoundaries/raw/9469f09/releaseData/gbOpen/PAK/ADM2/geoBoundaries-PAK-ADM2.geojson","topology_version":1},"name":"Bahawalnagar","parent_id":"framework:province:punjab:8bcff4f8f836","reference_owner":"Pakistan"},"type":"Feature"}
