{"geometry":{"coordinates":[[[73.2998,30.9768],[73.2911,30.9647],[73.2677,30.9514],[73.2641,30.9416],[73.2418,30.9324],[73.228,30.9075],[73.217,30.9051],[73.2059,30.8823],[73.2182,30.8817],[73.2377,30.8446],[73.2556,30.8329],[73.2597,30.7962],[73.2804,30.7843],[73.297,30.763],[73.3149,30.7594],[73.3356,30.744],[73.3425,30.7251],[73.3218,30.6978],[73.3163,30.6717],[73.3177,30.6527],[73.3411,30.6206],[73.3301,30.5981],[73.3163,30.591],[73.308,30.5685],[73.3156,30.558],[73.3201,30.528],[73.3277,30.5163],[73.355,30.5176],[73.3656,30.5359],[73.4004,30.5619],[73.4125,30.5893],[73.4595,30.5893],[73.4625,30.5711],[73.4913,30.5659],[73.4958,30.5528],[73.5428,30.5437],[73.5549,30.5241],[73.5882,30.5215],[73.6003,30.5032],[73.6064,30.4641],[73.6079,30.4014],[73.6124,30.3279],[73.6299,30.3254],[73.6536,30.3096],[73.6748,30.303],[73.6973,30.3101],[73.7204,30.326],[73.7636,30.3627],[73.7736,30.3745],[73.8158,30.3851],[73.8143,30.3995],[73.837,30.4125],[73.8612,30.453],[73.9005,30.4764],[73.9187,30.4947],[73.9338,30.5194],[73.961,30.535],[74.0109,30.5441],[74.0381,30.565],[74.0411,30.5988],[74.0487,30.6222],[74.0714,30.6444],[74.0986,30.6509],[74.1384,30.6509],[74.1215,30.6769],[74.1126,30.6792],[74.1011,30.7232],[74.0808,30.7323],[74.0738,30.7513],[74.0605,30.7566],[74.0349,30.7945],[74.0031,30.8029],[73.989,30.8218],[73.9669,30.8211],[73.9528,30.8431],[73.9201,30.8446],[73.8363,30.8438],[73.8195,30.8499],[73.801,30.8885],[73.7842,30.8946],[73.7815,30.912],[73.7533,30.915],[73.7462,30.9347],[73.7224,30.9491],[73.7215,30.9597],[73.6977,30.9711],[73.6932,31.0097],[73.6703,31.021],[73.6553,31.0536],[73.6341,31.0641],[73.6385,31.0831],[73.6297,31.1055],[73.5944,31.1042],[73.5855,31.0921],[73.5564,31.0838],[73.4884,31.0831],[73.461,31.0641],[73.4107,31.0513],[73.3975,31.0286],[73.3807,31.0256],[73.3714,31.002],[73.3595,30.9884],[73.2998,30.9768]]],"type":"Polygon"},"id":"gb:PAK:ADM2:60131773B44161758981040","properties":{"id":"gb:PAK:ADM2:60131773B44161758981040","metadata":{"administrative_level":"ADM2","coverage_version":1,"framework_match":{"id":"PAK-1113","overlap":0.999882,"source":"Natural Earth"},"framework_reference":"Modern geographic framework; historical attributes require dated evidence","geographic_area_code":"PAK","geographic_match":"largest source overlap","geographic_overlap":1.0,"geographic_region_code":40,"granularity_version":3,"hierarchy_overlap":0.99983,"hierarchy_source":"gb:PAK:ADM1","hierarchy_version":4,"license":"Public Domain","original_id":"60131773B44161758981040","parent_match":"Named source administrative unit grouped within this geographic area","parent_source_level":"ADM1","reference_owner_id":"owner:Q843","reference_polity":"Pakistan","reference_polity_evidence":{"classification":"Sovereign country","note":null,"reference_territory":"Pakistan","source":"Natural Earth pinned administrative and sovereignty reference; dates vary","source_url":"https://github.com/nvkelso/natural-earth-vector/tree/ca96624a56bd078437bca8184e78163e5039ad19","uncertainty":false},"reference_polity_status":"reference","reference_version":3,"reference_year":"2019","regional_match":{"method":"reference-territory-constrained overlap","overlap":0.999882,"reference_iso":"PAK","source_id":"PAK-1113"},"remote_version":1,"representative_point":[73.71792449425575,30.7105],"search_aliases":["Okara"],"selection_reason":"Districts; tehsils are subordinate subdivisions.","semantic_review":{"continent":"Asia","decision_index":1864,"evidence_file":"geographic-decisions","status":"open"},"semantic_version":1,"source_id":"gb:PAK:ADM2","source_name":"geoBoundaries gbOpen","source_role":"Districts","source_url":"https://github.com/wmgeolab/geoBoundaries/raw/9469f09/releaseData/gbOpen/PAK/ADM2/geoBoundaries-PAK-ADM2.geojson","topology_version":1},"name":"Okara","parent_id":"framework:province:punjab:8bcff4f8f836","reference_owner":"Pakistan"},"type":"Feature"}
