{"geometry":{"coordinates":[[[74.4711,30.7427],[74.4754,30.6973],[74.4838,30.6733],[74.5032,30.6672],[74.4798,30.6558],[74.4939,30.6384],[74.4643,30.6267],[74.4529,30.6304],[74.4332,30.6183],[74.4358,30.5996],[74.3805,30.5909],[74.3922,30.5614],[74.4047,30.5569],[74.4,30.5273],[74.3746,30.5143],[74.382,30.4981],[74.3769,30.4834],[74.3479,30.4828],[74.3473,30.4652],[74.3298,30.4459],[74.3104,30.4448],[74.2632,30.4198],[74.3553,30.4019],[74.356,30.3807],[74.318,30.3872],[74.31,30.3685],[74.32,30.3541],[74.3226,30.3286],[74.3054,30.3055],[74.2995,30.2632],[74.284,30.2728],[74.2623,30.2463],[74.288,30.2312],[74.3223,30.2419],[74.3581,30.2394],[74.3464,30.1965],[74.3472,30.1828],[74.3378,30.1614],[74.3754,30.1504],[74.3829,30.1276],[74.4018,30.1127],[74.396,30.1054],[74.3744,30.1073],[74.368,30.0848],[74.3894,30.0725],[74.3912,30.0593],[74.4277,30.0229],[74.4513,30.0271],[74.4656,30.0027],[74.4275,29.9969],[74.4526,29.9467],[74.4144,29.9471],[74.3528,29.9519],[74.3005,29.9563],[74.2624,29.9554],[74.2343,29.9599],[74.1964,29.9607],[74.0795,29.9695],[74.014,29.9686],[73.9431,29.9715],[73.9013,29.9712],[73.8913,29.9975],[73.9087,30.0549],[73.9286,30.0693],[73.9685,30.1207],[73.974,30.173],[73.9686,30.187],[73.9461,30.1776],[73.9726,30.1983],[73.9622,30.2638],[73.9309,30.3201],[73.8832,30.3653],[73.9137,30.3825],[73.922,30.398],[73.9364,30.4019],[73.9495,30.4177],[73.9646,30.4246],[73.9682,30.4399],[73.938,30.4362],[73.9376,30.4522],[73.928,30.4659],[73.9346,30.4902],[73.9478,30.4838],[73.9502,30.4601],[73.9642,30.4564],[73.9697,30.4773],[73.9637,30.4848],[73.9928,30.5142],[74.0501,30.5372],[74.0574,30.5186],[74.0723,30.5229],[74.0909,30.5494],[74.0735,30.5546],[74.102,30.5792],[74.0953,30.6011],[74.1051,30.6192],[74.118,30.6079],[74.1285,30.632],[74.1488,30.6314],[74.1632,30.6484],[74.1693,30.6487],[74.1774,30.6551],[74.1815,30.6613],[74.1935,30.6651],[74.2192,30.6935],[74.2325,30.7244],[74.2485,30.7259],[74.2612,30.7231],[74.2749,30.7372],[74.2736,30.7534],[74.2608,30.7698],[74.2631,30.7766],[74.2742,30.7735],[74.2897,30.775],[74.3018,30.7794],[74.3068,30.789],[74.3012,30.7897],[74.2967,30.7999],[74.3014,30.8038],[74.3208,30.7963],[74.3263,30.796],[74.3312,30.8007],[74.3421,30.786],[74.3827,30.7952],[74.3867,30.8021],[74.4335,30.7788],[74.4443,30.7873],[74.4608,30.7744],[74.4786,30.769],[74.4761,30.7492],[74.4711,30.7427]]],"type":"Polygon"},"id":"gb:IND:ADM2:76128533B7291413308870","properties":{"id":"gb:IND:ADM2:76128533B7291413308870","metadata":{"administrative_level":"ADM2","coverage_version":1,"framework_match":{"id":"IND-3249","overlap":0.97823,"source":"Natural Earth"},"framework_reference":"Modern geographic framework; historical attributes require dated evidence","geographic_area_code":"IND","geographic_match":"largest source overlap","geographic_overlap":0.96612,"geographic_region_code":40,"granularity_version":3,"hierarchy_overlap":0.996206,"hierarchy_source":"gb:IND:ADM1","hierarchy_version":4,"license":"Open Data Commons Open Database License 1.0","original_geometry_sha256":"7963ce3bb29887baf0663dd4e7df0eda45face117091d6e904373bbe31ac9dfd","original_id":"76128533B7291413308870","parent_match":"Named source administrative unit grouped within this geographic area","parent_source_level":"ADM1","reference_owner_id":"owner:Q668","reference_polity":"India","reference_polity_evidence":{"classification":"Sovereign country","note":null,"reference_territory":"India","source":"Natural Earth pinned administrative and sovereignty reference; dates vary","source_url":"https://github.com/nvkelso/natural-earth-vector/tree/ca96624a56bd078437bca8184e78163e5039ad19","uncertainty":false},"reference_polity_status":"reference","reference_version":3,"reference_year":"2021","regional_match":{"method":"reference-territory-constrained overlap","overlap":0.97823,"reference_iso":"IND","source_id":"IND-3249"},"remote_version":1,"representative_point":[74.1061504523691,30.3746],"search_aliases":["Abohar"],"selection_reason":"Named District territories at the reviewed country-specific district tier; subordinate wards, villages and electoral divisions are not substituted based on area.","semantic_review":{"continent":"Asia","decision_index":1863,"evidence_file":"geographic-decisions","status":"open"},"semantic_version":1,"source_id":"gb:IND:ADM2","source_name":"geoBoundaries gbOpen","source_role":"District","source_url":"https://github.com/wmgeolab/geoBoundaries/raw/9469f09/releaseData/gbOpen/IND/ADM2/geoBoundaries-IND-ADM2.geojson","topology_conflicts":1,"topology_note":"Shared display coverage reconciled against Natural Earth reference borders, then finer source geometry. Original source boundaries may differ.","topology_reconciled":true,"topology_version":1},"name":"Fazilka","parent_id":"framework:province:punjab:60bf4662502e","reference_owner":"India"},"type":"Feature"}
