{"type":"Feature","properties":{"shapeName":"Pokaran","shapeISO":"","shapeID":"7132399B27106528401514","shapeGroup":"IND","shapeType":"ADM3"},"geometry":{"type":"Polygon","coordinates":[[[71.43354053626678,26.846142688534314],[71.4285704959317,26.83993523142584],[71.41858588802836,26.823306880108476],[71.41448374203111,26.804761727271966],[71.41466081584406,26.79884698599966],[71.41715373385779,26.79213379333993],[71.42392311256162,26.790377611637496],[71.43513800111793,26.766241897045973],[71.43726870098982,26.748178229541736],[71.4458118179611,26.736829872600595],[71.44598758056247,26.731554522323393],[71.439754465796,26.72883569730965],[71.41375764110234,26.723872034067142],[71.40610207854814,26.729463932214742],[71.40200665138593,26.726904237740428],[71.3932823183244,26.718107358168083],[71.39630899836163,26.710275722746474],[71.38776393705609,26.7075533211289],[71.38705217851526,26.703716196345454],[71.38825133633014,26.70311583592712],[71.39470696405522,26.69988381188847],[71.40040328968013,26.69956703738893],[71.45523048340016,26.699903501645338],[71.46074818028433,26.69878499503153],[71.47303255790627,26.70150299356834],[71.48335081608735,26.6928700792908],[71.47878214677871,26.67435768965572],[71.490347103636,26.67121997572133],[71.51879137392285,26.668052299074418],[71.52810553903947,26.668220435424814],[71.53698275684883,26.675421361906388],[71.54021867225396,26.683322859362534],[71.54022717264598,26.690172121246462],[71.54463274360631,26.694648288088104],[71.55138259533055,26.69701555012756],[71.63862614178305,26.70314767912214],[71.64404497619478,26.70729255910436],[71.65282977607336,26.709909275093025],[71.66913833656503,26.71176439840832],[71.68086030695764,26.718316693360748],[71.69091457185004,26.726184384401847],[71.7049602995782,26.7406138213708],[71.72968625541642,26.759151657323173],[71.75000778513123,26.771124750806678],[71.79457968580391,26.77834918017055],[71.81029601484926,26.786570190561918],[71.8126312016687,26.795948539393635],[71.81701847772064,26.794436395023638],[71.8230635559384,26.78879104567028],[71.82554385376591,26.780902305996676],[71.835335081349,26.77074271610354],[71.85199822204038,26.809539113939024],[71.86230353717855,26.838104959076645],[71.87195450829398,26.837058974691956],[71.88144393508958,26.833772678366472],[71.89026464759547,26.805419447349664],[71.8944253916186,26.798387874900584],[71.90082529105439,26.792352123551723],[71.94182288571767,26.77667919309033],[71.94906445526044,26.77214266375296],[71.97136761862077,26.775274665193706],[71.98672862642502,26.76969570469305],[71.997766392605,26.76164556908782],[72.04321145404543,26.742564523733847],[72.04755019908248,26.74874725488195],[72.06270720557313,26.75951700510575],[72.05913500038002,26.7687570004353],[72.06077599961276,26.78615399960745],[72.04544100020206,26.78907000008047],[72.05417600012237,26.80309900041857],[72.0830539999422,26.807814000216013],[72.08884399985078,26.81370200014726],[72.09922800027203,26.83006300010743],[72.088875000381,26.84413699982275],[72.0875779999248,26.849236000241262],[72.10188300040022,26.861667999778433],[72.1024929997522,26.86683099955104],[72.10049400019801,26.871634999855416],[72.10015554664125,26.874106409683122],[72.0992890003871,26.88043400002914],[72.10360699986319,26.886899999635318],[72.07536299960282,26.913445999833073],[72.03991699996965,26.93576000002406],[72.04988900027718,26.9686949998744],[72.04283100035042,26.997403999994674],[72.04409800032249,27.00012000023787],[72.04206800023809,27.01119800028755],[72.04424299981463,27.020893000411718],[72.05227699978377,27.026405000090733],[72.05191800031554,27.028593000266824],[72.048217999661,27.03130700041777],[72.05603000018442,27.035728000147117],[72.06580400035438,27.034919999758245],[72.07207499996133,27.036475999567756],[72.08028399990673,27.043997000161482],[72.05946400026346,27.050081000138107],[72.06483499973552,27.05755200022469],[72.06093599979658,27.058468000198104],[72.06608599986907,27.06101399979633],[72.07284094625271,27.06945263982749],[72.0788120003736,27.07691199998885],[72.08734900015628,27.104789999558875],[72.07677499996635,27.116597999997737],[72.07146499971003,27.11741399985624],[72.04040577610573,27.12277010295793],[72.00000000009999,27.129737999808867],[71.98455800025158,27.136098999968908],[71.96772800024706,27.1395299999096],[71.96424100042191,27.142642999574832],[71.9571380002186,27.154738999805033],[71.95948000030182,27.17216500031458],[71.95536800043294,27.182444000390376],[71.94510700028786,27.181189000072322],[71.93428799959156,27.17564199967859],[71.92698700015,27.174013000099933],[71.91875500004329,27.17776100026998],[71.91623699993767,27.1831279995576],[71.91558100026299,27.21124300016436],[71.9106830001204,27.21800599997698],[71.9075850002476,27.215569000009395],[71.9045790001208,27.215200000080017],[71.8947370004123,27.21676100012013],[71.85680400030441,27.230906000411665],[71.84507800004974,27.236312999745167],[71.82031999956837,27.253759000277682],[71.7976839998168,27.25096700012699],[71.79046599970616,27.2452930001719],[71.7886660003357,27.25583599983156],[71.79160299997852,27.27361500043196],[71.7910840003264,27.28146900019425],[71.79350999978669,27.287966000330698],[71.80493200041155,27.296729999789704],[71.80672500035854,27.300310000306297],[71.80633500036004,27.303316000433142],[71.81924400031045,27.318551999775025],[71.82717900021072,27.317858000146657],[71.82952899976357,27.320608000159154],[71.82890299967374,27.328978000334473],[71.81994600030771,27.344282000114276],[71.82738499981792,27.39995599996945],[71.82547800000975,27.40991999990814],[71.81519299965726,27.43108700026488],[71.81452200019021,27.44165600022427],[71.81739799971797,27.448189000222214],[71.82205999976924,27.453123000226356],[71.8245159997137,27.460364999645094],[71.83821099993776,27.47850199966763],[71.85229500011422,27.478653000335726],[71.88233899974512,27.484525999575283],[71.89949000016344,27.473799000423583],[71.90060400027443,27.479009999711764],[71.8976590002627,27.494883999696867],[71.90284700028889,27.503202000172223],[71.90685299976616,27.53329999959533],[71.93083200029662,27.55913899956522],[71.9597470000241,27.550149999622818],[71.96653700018248,27.549734000223964],[72.00029800035247,27.56918100040292],[72.0499339996544,27.614458000136665],[72.08573899965518,27.592731000035656],[72.09516900014927,27.590321000413894],[72.11184700033886,27.590841000112107],[72.11796600013088,27.587900000284833],[72.11550099977137,27.582248999591684],[72.1173020000873,27.5810989996192],[72.12265000029731,27.583864000323388],[72.12908899955772,27.580399999760232],[72.12897499969654,27.57595399977731],[72.12419899978408,27.57152200044004],[72.1186290001283,27.571761999816488],[72.10566700043177,27.560055000437956],[72.10640000006003,27.5563719996681],[72.11511199981902,27.54708300028028],[72.12560299977866,27.546384999568147],[72.13848100009812,27.53962900007832],[72.14538600016385,27.532417000244436],[72.14115100001868,27.5245190002517],[72.13763399970935,27.5219880004459],[72.14299799975794,27.51563599980159],[72.14571400000113,27.5148850002426],[72.1529009995815,27.497568000263072],[72.15654000012097,27.499295999910544],[72.15965299978615,27.49387399988524],[72.15679200005081,27.492083000030505],[72.15863799974397,27.478871999643104],[72.15769999965534,27.475821000139092],[72.17546799974843,27.46177900010082],[72.20288799978141,27.47518000025684],[72.2033919996411,27.47944800012516],[72.2079929995773,27.479733999824305],[72.2109680000732,27.489072999719212],[72.22336599984106,27.491645999663206],[72.23361999966329,27.488688999997407],[72.24901600008837,27.48722099974941],[72.24545300035572,27.49761799987084],[72.251534000194,27.53331000005653],[72.27190399976985,27.54596700007704],[72.28406500029956,27.548732999928063],[72.26316799980339,27.557749000216234],[72.28215000012244,27.567805999946984],[72.3034900003633,27.59961500003226],[72.32311999998808,27.633957000015585],[72.32942999959488,27.655804000254477],[72.34131600003343,27.682254999668544],[72.34313200014174,27.691820000093003],[72.3298490000314,27.69294199967362],[72.29986599961626,27.70762100030896],[72.27645900028267,27.698256000114384],[72.25991800011565,27.683161000080133],[72.25168600000893,27.672912999635287],[72.2264560002443,27.657136999672844],[72.22037500040602,27.674437999813904],[72.19283300014291,27.693355999879543],[72.18045799963704,27.699354000386847],[72.14762900017826,27.71111300036472],[72.11732500024863,27.710362999952565],[72.10888699963539,27.70512200018021],[72.09751899970212,27.715199999980086],[72.09506199971156,27.721760000323798],[72.101417999641,27.73240500019068],[72.09366600008588,27.73609000015341],[72.1009980000577,27.74196200024619],[72.10491199978901,27.74914899982656],[72.11807999999206,27.748351999944873],[72.13181300016987,27.757792000000848],[72.15556300003249,27.779673000008984],[72.15463300031274,27.81103500016519],[72.14333299991807,27.844310999553045],[72.15017699986873,27.851576000032424],[72.15488400019649,27.859803999954693],[72.14555399981731,27.87266300029728],[72.12317700031838,27.88615400010707],[72.09923599974167,27.897388000156127],[72.09138500011773,27.902771000181588],[72.08628799979141,27.910071999623142],[72.0859759997926,27.916818999597183],[72.07821699991467,27.923825999870076],[72.05730151655183,27.934069101707735],[72.03771199990894,27.947129999849665],[72.03227199995291,27.949292999772183],[72.00028999998358,27.94571100006266],[71.99343100024055,27.94309599998047],[71.98088099975837,27.927197999787893],[71.9666669998822,27.92395999975423],[71.95587200029263,27.9133509997489],[71.95212600021478,27.91193600014634],[71.94698299956582,27.91311799979593],[71.93121299988007,27.92000599997698],[71.92434699981425,27.92146699990218],[71.92130299973371,27.924669000074346],[71.91161299984014,27.944736000066428],[71.90131399974138,27.95639800006768],[71.89744473408729,27.96284815721674],[71.89022827181736,27.958276748573155],[71.83327484156075,27.941570282142834],[71.69635009767893,27.891872405886886],[71.67488098177193,27.885522842405294],[71.5854873658493,27.876855850117465],[71.35252380393047,27.866081238158642],[71.3380531276498,27.864073579032492],[71.34802053152237,27.85529096270784],[71.36041453380375,27.838331572743925],[71.38630528705943,27.813407058289158],[71.40656794985108,27.784967933923042],[71.43945716791404,27.748762447828767],[71.45506127056126,27.729607453021572],[71.45253069703409,27.722386956392995],[71.41458249658501,27.64834841814502],[71.37959792200655,27.60303469459552],[71.39220637212645,27.586436677410802],[71.401773246738,27.569830837922893],[71.41481838336176,27.54317804143352],[71.42610924574512,27.531601182048973],[71.43565140968485,27.534327275383475],[71.43546507285487,27.52267564006877],[71.43771147770258,27.50345115374779],[71.43772180551696,27.490189803017074],[71.42062913152927,27.478551074772327],[71.40242670942513,27.465249961416646],[71.39686226757965,27.455291192834352],[71.39766714012649,27.448609586163514],[71.39873869223692,27.439713108473256],[71.40357784704008,27.43276170159129],[71.4199389297379,27.422851261676442],[71.42812642599381,27.40894380741082],[71.43910263178111,27.384942807664515],[71.44630137111142,27.37532911434721],[71.4521445452346,27.374538058084966],[71.47191461426809,27.38380105177714],[71.49623850570254,27.38945676491784],[71.51506121810081,27.400317838597402],[71.52854715202949,27.39792982919829],[71.53439078300829,27.39512955168749],[71.54697639754278,27.391133995137807],[71.573047624948,27.392768069590772],[71.5806891086155,27.39277578307599],[71.5847315809977,27.386762473409476],[71.59146921453271,27.378745788087713],[71.60360093943189,27.373942519831473],[71.61078994000377,27.371541372236607],[71.61887455201901,27.36553019396331],[71.62246367525847,27.35831209582659],[71.63369503040138,27.355511401030412],[71.63862930110145,27.3466891551804],[71.62790993539528,27.331915055735294],[71.61537325117467,27.319228904190652],[71.60993662907225,27.306547348181653],[71.61828336198761,27.302825106393584],[71.63246526236202,27.28941179901534],[71.64413671603666,27.273012853060777],[71.64494225767908,27.268429820679728],[71.64662667707955,27.258845461448914],[71.64135577035256,27.238597587108984],[71.63358247035478,27.23444470855651],[71.62623522057902,27.227793755277617],[71.61455637087988,27.221461094553945],[71.60422666342981,27.21285937865747],[71.58407306322135,27.192328648648243],[71.5796615360511,27.182661651613955],[71.57610652229823,27.17918923159783],[71.5710385565842,27.180251248196612],[71.55210222383863,27.17437221900275],[71.53216279987339,27.174988902116183],[71.5265807457049,27.17076070983893],[71.52015932639188,27.170612677832878],[71.51373738457272,27.170011016994863],[71.50815575938083,27.16532872913757],[71.49986732501708,27.157020371193255],[71.4931042748425,27.152337803646788],[71.48464455740049,27.139192896235215],[71.48531819457907,27.136926060589303],[71.49359617612271,27.137377490578785],[71.49274644809014,27.132239860681068],[71.48766699083899,27.11969862589092],[71.48343449440642,27.108668147816843],[71.48646846524753,27.102169661101016],[71.48342139308289,27.094010068110208],[71.4866165251326,27.079502478256813],[71.48272742043417,27.073005254189184],[71.47090335720424,27.065602091763196],[71.47309304540778,27.059255046383328],[71.47646572791109,27.05487233349146],[71.48759909292386,27.046257001859203],[71.49147663413942,27.041269387871978],[71.49164085484165,27.03643366218381],[71.4725473152065,27.008480106971433],[71.47624836357119,26.994425916622788],[71.47961871862901,26.989589793434277],[71.49561371070422,26.977932604805915],[71.50860834769713,26.963137861423206],[71.51045929995678,26.959057109398145],[71.52412504613403,26.96237638566174],[71.52597818914217,26.9605621797009],[71.53101607882905,26.943030418918738],[71.53860146728397,26.940457618624237],[71.54011656682616,26.93849230227795],[71.52171383332683,26.91991375311727],[71.51850500370301,26.91523040226133],[71.51748626607838,26.90888387668963],[71.51478551384042,26.90586251973957],[71.50804873825871,26.912211682123484],[71.49439582091048,26.915690953174987],[71.46625194307279,26.933677273587364],[71.45816335605411,26.94259318922434],[71.44551852386087,26.948788038737064],[71.43641033676766,26.94606647079104],[71.43573316975005,26.93987045305903],[71.43724771441055,26.932465894885183],[71.44314473544125,26.922341877675592],[71.44651212633363,26.912821810977846],[71.45342105194004,26.906626616125493],[71.45932027091385,26.904511284768034],[71.46976604486713,26.895444147229682],[71.47161576595488,26.889097070373566],[71.46402323958091,26.877763258167874],[71.46688504241081,26.872625192099008],[71.46199298498834,26.86537139897092],[71.43356316231012,26.846170947930943],[71.43354053626678,26.846142688534314]]]}}
