{"type":"Feature","properties":{"shapeName":"Khajuwala","shapeISO":"","shapeID":"7132399B23352295489123","shapeGroup":"IND","shapeType":"ADM3"},"geometry":{"type":"Polygon","coordinates":[[[72.75450512001532,28.79079625914011],[72.74682599972016,28.782651999590144],[72.74257699982871,28.789547000094046],[72.74021855744053,28.79473993559958],[72.73944100000222,28.796452000159718],[72.735214000226,28.802345000321566],[72.72782899960868,28.80607999989212],[72.72224400016052,28.809899999785216],[72.70911399991121,28.82832499959909],[72.70481100022755,28.833981999669618],[72.70079000005853,28.8384630003672],[72.69644200009827,28.843117000049574],[72.68713399983426,28.85177399997019],[72.68206800003821,28.855769999885638],[72.67337000002556,28.863725999855035],[72.67189799959306,28.869649999647834],[72.66244499983691,28.884352000444494],[72.65699799955809,28.891282999910572],[72.6485645360246,28.90304347387729],[72.62295532183072,28.88861846966671],[72.61978149382094,28.885210037313414],[72.61613464399869,28.885477065813973],[72.6119155879341,28.88161849939428],[72.58804321282406,28.86992835960615],[72.57699584997857,28.862236022874185],[72.55862426719625,28.85231971758094],[72.55208587666192,28.85054779054815],[72.5433959957287,28.84329032908545],[72.47285461424912,28.805633544952173],[72.41142272927561,28.786222458299846],[72.39618682885913,28.77465057396489],[72.32981872525403,28.703838348161298],[72.30195617693607,28.664815903031524],[72.2534179683646,28.527032852484183],[72.24935913101916,28.510766982810082],[72.2443771359961,28.505756378554054],[72.2432479859059,28.496355056540665],[72.20970379969066,28.402364379712424],[72.22973736198975,28.396134513297227],[72.27826340812982,28.388321269910705],[72.3072327646804,28.381097897250186],[72.3320716142137,28.37086448021165],[72.36554611286289,28.362311693729737],[72.39938260572274,28.35774123117295],[72.42343794520508,28.35679855281103],[72.43464499616971,28.356522204636065],[72.44824394340333,28.356185648648818],[72.46816043105912,28.357886534635895],[72.4888326514058,28.356926084771032],[72.49400730279484,28.354916097300077],[72.50931417410993,28.371436694547867],[72.52507443863448,28.385634028187894],[72.55630024725866,28.40885687784271],[72.56437487859785,28.4194119446056],[72.57878191525322,28.420563911395448],[72.5823474043093,28.42212405348232],[72.58922993031706,28.470558433524957],[72.58769146728741,28.473841718920255],[72.58065619592674,28.479803355340607],[72.57963702752687,28.484947324559414],[72.58228573959525,28.49915648878101],[72.58140155673652,28.513720530877833],[72.58457936784362,28.52324084398981],[72.58695247457712,28.543416574715195],[72.58997958089299,28.550567215604588],[72.60074410065977,28.560211648648703],[72.62548977863042,28.565452542301045],[72.64382991571807,28.57473921604202],[72.64733193602007,28.57834106468846],[72.65364990362019,28.590969927620108],[72.67686030216129,28.611160108652143],[72.6951908236976,28.622911648753643],[72.71285102475503,28.63049685104886],[72.7184190710833,28.642510123543445],[72.73264262175962,28.660142967224203],[72.74289244782824,28.67631131081839],[72.74880867478055,28.678729872885356],[72.77197571430781,28.681896073744838],[72.77483790744355,28.683336751689808],[72.80149652974109,28.718192055918678],[72.79819779579168,28.722194766575285],[72.79635022228501,28.72968388979973],[72.78934976188208,28.738772843092306],[72.78207871705922,28.75292416202052],[72.76120908473155,28.78434402095985],[72.75450512001532,28.79079625914011]]]}}
