{"type":"Feature","properties":{"shapeName":"Bajju","shapeISO":"","shapeID":"7132399B516102083904","shapeGroup":"IND","shapeType":"ADM3"},"geometry":{"type":"Polygon","coordinates":[[[72.62913354018082,28.135522853596854],[72.62639275911857,28.136330764053582],[72.62578961619789,28.139766587058375],[72.62376639340437,28.151290362160523],[72.61663772025463,28.162921625132924],[72.61438370714245,28.184198340081366],[72.6152930566293,28.187557816040453],[72.61663407440307,28.19251203640141],[72.60011703667197,28.21311149709794],[72.59223199860793,28.22208093318858],[72.58893921457314,28.234847169361444],[72.58734493152343,28.24102716297324],[72.580958359141,28.250662364476568],[72.58395524553822,28.266956641935508],[72.57306403018089,28.269272370123815],[72.5569011427736,28.292194176220335],[72.55163199152327,28.307148856834317],[72.53057826887209,28.325739127758595],[72.51857215677967,28.3436941823407],[72.51703030330589,28.346997420994228],[72.50161677959073,28.35196035218854],[72.49400730279484,28.354916097300077],[72.4888326514058,28.356926084771032],[72.46816043105912,28.357886534635895],[72.44824394340333,28.356185648648818],[72.43464499616971,28.356522204636065],[72.42343794520508,28.35679855281103],[72.39938260572274,28.35774123117295],[72.36554611286289,28.362311693729737],[72.3320716142137,28.37086448021165],[72.3072327646804,28.381097897250186],[72.27826340812982,28.388321269910705],[72.22973736198975,28.396134513297227],[72.20970379969066,28.402364379712424],[72.18442535434667,28.358005523935844],[72.15142822303415,28.3333721164301],[72.15061950678489,28.329706191987214],[72.14067077643523,28.31875801087358],[72.12420654329742,28.303949355878103],[72.01914215078966,28.22749900767309],[71.99202728263305,28.20355796842557],[71.9692993164104,28.176603317189404],[71.92227172875732,28.113967895601945],[71.9216613768711,28.100887298709893],[71.91092681891763,28.041265488211764],[71.899574280129,27.96419715917159],[71.89744473408729,27.96284815721674],[71.90131399974138,27.95639800006768],[71.91161299984014,27.944736000066428],[71.92130299973371,27.924669000074346],[71.92434699981425,27.92146699990218],[71.93121299988007,27.92000599997698],[71.94698299956582,27.91311799979593],[71.95212600021478,27.91193600014634],[71.95587200029263,27.9133509997489],[71.9666669998822,27.92395999975423],[71.98088099975837,27.927197999787893],[71.99343100024055,27.94309599998047],[72.00028999998358,27.94571100006266],[72.03227199995291,27.949292999772183],[72.03771199990894,27.947129999849665],[72.05730151655183,27.934069101707735],[72.07821699991467,27.923825999870076],[72.0859759997926,27.916818999597183],[72.08628799979141,27.910071999623142],[72.09138500011773,27.902771000181588],[72.09923599974167,27.897388000156127],[72.12317700031838,27.88615400010707],[72.14555399981731,27.87266300029728],[72.15488400019649,27.859803999954693],[72.15017699986873,27.851576000032424],[72.14333299991807,27.844310999553045],[72.15463300031274,27.81103500016519],[72.15556300003249,27.779673000008984],[72.13181300016987,27.757792000000848],[72.11807999999206,27.748351999944873],[72.10491199978901,27.74914899982656],[72.1009980000577,27.74196200024619],[72.09366600008588,27.73609000015341],[72.101417999641,27.73240500019068],[72.09506199971156,27.721760000323798],[72.09751899970212,27.715199999980086],[72.10888699963539,27.70512200018021],[72.11732500024863,27.710362999952565],[72.14762900017826,27.71111300036472],[72.18045799963704,27.699354000386847],[72.19283300014291,27.693355999879543],[72.22037500040602,27.674437999813904],[72.2264560002443,27.657136999672844],[72.25168600000893,27.672912999635287],[72.25991800011565,27.683161000080133],[72.27645900028267,27.698256000114384],[72.29986599961626,27.70762100030896],[72.3298490000314,27.69294199967362],[72.34313200014174,27.691820000093003],[72.34131600003343,27.682254999668544],[72.32942999959488,27.655804000254477],[72.32311999998808,27.633957000015585],[72.3034900003633,27.59961500003226],[72.28215000012244,27.567805999946984],[72.26316799980339,27.557749000216234],[72.28406500029956,27.548732999928063],[72.29611200006883,27.542880999858312],[72.29213700022245,27.526375000406006],[72.2873919999409,27.524481000297953],[72.28930700011801,27.522278000329493],[72.28409599993051,27.51524399971089],[72.27959400006313,27.512654999928372],[72.25180800023907,27.507266999672368],[72.24954200006329,27.497337000402297],[72.2499239996929,27.490987999896333],[72.25376100036993,27.486942000373062],[72.24884800043492,27.47701500034202],[72.24855000018243,27.468119000191734],[72.25520300031826,27.46095099968892],[72.26086399967392,27.457708000324033],[72.26629600016031,27.45741800044044],[72.27849599979061,27.465592999717217],[72.2934879995716,27.483239999626335],[72.29575299970122,27.489006000226766],[72.2990260004496,27.491253000425672],[72.30078899991247,27.497834999985287],[72.32192199960065,27.509574999986285],[72.32683599958176,27.51366000040872],[72.33096300014239,27.512614999882373],[72.34349799993282,27.504801000166083],[72.35890199982748,27.488827000066067],[72.36112199968062,27.489920000107986],[72.36782799956256,27.527669999870625],[72.37684599994299,27.532907000357852],[72.38390399986974,27.542876999673865],[72.40019200006083,27.549366000340683],[72.4043809998833,27.548193000206822],[72.4074940004478,27.5429310003654],[72.42073100023555,27.55433300006797],[72.43748500033257,27.561564999924883],[72.44942499966407,27.585784999877887],[72.45540600028676,27.58721400012604],[72.46311200041856,27.586786000173845],[72.46861299959033,27.590579999767215],[72.47131254224007,27.588878829594364],[72.4663201483562,27.616911795842782],[72.46903509279537,27.621419125991906],[72.47282860225823,27.623079055953724],[72.47021494936047,27.627717686222297],[72.47690715544093,27.63782252538931],[72.47881325232981,27.653568032938438],[72.47783669740573,27.662152856868886],[72.46269380037864,27.68387743509561],[72.45978141877754,27.695606789821568],[72.45461723729574,27.707331662326396],[72.45524879969241,27.714488326874857],[72.46424309214507,27.72166107220079],[72.47000016787348,27.74342428710122],[72.47222809704908,27.75974267358555],[72.47896712093592,27.772348340303722],[72.49086320996923,27.780096894556095],[72.49578579667724,27.78599709289159],[72.51014686628491,27.782740331201353],[72.51798323034188,27.775789502583507],[72.53571582862264,27.77212890212718],[72.57166875001286,27.777745887762535],[72.59207270798913,27.7944873000489],[72.59448673477505,27.803805032776097],[72.5958230463965,27.82339248277691],[72.59554781787756,27.84226177735917],[72.59123479255169,27.87760803498287],[72.59096066030628,27.8914612637264],[72.59364206183176,27.910810950964674],[72.59826156981563,27.91965914855092],[72.6226778701876,27.94857443786009],[72.62671170008497,27.963625012284524],[72.64635327308514,27.99253866033098],[72.65281549643805,28.014755209985026],[72.65362457961072,28.023115332007023],[72.64635860696421,28.03266523281428],[72.6420528562544,28.04460506037526],[72.64420839360253,28.060370280164364],[72.64878787006421,28.074226036002813],[72.64367391392005,28.095241540164977],[72.64367518016547,28.10598959424442],[72.64639614016977,28.114431845952993],[72.63244483226327,28.12550992064638],[72.62913354018082,28.135522853596854]]]}}
