{"features":[{"geometry":{"coordinates":[[[-16.34789,11.548529],[-16.322057127524484,11.551883193077273],[-16.3471,11.5423],[-16.35281034512209,11.548427158634652],[-16.34789,11.548529]]],"type":"Polygon"},"id":"physical-component:029bb4252ed18916c8ab96492145cd79daec11d0967c358dd4894150bbe3374e","properties":{"administrative_assignment":null,"dateline_connected":false,"diagnostic_nearby_locations":[],"fragment_bindings":[{"feature_sha256":"20f96b1ddc6a447f21158b38f0f34c9412703b9e627131732b4a2eb53c903285","id":"physical-gap:1040:30:3f30d89c4eed6c9c4fd9332ccd7be0f9cbcdbe5841404be80a855dd37eabb34e"}],"measured_fragment_area_sum_m2":1172203.128180109,"measured_fragment_count":1,"positive_area_input_overlap":false,"touches_blocked_tile":false,"touches_domain_boundary":false,"touches_reference_shore":true,"unmeasured_fragment_ids":[],"water_status":"unverified"},"type":"Feature"},{"geometry":{"coordinates":[[[-15.632965,11.538235],[-15.620595,11.542873],[-15.607411,11.550116],[-15.598256,11.565172],[-15.585683,11.577541],[-15.562245,11.576972],[-15.560292,11.59219],[-15.550282,11.603217],[-15.537913,11.613023],[-15.528717,11.624823],[-15.51183,11.620429],[-15.496734,11.624905],[-15.483876,11.63109],[-15.474509865274987,11.632155154103268],[-15.484,11.6213],[-15.5088,11.6129],[-15.5218,11.6137],[-15.5501,11.5752],[-15.5712,11.5761],[-15.5899,11.5695],[-15.6073,11.5382],[-15.6276,11.5364],[-15.630784937276482,11.530737889286252],[-15.632965,11.538235]]],"type":"Polygon"},"id":"physical-component:085779ab163225bb8bf9c7736fa62b0b0c128ac8bf22d056e30916587516048f","properties":{"administrative_assignment":null,"dateline_connected":false,"diagnostic_nearby_locations":[],"fragment_bindings":[{"feature_sha256":"f70244f6c4642e45e2cc7cacd20d74495e2718fb78d8abd4b0086372e2de987a","id":"physical-gap:1040:125:cb6b1e1dac55ab8b017a7f7fb3a8670cb2984f425cf83f1de350ffe2f91f9af4"}],"measured_fragment_area_sum_m2":19775534.27912827,"measured_fragment_count":1,"positive_area_input_overlap":false,"touches_blocked_tile":false,"touches_domain_boundary":false,"touches_reference_shore":true,"unmeasured_fragment_ids":[],"water_status":"unverified"},"type":"Feature"},{"geometry":{"coordinates":[[[-16.044993,11.138739],[-16.056142,11.148586],[-16.056996,11.16356],[-16.048899,11.179145],[-16.034535,11.190497],[-16.02392490275388,11.193799130220459],[-16.0255,11.193],[-16.0343,11.1772],[-16.0548,11.1612],[-16.03722736269763,11.138766845996972],[-16.044993,11.138739]]],"type":"Polygon"},"id":"physical-component:17ffe63e45427f5113ffc3790d1bf5abf2943117164fd386d0f85e3e690a0b6f","properties":{"administrative_assignment":null,"dateline_connected":false,"diagnostic_nearby_locations":[],"fragment_bindings":[{"feature_sha256":"3e0730ad5c0f5df6f264985a3301200a1752b9245fc92912b3d9e803026c43e6","id":"physical-gap:1040:8:4642e8d485107cb927853008b5d96e0d508ece44fc3194504910ed0ea18b29e6"}],"measured_fragment_area_sum_m2":6064432.515861652,"measured_fragment_count":1,"positive_area_input_overlap":false,"touches_blocked_tile":false,"touches_domain_boundary":false,"touches_reference_shore":true,"unmeasured_fragment_ids":[],"water_status":"unverified"},"type":"Feature"},{"geometry":{"coordinates":[[[-15.706207,11.475246],[-15.70051,11.483385],[-15.696278,11.492255],[-15.693186,11.501899],[-15.685699,11.494452],[-15.680531,11.498725],[-15.665273,11.508734],[-15.660268,11.504706],[-15.660064,11.501858],[-15.662370204170802,11.498579108065087],[-15.661,11.5025],[-15.6894,11.4907],[-15.6894,11.4757],[-15.7004,11.465],[-15.713592879990054,11.467861106503868],[-15.706207,11.475246]]],"type":"Polygon"},"id":"physical-component:19dfb086313c10e42d4d45e4ff3c64c67027e6138b5458a5a527083ceabf28d2","properties":{"administrative_assignment":null,"dateline_connected":false,"diagnostic_nearby_locations":[],"fragment_bindings":[{"feature_sha256":"1f6854e473d4a24a8ad717cb49fa79effc38746de3263a4375b4cbc585398d7c","id":"physical-gap:1040:122:4f048a14a4569b702c74e4917ee4922c4b8b75478c7f9af3dbb55112996edbbb"}],"measured_fragment_area_sum_m2":6483637.008060896,"measured_fragment_count":1,"positive_area_input_overlap":false,"touches_blocked_tile":false,"touches_domain_boundary":false,"touches_reference_shore":true,"unmeasured_fragment_ids":[],"water_status":"unverified"},"type":"Feature"},{"geometry":{"coordinates":[[[-16.099965,11.208197],[-16.079986,11.206244],[-16.06314,11.192816],[-16.061085467065325,11.190414626559148],[-16.0847,11.2005],[-16.1025,11.1972],[-16.109584650621276,11.201370397174227],[-16.099965,11.208197]]],"type":"Polygon"},"id":"physical-component:1c7ce0df40ece893174801ab8c42834158c46425203e68733f205e708c450350","properties":{"administrative_assignment":null,"dateline_connected":false,"diagnostic_nearby_locations":[],"fragment_bindings":[{"feature_sha256":"3d18b745ebb494314fda9b055fcd150ebe8bd0d006a962f2369b0bf0ac113f4b","id":"physical-gap:1040:5:72494adb802bfb65b6cbb9c5a14e4a4c42d511463513923b49e5b29f5a1e3c6d"}],"measured_fragment_area_sum_m2":3599308.911086248,"measured_fragment_count":1,"positive_area_input_overlap":false,"touches_blocked_tile":false,"touches_domain_boundary":false,"touches_reference_shore":true,"unmeasured_fragment_ids":[],"water_status":"unverified"},"type":"Feature"},{"geometry":{"coordinates":[[[-15.678822,11.254136],[-15.68367076120606,11.25460318779652],[-15.6837,11.255],[-15.6675,11.2628],[-15.660409482809168,11.277308289021244],[-15.656484,11.251695],[-15.658437,11.233791],[-15.663442,11.229885],[-15.669545,11.241156],[-15.678822,11.254136]]],"type":"Polygon"},"id":"physical-component:1d6d6490d6a511807561030466018f5537f7fb15a498c5e6ddec98ac30ecc29d","properties":{"administrative_assignment":null,"dateline_connected":false,"diagnostic_nearby_locations":[],"fragment_bindings":[{"feature_sha256":"1ee5bbcf5f681e62d4c4122d452ee70e7cdd7653bf8c9bcdf991e00d6338abc7","id":"physical-gap:1040:98:24d7e4d205f91dd397187fddceed07df947b739b329ca70200c6d34467276a75"}],"measured_fragment_area_sum_m2":6489282.341404385,"measured_fragment_count":1,"positive_area_input_overlap":false,"touches_blocked_tile":false,"touches_domain_boundary":false,"touches_reference_shore":true,"unmeasured_fragment_ids":[],"water_status":"unverified"},"type":"Feature"},{"geometry":{"coordinates":[[[-15.865271209018628,11.200441592280663],[-15.8631,11.2023],[-15.8627,11.2206],[-15.8713,11.2257],[-15.8521,11.2513],[-15.8508,11.268],[-15.833048132476167,11.267632085647174],[-15.836537,11.25552],[-15.837554,11.214016],[-15.846506,11.200995],[-15.865271209018628,11.200441592280663]]],"type":"Polygon"},"id":"physical-component:2300c0f7eb4801164896e12408f2943769d033756642f29876f9597d7e19d296","properties":{"administrative_assignment":null,"dateline_connected":false,"diagnostic_nearby_locations":[],"fragment_bindings":[{"feature_sha256":"58070be26cf6631400b7e56452724af685f423c27b718a1cf3f4e2ef49fde06a","id":"physical-gap:1040:105:88c8ae770bd1849ec5be7ec92355f54f779920abb84c372edd15dc025dcc0efe"}],"measured_fragment_area_sum_m2":18097601.687458947,"measured_fragment_count":1,"positive_area_input_overlap":false,"touches_blocked_tile":false,"touches_domain_boundary":false,"touches_reference_shore":true,"unmeasured_fragment_ids":[],"water_status":"unverified"},"type":"Feature"},{"geometry":{"coordinates":[[[-15.987416,11.43301],[-15.989914474923234,11.43592488741044],[-15.985579042769345,11.43737336128674],[-15.987416,11.43301]]],"type":"Polygon"},"id":"physical-component:29aa1d69b9152a28ae0363b632e93a496b626519d074020784de8bd005c55533","properties":{"administrative_assignment":null,"dateline_connected":false,"diagnostic_nearby_locations":[],"fragment_bindings":[{"feature_sha256":"43c7b0272a51ee039c65b83bc87d54425b2e1f30f8cb290608669f9b3749c348","id":"physical-gap:1040:25:691d8ab31ddc148051f29cc36f876955362563257caa5ddf1b92cc1a6f843541"}],"measured_fragment_area_sum_m2":98115.32915944532,"measured_fragment_count":1,"positive_area_input_overlap":false,"touches_blocked_tile":false,"touches_domain_boundary":false,"touches_reference_shore":true,"unmeasured_fragment_ids":[],"water_status":"unverified"},"type":"Feature"},{"geometry":{"coordinates":[[[-15.89802,11.453518],[-15.915399091255725,11.447439053136998],[-15.907,11.4599],[-15.90642871779668,11.469383284575112],[-15.89802,11.453518]]],"type":"Polygon"},"id":"physical-component:2aec11fd7c49e5675b8bc3edf59b03fdbdfc2dad2f290494d7be04b75ef4e082","properties":{"administrative_assignment":null,"dateline_connected":false,"diagnostic_nearby_locations":[],"fragment_bindings":[{"feature_sha256":"4e893719fdc3a653a4c279d286b19ca68c1ec46973dbbe2f07f379d1420691c4","id":"physical-gap:1040:23:5f33349082cce1989b169f8b9b824a6f3b50e598b5be9192606237051950c25f"}],"measured_fragment_area_sum_m2":1534776.4398124423,"measured_fragment_count":1,"positive_area_input_overlap":false,"touches_blocked_tile":false,"touches_domain_boundary":false,"touches_reference_shore":true,"unmeasured_fragment_ids":[],"water_status":"unverified"},"type":"Feature"},{"geometry":{"coordinates":[[[-15.966630899765885,11.591972676891045],[-15.9761,11.5764],[-15.9614,11.5569],[-15.9421,11.5464],[-15.9461,11.5387],[-15.9312,11.5233],[-15.909961098637048,11.52339076453574],[-15.91039,11.522691],[-15.911678232157042,11.512420176580179],[-15.927,11.5167],[-15.9471,11.5035],[-15.9715,11.517],[-15.9939,11.5042],[-16.0078,11.5099],[-16.028,11.5031],[-16.0465,11.4722],[-16.0785,11.4592],[-16.0784183736535,11.456424704218964],[-16.079213,11.456977],[-16.083608,11.46776],[-16.048899,11.488227],[-16.026275,11.512274],[-16.022125,11.512152],[-16.019114,11.528754],[-16.011383,11.550279],[-16.001332,11.569037],[-15.991119,11.576972],[-15.983662727442912,11.579950365370287],[-16.01,11.5368],[-16.007,11.5166],[-15.9834,11.5176],[-15.983,11.5287],[-15.9627,11.5478],[-15.982439693558897,11.580438899250849],[-15.974924,11.583441],[-15.966630899765885,11.591972676891045]]],"type":"Polygon"},"id":"physical-component:2c8dbdc6a6d39df23a12d7d67d1495bce74360df9b0b9b5bca5265a25cb39e39","properties":{"administrative_assignment":null,"dateline_connected":false,"diagnostic_nearby_locations":[],"fragment_bindings":[{"feature_sha256":"92117c334a59179956b674044686c29baba30536a457460fe00d8eaebeab772d","id":"physical-gap:1040:20:02acfe71f091783008ffe15338b07e10ba1803536e4e4c1260f1e6bcf7b3a42d"}],"measured_fragment_area_sum_m2":44809988.5746538,"measured_fragment_count":1,"positive_area_input_overlap":false,"touches_blocked_tile":false,"touches_domain_boundary":false,"touches_reference_shore":true,"unmeasured_fragment_ids":[],"water_status":"unverified"},"type":"Feature"},{"geometry":{"coordinates":[[[-16.115102,11.197455],[-16.113361860863957,11.198689892951005],[-16.1069,11.1851],[-16.11670851919927,11.182552332675515],[-16.115102,11.197455]]],"type":"Polygon"},"id":"physical-component:2ee91fb98b727043c3569ad85682f3e79aded9f563056b9151413a944782f120","properties":{"administrative_assignment":null,"dateline_connected":false,"diagnostic_nearby_locations":[],"fragment_bindings":[{"feature_sha256":"2b0d0e12880140fe2ca6d12bc18bfeeb4d5b4949c783310f91f3b352c6820b9a","id":"physical-gap:1040:4:04727cf8af218956389ee4531e8da48760ed3017905aa284af8387032ed4d756"}],"measured_fragment_area_sum_m2":1049300.4017100895,"measured_fragment_count":1,"positive_area_input_overlap":false,"touches_blocked_tile":false,"touches_domain_boundary":false,"touches_reference_shore":true,"unmeasured_fragment_ids":[],"water_status":"unverified"},"type":"Feature"},{"geometry":{"coordinates":[[[-16.206532,11.310126],[-16.197499,11.298407],[-16.186187,11.297268],[-16.180916861843137,11.298025675956504],[-16.2025,11.289],[-16.2078,11.3075],[-16.208948341944808,11.30770998252705],[-16.206532,11.310126]]],"type":"Polygon"},"id":"physical-component:2f719e030c359c31ee3bafaba5cbcc3b5868d2ff26be8ee2e8b886a48e69df63","properties":{"administrative_assignment":null,"dateline_connected":false,"diagnostic_nearby_locations":[],"fragment_bindings":[{"feature_sha256":"855cdfa71ff74b305ae659b916bcea872e292641da4d3cf3d206d116527d3e13","id":"physical-gap:1040:12:323a8280c28394cf9b232d8da2f97cc9302b3d4cc009277eb85206ad6e964428"}],"measured_fragment_area_sum_m2":1977927.70395382,"measured_fragment_count":1,"positive_area_input_overlap":false,"touches_blocked_tile":false,"touches_domain_boundary":false,"touches_reference_shore":true,"unmeasured_fragment_ids":[],"water_status":"unverified"},"type":"Feature"},{"geometry":{"coordinates":[[[-16.400502,11.493964],[-16.408518,11.489244],[-16.419423,11.488227],[-16.416331,11.495063],[-16.411977,11.501899],[-16.418324,11.51439],[-16.416982,11.517239],[-16.413841412524203,11.520481240856633],[-16.4096,11.5037],[-16.39925671620283,11.495057914195785],[-16.400502,11.493964]]],"type":"Polygon"},"id":"physical-component:387f19ddab57d7e3a6b102095418d9f3d6e3d97d3593e8881ec754bc3d25c34f","properties":{"administrative_assignment":null,"dateline_connected":false,"diagnostic_nearby_locations":[],"fragment_bindings":[{"feature_sha256":"8ee9da25195538dd5dd506f96c7631ea77934d62aaabf58c01508065d8db8ec0","id":"physical-gap:1040:28:8a2a050ca3273b2d67c95eab8fc6ca289923e32bcfb8d3889dfcfe8f9c45d962"}],"measured_fragment_area_sum_m2":2874076.4387137056,"measured_fragment_count":1,"positive_area_input_overlap":false,"touches_blocked_tile":false,"touches_domain_boundary":false,"touches_reference_shore":true,"unmeasured_fragment_ids":[],"water_status":"unverified"},"type":"Feature"},{"geometry":{"coordinates":[[[-16.055653,11.049465],[-16.0586059083095,11.047543334586571],[-16.0701,11.0575],[-16.103,11.0592],[-16.109,11.0664],[-16.1361,11.0485],[-16.1097,11.0451],[-16.111673756331346,11.036524369043121],[-16.131988,11.028957],[-16.135365,11.037665],[-16.136586,11.045844],[-16.135487,11.054185],[-16.131988,11.063666],[-16.138295,11.063666],[-16.14512527653596,11.0525533821351],[-16.1526,11.0663],[-16.1407,11.0823],[-16.1431,11.1006],[-16.1159,11.0914],[-16.0671,11.0887],[-16.07,11.0983],[-16.088,11.0972],[-16.0938,11.1085],[-16.0837,11.1343],[-16.0733,11.1372],[-16.0718,11.1526],[-16.0893,11.16],[-16.0865,11.1759],[-16.0711,11.1681],[-16.057443938163416,11.186158344928641],[-16.05663,11.185207],[-16.05956,11.179511],[-16.065826,11.172919],[-16.069407,11.162746],[-16.067698,11.147895],[-16.063303,11.138617],[-16.048899,11.118313],[-16.06314,11.118313],[-16.06314,11.110826],[-16.053334,11.091539],[-16.057281,11.07331],[-16.062245,11.058417],[-16.055653,11.049465]]],"type":"Polygon"},"id":"physical-component:3ce03adf01fd4f1b148bace1f91b8ab1048069388e50ced166ddc685cc24e336","properties":{"administrative_assignment":null,"dateline_connected":false,"diagnostic_nearby_locations":[],"fragment_bindings":[{"feature_sha256":"d67e7ef007af1ade874f987cf7734a6923b1b50c9d5a0dd6b81bee71f5562bd8","id":"physical-gap:1040:0:943ae4f63da69d70456e72e2de05cb780e1524b259039266a5503bf9b15a4601"}],"measured_fragment_area_sum_m2":61796681.39146659,"measured_fragment_count":1,"positive_area_input_overlap":false,"touches_blocked_tile":false,"touches_domain_boundary":false,"touches_reference_shore":true,"unmeasured_fragment_ids":[],"water_status":"unverified"},"type":"Feature"},{"geometry":{"coordinates":[[[-15.449127,11.563788],[-15.453033,11.572699],[-15.4558,11.583319],[-15.463246,11.594672],[-15.468861,11.60578],[-15.464589,11.613593],[-15.453033,11.621731],[-15.44812876099829,11.636810314598595],[-15.4469,11.6358],[-15.4569,11.6071],[-15.4571,11.5895],[-15.440607940758982,11.558330797128221],[-15.449127,11.563788]]],"type":"Polygon"},"id":"physical-component:3de3b7acaae7f331590ea3151563166d1c1b5f6784ba3008561aef3a8f690022","properties":{"administrative_assignment":null,"dateline_connected":false,"diagnostic_nearby_locations":[],"fragment_bindings":[{"feature_sha256":"c4608b3599d9dc27cfc6f302ba8fa7a2e02ab6fb40b6f501db0316daea8dfc4a","id":"physical-gap:1040:117:54cd043223051999f3e61c6f7f614c417bc7a13c9adc999383773ad0f75df3a2"}],"measured_fragment_area_sum_m2":4663968.489749626,"measured_fragment_count":1,"positive_area_input_overlap":false,"touches_blocked_tile":false,"touches_domain_boundary":false,"touches_reference_shore":true,"unmeasured_fragment_ids":[],"water_status":"unverified"},"type":"Feature"},{"geometry":{"coordinates":[[[-15.653432,11.480536],[-15.658437,11.473944],[-15.655094103841645,11.469377458051593],[-15.6675,11.4839],[-15.664217298626372,11.493293576238381],[-15.663197,11.492174],[-15.661366,11.489447],[-15.65803,11.487698],[-15.651601,11.488227],[-15.652333,11.483547],[-15.653432,11.480536]]],"type":"Polygon"},"id":"physical-component:3e4540fdd63763b3ef63ed0df6e172c4672e72bffc9aef7efc8898e0858f2207","properties":{"administrative_assignment":null,"dateline_connected":false,"diagnostic_nearby_locations":[],"fragment_bindings":[{"feature_sha256":"8e92ff46bc8e4476d56fad406a003bf51fdd658dd762d8676dd8acf50d29bfba","id":"physical-gap:1040:119:2f8823bf0ff67c2b9ab058b66ce69396c9b9a3a5e6c833e8d04c699e1d19c43f"}],"measured_fragment_area_sum_m2":1953729.493710821,"measured_fragment_count":1,"positive_area_input_overlap":false,"touches_blocked_tile":false,"touches_domain_boundary":false,"touches_reference_shore":true,"unmeasured_fragment_ids":[],"water_status":"unverified"},"type":"Feature"},{"geometry":{"coordinates":[[[-16.025868,11.422919],[-16.035227,11.419989],[-16.04186458395262,11.4290561534814],[-16.0286,11.423],[-16.02096089816746,11.425552234483222],[-16.025868,11.422919]]],"type":"Polygon"},"id":"physical-component:3e9b8941c625dc8ef27e1eac62181cd234010b0a87aca74a0c96fe63e6f182e0","properties":{"administrative_assignment":null,"dateline_connected":false,"diagnostic_nearby_locations":[],"fragment_bindings":[{"feature_sha256":"46ec1b2672056c2e499c9484375a1b9314d4e195c2807755ee66ef6a4e27e218","id":"physical-gap:1040:26:5b495a6a5ecb06ba42c70b99918ae69eb693233b8c9a6d278644fc9381c45ba2"}],"measured_fragment_area_sum_m2":582018.6112361565,"measured_fragment_count":1,"positive_area_input_overlap":false,"touches_blocked_tile":false,"touches_domain_boundary":false,"touches_reference_shore":true,"unmeasured_fragment_ids":[],"water_status":"unverified"},"type":"Feature"},{"geometry":{"coordinates":[[[-15.726796,11.166083],[-15.728831,11.170356],[-15.729081400858325,11.170726848813201],[-15.7254581168511,11.170441141830551],[-15.726796,11.166083]]],"type":"Polygon"},"id":"physical-component:46e4bfde0e928108d2da84bd92fb59970d55f19e17a6f85be737b96f1dc04751","properties":{"administrative_assignment":null,"dateline_connected":false,"diagnostic_nearby_locations":[],"fragment_bindings":[{"feature_sha256":"21a2b2cf3dd2df40bc6ce9fb3308ad3c2f57571dd0256cc53f990890b1d2008a","id":"physical-gap:1040:101:70901f06f502837df58276e35ee26af424860555cb444d42bcc24864dc8843f5"}],"measured_fragment_area_sum_m2":95796.66172791565,"measured_fragment_count":1,"positive_area_input_overlap":false,"touches_blocked_tile":false,"touches_domain_boundary":false,"touches_reference_shore":true,"unmeasured_fragment_ids":[],"water_status":"unverified"},"type":"Feature"},{"geometry":{"coordinates":[[[-15.735097,11.449856],[-15.740387,11.460354],[-15.735463,11.469428],[-15.727284,11.470404],[-15.718902,11.468166],[-15.717559262137462,11.468061324198889],[-15.7333,11.4529],[-15.725444349673197,11.445001886698458],[-15.735097,11.449856]]],"type":"Polygon"},"id":"physical-component:4f5d2c12ed9ccaef496ced278ec9d8dfb516e141d2de6e8bf54e26662ade9669","properties":{"administrative_assignment":null,"dateline_connected":false,"diagnostic_nearby_locations":[],"fragment_bindings":[{"feature_sha256":"6bda5b403036c1034fb481471a66961cd26b8b928de9cdac0fb8e5f6b47d27d7","id":"physical-gap:1040:121:eeab8f92c448da97cb52263717446d4541b0e8ea11dd0c85c112fa33d9063002"}],"measured_fragment_area_sum_m2":2978664.6566152577,"measured_fragment_count":1,"positive_area_input_overlap":false,"touches_blocked_tile":false,"touches_domain_boundary":false,"touches_reference_shore":true,"unmeasured_fragment_ids":[],"water_status":"unverified"},"type":"Feature"},{"geometry":{"coordinates":[[[-15.698638,11.220852],[-15.706207,11.214504],[-15.711781,11.222398],[-15.714508,11.224921],[-15.715233070651147,11.224676123437316],[-15.7143,11.2284],[-15.69662711544307,11.223426725953829],[-15.698638,11.220852]]],"type":"Polygon"},"id":"physical-component:510b551e955b8d25acd14910e5f3c65167d0e8d9535be3f83df290b6b7c6820a","properties":{"administrative_assignment":null,"dateline_connected":false,"diagnostic_nearby_locations":[],"fragment_bindings":[{"feature_sha256":"a88b844a4cc4ace40c31d88d6a8a94771bf6a24113d4becc3bc063c30779a8a4","id":"physical-gap:1040:99:2272eee213b07dad6f344fd9daea61338d69525d203594162e086bc72ba74544"}],"measured_fragment_area_sum_m2":1438168.8490232823,"measured_fragment_count":1,"positive_area_input_overlap":false,"touches_blocked_tile":false,"touches_domain_boundary":false,"touches_reference_shore":true,"unmeasured_fragment_ids":[],"water_status":"unverified"},"type":"Feature"},{"geometry":{"coordinates":[[[-15.896474,11.248725],[-15.880767,11.280585],[-15.857086,11.30268],[-15.831166,11.302965],[-15.827928919525181,11.29671251529301],[-15.8333,11.3029],[-15.8574,11.2988],[-15.8715,11.2829],[-15.8886,11.2537],[-15.8904,11.2295],[-15.896180779175674,11.226738481285507],[-15.896474,11.248725]]],"type":"Polygon"},"id":"physical-component:5413f871fd483f6dc4d15e3875766f55ced255c2f7b218a9d85fc16c16041cb4","properties":{"administrative_assignment":null,"dateline_connected":false,"diagnostic_nearby_locations":[],"fragment_bindings":[{"feature_sha256":"16148232c1dc6683396d741a6208ff1a30fa5661033354ebf7ee0c172056cb69","id":"physical-gap:1040:106:6a5d2a7cda0a027b6468f3934d83be5486448ca19fe21d55516605edc57a8b6f"}],"measured_fragment_area_sum_m2":6158192.120133277,"measured_fragment_count":1,"positive_area_input_overlap":false,"touches_blocked_tile":false,"touches_domain_boundary":false,"touches_reference_shore":true,"unmeasured_fragment_ids":[],"water_status":"unverified"},"type":"Feature"},{"geometry":{"coordinates":[[[-15.763824,11.167914],[-15.773305,11.173082],[-15.780019,11.186591],[-15.781954267849736,11.200138865868707],[-15.7698,11.1837],[-15.756679438838393,11.176096803019172],[-15.763824,11.167914]]],"type":"Polygon"},"id":"physical-component:649d89ccfe5d24412648cb652520847ea41d0ee1a17df0340ffd597d4d389b6c","properties":{"administrative_assignment":null,"dateline_connected":false,"diagnostic_nearby_locations":[],"fragment_bindings":[{"feature_sha256":"2115f010e01a3c5096bacbf1b4e506cccc799d04f3c05bb6bf06464ebe157fc4","id":"physical-gap:1040:102:5e6435ca764071aedf798c7bb5de0cb31ec5bde61f89ff27a209dd98be9e866d"}],"measured_fragment_area_sum_m2":3213429.255620413,"measured_fragment_count":1,"positive_area_input_overlap":false,"touches_blocked_tile":false,"touches_domain_boundary":false,"touches_reference_shore":true,"unmeasured_fragment_ids":[],"water_status":"unverified"},"type":"Feature"},{"geometry":{"coordinates":[[[-16.275543,11.49551],[-16.281728,11.49315],[-16.291982,11.493109],[-16.302113,11.488227],[-16.30358497609309,11.487718947355429],[-16.2933,11.4958],[-16.27389470380021,11.499983710648578],[-16.275543,11.49551]]],"type":"Polygon"},"id":"physical-component:6b69f60f89e1ab9b94616dc787e8472af16c2f138552cd15c83bc2c28cde9d56","properties":{"administrative_assignment":null,"dateline_connected":false,"diagnostic_nearby_locations":[],"fragment_bindings":[{"feature_sha256":"76edce201f3a7173d8790e091b5f67b54cc3a5cf5875244416fa6c28c3c92d8a","id":"physical-gap:1040:32:b9a0c8aac65f17163d8346db200f721a54cfa60d23a7e56d0b0c2d615f9aa30b"}],"measured_fragment_area_sum_m2":1156365.3812868847,"measured_fragment_count":1,"positive_area_input_overlap":false,"touches_blocked_tile":false,"touches_domain_boundary":false,"touches_reference_shore":true,"unmeasured_fragment_ids":[],"water_status":"unverified"},"type":"Feature"},{"geometry":{"coordinates":[[[-16.248687,11.29442],[-16.229319,11.304104],[-16.229260839401274,11.304098600997877],[-16.2373,11.2907],[-16.25607854095236,11.285985041665642],[-16.248687,11.29442]]],"type":"Polygon"},"id":"physical-component:6d999c2471198d9137fa2671633afc9fd9bdcd383ab4391be78ffc8c2f7684d6","properties":{"administrative_assignment":null,"dateline_connected":false,"diagnostic_nearby_locations":[],"fragment_bindings":[{"feature_sha256":"1deb2cb4bfa3512bd8a942069a4028510706a018d3854e1a4a50c128574029b3","id":"physical-gap:1040:11:9819ec2fc02a0a0fc8eb58e1afa86d3d619ed9d3bdcce7ad1b80f02b672b035b"}],"measured_fragment_area_sum_m2":1851926.2808927374,"measured_fragment_count":1,"positive_area_input_overlap":false,"touches_blocked_tile":false,"touches_domain_boundary":false,"touches_reference_shore":true,"unmeasured_fragment_ids":[],"water_status":"unverified"},"type":"Feature"},{"geometry":{"coordinates":[[[-16.313832,11.480536],[-16.319814,11.484524],[-16.332834,11.499172],[-16.336822,11.501899],[-16.339101,11.501288],[-16.34498203192537,11.50135661653121],[-16.3396,11.5047],[-16.308964563264464,11.483879800276819],[-16.309967,11.482652],[-16.313832,11.480536]]],"type":"Polygon"},"id":"physical-component:87bce46681af899d2001fe9f2bb42ed9566b6ce6b7d160960097c786a624ea20","properties":{"administrative_assignment":null,"dateline_connected":false,"diagnostic_nearby_locations":[],"fragment_bindings":[{"feature_sha256":"87544052e6a94ea0e220801cc74cad7b5208953661f778032f037a0d9b2a1078","id":"physical-gap:1040:27:49ce62d0ad0e438b2de9f6ba8a29d2c9b88f1eb3a80f8b2ceb9cb2183595becb"}],"measured_fragment_area_sum_m2":1525276.376495326,"measured_fragment_count":1,"positive_area_input_overlap":false,"touches_blocked_tile":false,"touches_domain_boundary":false,"touches_reference_shore":true,"unmeasured_fragment_ids":[],"water_status":"unverified"},"type":"Feature"},{"geometry":{"coordinates":[[[-16.248036,11.104682],[-16.234975,11.117865],[-16.218617,11.129584],[-16.20165,11.135647],[-16.186676,11.131985],[-16.200347,11.126288],[-16.206532,11.125149],[-16.205637,11.120754],[-16.204579,11.117621],[-16.202789,11.114691],[-16.199696,11.110826],[-16.190785,11.119574],[-16.179433,11.124661],[-16.17351511626119,11.129310853094653],[-16.1736,11.1275],[-16.2013,11.1052],[-16.2061,11.0923],[-16.2265,11.0837],[-16.2334,11.1018],[-16.241416895560125,11.0927183604983],[-16.248036,11.104682]]],"type":"Polygon"},"id":"physical-component:8c094e9de9be8171c826885e96678e13304571edf86a0c54c2cd5f58e7e6cc91","properties":{"administrative_assignment":null,"dateline_connected":false,"diagnostic_nearby_locations":[],"fragment_bindings":[{"feature_sha256":"f63863f90468e5a4d25faea9ca1bd8f50f89442b284d57aeebcb8b6e4fdc54a0","id":"physical-gap:1040:2:fa58b15e6287612e39c03718502413585f02842f872319c1441a0d8a2d0c6159"}],"measured_fragment_area_sum_m2":18963129.434653915,"measured_fragment_count":1,"positive_area_input_overlap":false,"touches_blocked_tile":false,"touches_domain_boundary":false,"touches_reference_shore":true,"unmeasured_fragment_ids":[],"water_status":"unverified"},"type":"Feature"},{"geometry":{"coordinates":[[[-16.173166,11.29914],[-16.158762,11.296454],[-16.154408,11.289211],[-16.151519,11.27619],[-16.15106977560205,11.271022539014998],[-16.165,11.288],[-16.180357335812474,11.298106117760467],[-16.173166,11.29914]]],"type":"Polygon"},"id":"physical-component:a2645bf2ae32d27f75cc01ccf84fb25f52a56ea0fc5462dd234d9b09a28cbdae","properties":{"administrative_assignment":null,"dateline_connected":false,"diagnostic_nearby_locations":[],"fragment_bindings":[{"feature_sha256":"741190727dfc7b29803e09534f669f423d5d44e1310b3ede8fa560a1fcbbf20e","id":"physical-gap:1040:13:8d369c25b2e97860e367b799fabf6123e6f782dfa699122606d0f90353180eff"}],"measured_fragment_area_sum_m2":3108921.433510367,"measured_fragment_count":1,"positive_area_input_overlap":false,"touches_blocked_tile":false,"touches_domain_boundary":false,"touches_reference_shore":true,"unmeasured_fragment_ids":[],"water_status":"unverified"},"type":"Feature"},{"geometry":{"coordinates":[[[-15.754994,11.271715],[-15.754018,11.275946],[-15.749257,11.277086],[-15.742543,11.275865],[-15.736684,11.275539],[-15.734202,11.279039],[-15.723541,11.299018],[-15.699534,11.305813],[-15.67394,11.304999],[-15.671271523720392,11.304599838773632],[-15.6846,11.3045],[-15.7062,11.2931],[-15.7317,11.2673],[-15.75469973603912,11.269886315699177],[-15.754994,11.271715]]],"type":"Polygon"},"id":"physical-component:a4aec54379a400260dfa9e2ca3df1203d24699c4649f8f28ae332cd3ffcf5242","properties":{"administrative_assignment":null,"dateline_connected":false,"diagnostic_nearby_locations":[],"fragment_bindings":[{"feature_sha256":"11d658a52f8b6c76fba0d92e1ec56ceb57efa607629436bc8176969bcf441ec0","id":"physical-gap:1040:104:bdf4e86b08a8d29fab7ca762fe4a846c9dc0ec5c3f6f49a07146ecd80b9bcbd4"}],"measured_fragment_area_sum_m2":9653115.944995837,"measured_fragment_count":1,"positive_area_input_overlap":false,"touches_blocked_tile":false,"touches_domain_boundary":false,"touches_reference_shore":true,"unmeasured_fragment_ids":[],"water_status":"unverified"},"type":"Feature"},{"geometry":{"coordinates":[[[-16.278228,11.230373],[-16.282826,11.230658],[-16.28230402921485,11.235949810595562],[-16.2618,11.2315],[-16.251932616116463,11.217904937760457],[-16.278228,11.230373]]],"type":"Polygon"},"id":"physical-component:ad97e6681e15f2ddeba063466cde1dd0e78d08f712ac37a304c614ddf91c0108","properties":{"administrative_assignment":null,"dateline_connected":false,"diagnostic_nearby_locations":[],"fragment_bindings":[{"feature_sha256":"e6a4fe9e645cf89d5335a2c48d153f903d02e81ca31d0627f1d05f87d44e13f8","id":"physical-gap:1040:17:2abd2bf0a0c6f0d5da6edfaa3c34a08bb39637965d537ebc58234a68ae816619"}],"measured_fragment_area_sum_m2":2145033.6447971715,"measured_fragment_count":1,"positive_area_input_overlap":false,"touches_blocked_tile":false,"touches_domain_boundary":false,"touches_reference_shore":true,"unmeasured_fragment_ids":[],"water_status":"unverified"},"type":"Feature"},{"geometry":{"coordinates":[[[-16.213124,11.055569],[-16.216530571397588,11.059520761562482],[-16.1969,11.0486],[-16.190445334716834,11.040898410741676],[-16.213124,11.055569]]],"type":"Polygon"},"id":"physical-component:afe2b405838b2e61a606a8c93ae5075a73aff81123ec82dbc0581948c8cd16dc","properties":{"administrative_assignment":null,"dateline_connected":false,"diagnostic_nearby_locations":[],"fragment_bindings":[{"feature_sha256":"393477cdc9a7b1cd5d3a9e3e8c49b0411f5eb715a3fa2193dd33af35cb8a2ce1","id":"physical-gap:1040:1:fe843ce907dfa8f333bbfeaad8910afe8965dee6b5fb3d1baae51a38529b9c86"}],"measured_fragment_area_sum_m2":727268.3519101295,"measured_fragment_count":1,"positive_area_input_overlap":false,"touches_blocked_tile":false,"touches_domain_boundary":false,"touches_reference_shore":true,"unmeasured_fragment_ids":[],"water_status":"unverified"},"type":"Feature"},{"geometry":{"coordinates":[[[-16.260884869440854,11.478763676324046],[-16.2611,11.4771],[-16.2508,11.4583],[-16.2328,11.4543],[-16.2207,11.4791],[-16.2012,11.4682],[-16.2037,11.5061],[-16.188,11.4998],[-16.1698,11.5084],[-16.167856030158976,11.515959882715087],[-16.165517,11.51557],[-16.160634,11.505561],[-16.164174,11.49608],[-16.193837,11.465033],[-16.199696,11.460354],[-16.203114,11.455959],[-16.205556,11.450263],[-16.208608,11.444648],[-16.213979,11.440416],[-16.222483,11.44009],[-16.254872,11.447252],[-16.275868,11.447008],[-16.287831,11.448717],[-16.302113,11.453518],[-16.290028,11.461575],[-16.27184,11.470893],[-16.260884869440854,11.478763676324046]]],"type":"Polygon"},"id":"physical-component:c31b9d3ed3d27472293bb0ccd2e7f882e16de77e949c0a48559671d64b63bb85","properties":{"administrative_assignment":null,"dateline_connected":false,"diagnostic_nearby_locations":[],"fragment_bindings":[{"feature_sha256":"496fc2d1caddd4874ccbc6ed6b5aa808097df94af3f402dc52e730fb6e2d4a1b","id":"physical-gap:1040:18:70d293e7240cae518991e49358a4ceb15cd5ee3768c8d91adcfad0801f4811c7"}],"measured_fragment_area_sum_m2":37589643.41897366,"measured_fragment_count":1,"positive_area_input_overlap":false,"touches_blocked_tile":false,"touches_domain_boundary":false,"touches_reference_shore":true,"unmeasured_fragment_ids":[],"water_status":"unverified"},"type":"Feature"},{"geometry":{"coordinates":[[[-16.262522,11.278632],[-16.261147128789734,11.28020095313825],[-16.262140414022713,11.2739537118045],[-16.262522,11.278632]]],"type":"Polygon"},"id":"physical-component:caf626fbd27b7331f702febf15f0c147183aa1897feb9e0ce9734df63cb5f4ec","properties":{"administrative_assignment":null,"dateline_connected":false,"diagnostic_nearby_locations":[],"fragment_bindings":[{"feature_sha256":"d236c32b8a75eaab1d3d03b0c48a97ffeee9adf861eafc5120ff471bc7094da1","id":"physical-gap:1040:10:5c63e5b9ed0df701f295c9c3d5e4713420f73fac71bb09c130429c8ed1b9c3fe"}],"measured_fragment_area_sum_m2":42457.13573214341,"measured_fragment_count":1,"positive_area_input_overlap":false,"touches_blocked_tile":false,"touches_domain_boundary":false,"touches_reference_shore":true,"unmeasured_fragment_ids":[],"water_status":"unverified"},"type":"Feature"},{"geometry":{"coordinates":[[[-16.153432,11.172187],[-16.144276,11.175767],[-16.138295,11.186591],[-16.133168,11.181383],[-16.12932698010411,11.17927481036257],[-16.13,11.1791],[-16.1483,11.1683],[-16.1606862877383,11.167035017422473],[-16.153432,11.172187]]],"type":"Polygon"},"id":"physical-component:cb29de16edddb4ce823b5b2a3e26ad9e29edb250cc1e72986031c5bf5e75dba1","properties":{"administrative_assignment":null,"dateline_connected":false,"diagnostic_nearby_locations":[],"fragment_bindings":[{"feature_sha256":"07f467e6c449b89d0b450b62e2058c3b154034dfc1f1f937b5c0c665afdc54e0","id":"physical-gap:1040:3:cd4f44e81f74bfcdb1501fb718274a1c16c98cef0b6d5b27d9b651eda879b4ac"}],"measured_fragment_area_sum_m2":2015665.2630160614,"measured_fragment_count":1,"positive_area_input_overlap":false,"touches_blocked_tile":false,"touches_domain_boundary":false,"touches_reference_shore":true,"unmeasured_fragment_ids":[],"water_status":"unverified"},"type":"Feature"},{"geometry":{"coordinates":[[[-15.720326,11.195624],[-15.722524,11.179999],[-15.723693011842323,11.176190954869433],[-15.7254,11.1841],[-15.720803887098713,11.202443045182616],[-15.720326,11.195624]]],"type":"Polygon"},"id":"physical-component:cd5d3662c7f59d0ee0562c38e5ef729715ee369bcf480db6dca656f54b3a6218","properties":{"administrative_assignment":null,"dateline_connected":false,"diagnostic_nearby_locations":[],"fragment_bindings":[{"feature_sha256":"8d758d12748dc217ff01ec412ef9043b8d11d2308ade4e9eb7cf0a40010b98b9","id":"physical-gap:1040:100:78903d9c5bb4247d60f41e282f201850dafe4b46ce40e1c182dca285bcb208c6"}],"measured_fragment_area_sum_m2":663286.6048754118,"measured_fragment_count":1,"positive_area_input_overlap":false,"touches_blocked_tile":false,"touches_domain_boundary":false,"touches_reference_shore":true,"unmeasured_fragment_ids":[],"water_status":"unverified"},"type":"Feature"},{"geometry":{"coordinates":[[[-15.95226,11.606757],[-15.939605,11.604926],[-15.938385,11.589057],[-15.931866320442667,11.580022965127972],[-15.9335,11.5799],[-15.9484,11.6043],[-15.954994800720366,11.603943524285386],[-15.95226,11.606757]]],"type":"Polygon"},"id":"physical-component:cddeea63e6ebfa59bfbe5c0564aa0a4e8fc8f52d7bca65e51eebf4d65128197a","properties":{"administrative_assignment":null,"dateline_connected":false,"diagnostic_nearby_locations":[],"fragment_bindings":[{"feature_sha256":"f094ea5401c4d8c59b833d9d34dd81f3502f0f368f721970b496660341727451","id":"physical-gap:1040:21:3e27ee7fa5ee7157e6bdc8bf90039d012bf382497c58d7e51bdbc6b51482e274"}],"measured_fragment_area_sum_m2":1295351.9036008304,"measured_fragment_count":1,"positive_area_input_overlap":false,"touches_blocked_tile":false,"touches_domain_boundary":false,"touches_reference_shore":true,"unmeasured_fragment_ids":[],"water_status":"unverified"},"type":"Feature"},{"geometry":{"coordinates":[[[-16.025543,11.096259],[-16.031361,11.108588],[-16.03246,11.121487],[-16.023151260582477,11.137099742047733],[-16.0157,11.1487],[-16.0155,11.1654],[-16.006,11.1737],[-16.0009,11.1944],[-16.008992772519296,11.198446386259647],[-15.981191,11.207099],[-15.977122,11.198798],[-15.974924,11.18537],[-15.97413417223424,11.16725527592192],[-15.9776,11.1661],[-15.974004508354986,11.164281430866808],[-15.973785,11.159247],[-15.971669,11.129869],[-15.974477,11.116197],[-15.984283,11.101264],[-15.997087638547084,11.085903265682573],[-16.0123,11.0954],[-15.9988,11.1163],[-15.9821,11.1181],[-15.9791,11.1357],[-15.9976,11.1488],[-16.0291,11.1118],[-16.0241,11.1031],[-16.024581103807442,11.09181592888002],[-16.025543,11.096259]]],"type":"Polygon"},"id":"physical-component:d276bc347ce22b20bee0a2d86601a95e729fba3aab59b240790ba104f230b4dc","properties":{"administrative_assignment":null,"dateline_connected":false,"diagnostic_nearby_locations":[],"fragment_bindings":[{"feature_sha256":"1c7d7309e8bbfab4ca55f4de8a34f6094d42698ad3f98c9ecaf843dddad14921","id":"physical-gap:1040:7:80a33635d027e67d5620bf9de36afc8fea43e2e3a315babc915474b9a379f75e"}],"measured_fragment_area_sum_m2":40613701.3427982,"measured_fragment_count":1,"positive_area_input_overlap":false,"touches_blocked_tile":false,"touches_domain_boundary":false,"touches_reference_shore":true,"unmeasured_fragment_ids":[],"water_status":"unverified"},"type":"Feature"},{"geometry":{"coordinates":[[[-16.421946,11.527981],[-16.426259,11.529242],[-16.41315370494469,11.535751738978536],[-16.4165,11.531],[-16.414714874301946,11.523937111368578],[-16.421946,11.527981]]],"type":"Polygon"},"id":"physical-component:d3caafaef120c8b47461ce642d824982141fc0f6198fc2da394f3f7b6cb05154","properties":{"administrative_assignment":null,"dateline_connected":false,"diagnostic_nearby_locations":[],"fragment_bindings":[{"feature_sha256":"cbd35cd83059ddd5307dafc249e9f6fa14feec7d8a5df1527057aa1bd6292a9d","id":"physical-gap:1040:29:bd9675a89f18a8414966768f5711828978e076e999894a3c10d7745532b4bd7d"}],"measured_fragment_area_sum_m2":628888.7549331315,"measured_fragment_count":1,"positive_area_input_overlap":false,"touches_blocked_tile":false,"touches_domain_boundary":false,"touches_reference_shore":true,"unmeasured_fragment_ids":[],"water_status":"unverified"},"type":"Feature"},{"geometry":{"coordinates":[[[-15.965688,11.426703],[-15.969454718416,11.436262379613485],[-15.9623,11.4357],[-15.960850408945543,11.427894509706764],[-15.965688,11.426703]]],"type":"Polygon"},"id":"physical-component:d7de26c005e9d120ffbbee70f1c5a37c4f2f906bbb67ebe7dcfebd3dded42f94","properties":{"administrative_assignment":null,"dateline_connected":false,"diagnostic_nearby_locations":[],"fragment_bindings":[{"feature_sha256":"5ef2dccd3c6ea0e3664bb85397868fa49cb5fcee8fd17415cccf2e915f2b34c0","id":"physical-gap:1040:24:e9b5371b60c8762dcc80f6c1d164cad5b8707273c3802a666d1e2a7c8255651b"}],"measured_fragment_area_sum_m2":638346.259487875,"measured_fragment_count":1,"positive_area_input_overlap":false,"touches_blocked_tile":false,"touches_domain_boundary":false,"touches_reference_shore":true,"unmeasured_fragment_ids":[],"water_status":"unverified"},"type":"Feature"},{"geometry":{"coordinates":[[[-15.880767,11.08218],[-15.877553,11.073635],[-15.88268,11.060614],[-15.894643,11.054348],[-15.908274,11.053371],[-15.916213979064109,11.055594849818487],[-15.9124,11.057],[-15.9069,11.0802],[-15.8979,11.0937],[-15.9162,11.1279],[-15.9261,11.1297],[-15.9115,11.1068],[-15.9254,11.0864],[-15.9249,11.0724],[-15.9492,11.0671],[-15.952879971972546,11.054540095658918],[-15.963246,11.05622],[-15.965566,11.053941],[-15.971791,11.049791],[-15.978179,11.048082],[-15.981191,11.052883],[-15.981435,11.06094],[-15.981028,11.06623],[-15.977895,11.069037],[-15.970326,11.069892],[-15.95995,11.072577],[-15.931874,11.085517],[-15.925933,11.090399],[-15.930491,11.10163],[-15.941762,11.105373],[-15.951894,11.099921],[-15.953277,11.083564],[-15.960561,11.090277],[-15.966949,11.097846],[-15.958079,11.112698],[-15.953481,11.124457],[-15.952382,11.13642],[-15.953277,11.151801],[-15.953819039197073,11.154071792026318],[-15.9517,11.153],[-15.9123,11.167],[-15.9408,11.1917],[-15.9377,11.1794],[-15.958231285753492,11.17255623808217],[-15.958648,11.174302],[-15.957143,11.187242],[-15.946401,11.200263],[-15.926991,11.185858],[-15.911692,11.166327],[-15.901601,11.142279],[-15.894846,11.098863],[-15.887807,11.089342],[-15.880767,11.08218]]],"type":"Polygon"},"id":"physical-component:dfdb1273d6ac41e3acd4fb9cb2fc123552bf3de45ebaef5892daa46e27d7128e","properties":{"administrative_assignment":null,"dateline_connected":false,"diagnostic_nearby_locations":[],"fragment_bindings":[{"feature_sha256":"346a27197b1c146d02cc278d31a0c60cb86d27ec17469d8b02cf5db10be4925b","id":"physical-gap:1040:96:efa70c51a365253669d6022aff81b7d68a4c6506f0c65f759ec0470cbb0c92b6"}],"measured_fragment_area_sum_m2":67854510.06606045,"measured_fragment_count":1,"positive_area_input_overlap":false,"touches_blocked_tile":false,"touches_domain_boundary":false,"touches_reference_shore":true,"unmeasured_fragment_ids":[],"water_status":"unverified"},"type":"Feature"},{"geometry":{"coordinates":[[[-15.775136,11.233791],[-15.760603858595562,11.248743594970026],[-15.775136,11.230695612903228],[-15.775136,11.233791]]],"type":"Polygon"},"id":"physical-component:e3f2ee019b052e6a33ce3088bc74d2b91dc82999ef35fb700b1236870bd45a87","properties":{"administrative_assignment":null,"dateline_connected":false,"diagnostic_nearby_locations":[],"fragment_bindings":[{"feature_sha256":"2b683651bfaeb1e3a69f55c392c635b0b3730d4961d2ba0e482d9709d7a73872","id":"physical-gap:1040:103:9d355ef8ff93e11fdbdb332cbfd30759c67cb4b716dd89fea211234fd9e02d30"}],"measured_fragment_area_sum_m2":271677.1856196578,"measured_fragment_count":1,"positive_area_input_overlap":false,"touches_blocked_tile":false,"touches_domain_boundary":false,"touches_reference_shore":true,"unmeasured_fragment_ids":[],"water_status":"unverified"},"type":"Feature"},{"geometry":{"coordinates":[[[-16.238229407980768,11.215300935845644],[-16.2181,11.2201],[-16.206483362499213,11.217961613992392],[-16.238229407980768,11.215300935845644]]],"type":"Polygon"},"id":"physical-component:e8c67eee7f99988e389ea2905e0c4ad18faa6f7952703eb8f2b4b8e38b507906","properties":{"administrative_assignment":null,"dateline_connected":false,"diagnostic_nearby_locations":[],"fragment_bindings":[{"feature_sha256":"8389432a616cc8734acd45ec2da6fbec32c91dba489915821d06b411101fff91","id":"physical-gap:1040:16:dd8397425ed07f15a13c90668eb1403c9d1538d8ca4b208f7e5dbfb6d8031153"}],"measured_fragment_area_sum_m2":596713.5749343212,"measured_fragment_count":1,"positive_area_input_overlap":false,"touches_blocked_tile":false,"touches_domain_boundary":false,"touches_reference_shore":true,"unmeasured_fragment_ids":[],"water_status":"unverified"},"type":"Feature"},{"geometry":{"coordinates":[[[-15.918446,11.591254],[-15.909250309572302,11.581725245516063],[-15.921599938771095,11.58079570353336],[-15.918446,11.591254]]],"type":"Polygon"},"id":"physical-component:f1fdb8837c510836da5dc0004f5f7d6196a5cf3a236f66178acf3b93dcd45124","properties":{"administrative_assignment":null,"dateline_connected":false,"diagnostic_nearby_locations":[],"fragment_bindings":[{"feature_sha256":"97f51638218d85628d631c18633423e39b9ddbdab21d8ff538cbb941683d971f","id":"physical-gap:1040:22:b93881605a73f55420c701e606b74ad81658c1932985e245eec8bb7ca136d897"}],"measured_fragment_area_sum_m2":761438.4280825687,"measured_fragment_count":1,"positive_area_input_overlap":false,"touches_blocked_tile":false,"touches_domain_boundary":false,"touches_reference_shore":true,"unmeasured_fragment_ids":[],"water_status":"unverified"},"type":"Feature"},{"geometry":{"coordinates":[[[-16.248036,11.583808],[-16.244374,11.580878],[-16.242584,11.577826],[-16.241282,11.570217],[-16.244537,11.552151],[-16.252187,11.53734],[-16.25473683302627,11.533963076713592],[-16.245,11.5534],[-16.2461,11.58],[-16.250613230599235,11.582199588920206],[-16.248036,11.583808]]],"type":"Polygon"},"id":"physical-component:f5e9efe7987d597a2d1c757337b1153280af3987d239a5ee6f8d1b4429d87c61","properties":{"administrative_assignment":null,"dateline_connected":false,"diagnostic_nearby_locations":[],"fragment_bindings":[{"feature_sha256":"40b3eed37cb4b17a9bdd13269f5128452914045e7adb286f10ce1b004be9ae08","id":"physical-gap:1040:31:774ab60358440ced30ab7e49df939af3f9105767358fe63e143896032201eb49"}],"measured_fragment_area_sum_m2":1296345.0412094481,"measured_fragment_count":1,"positive_area_input_overlap":false,"touches_blocked_tile":false,"touches_domain_boundary":false,"touches_reference_shore":true,"unmeasured_fragment_ids":[],"water_status":"unverified"},"type":"Feature"},{"geometry":{"coordinates":[[[-16.02051120130261,11.076697154453193],[-16.0112,11.0755],[-16.00096908370337,11.081246996191314],[-16.005483,11.075832],[-16.017079,11.068671],[-16.02051120130261,11.076697154453193]]],"type":"Polygon"},"id":"physical-component:fb76d87cf13478fd5e1f2ebccc6ebc3be38da633ff8864c8efba7c1cb2630212","properties":{"administrative_assignment":null,"dateline_connected":false,"diagnostic_nearby_locations":[],"fragment_bindings":[{"feature_sha256":"7be4da321c6d9d051035f65da5121daddb85742ea91b18a7a8e93c0e19bd68fb","id":"physical-gap:1040:6:ea1e1ca0d307029bc52ccecce4a824eb26f48f90bdaf107ea0c55cf62e860521"}],"measured_fragment_area_sum_m2":828923.2242000942,"measured_fragment_count":1,"positive_area_input_overlap":false,"touches_blocked_tile":false,"touches_domain_boundary":false,"touches_reference_shore":true,"unmeasured_fragment_ids":[],"water_status":"unverified"},"type":"Feature"},{"geometry":{"coordinates":[[[-16.172963,11.220771],[-16.190472363158367,11.219303517067488],[-16.184,11.2218],[-16.17660140772848,11.232807661672265],[-16.172963,11.220771]]],"type":"Polygon"},"id":"physical-component:ff43ac7694999de1f87f95102ed19231b6c246fb1aa9dc815f47596f0bb7b274","properties":{"administrative_assignment":null,"dateline_connected":false,"diagnostic_nearby_locations":[],"fragment_bindings":[{"feature_sha256":"788e2edf12c8e94aedda6b47072d6c237f7f6811ac58100e1cd08cc374abd908","id":"physical-gap:1040:15:584e81de9511cac6ece3f968b1f4ef9f5498ac6bd3b38049c7b79362759ed085"}],"measured_fragment_area_sum_m2":986424.2475167967,"measured_fragment_count":1,"positive_area_input_overlap":false,"touches_blocked_tile":false,"touches_domain_boundary":false,"touches_reference_shore":true,"unmeasured_fragment_ids":[],"water_status":"unverified"},"type":"Feature"}],"type":"FeatureCollection"}
