{"features":[{"geometry":{"coordinates":[[[18.2609,69.2465],[18.3628,69.2793],[18.4536,69.2991],[18.4999,69.2954],[18.4897,69.2867],[18.5293,69.2653],[18.544,69.2957],[18.5337,69.3468],[18.564,69.3579],[18.589,69.3435],[18.5702,69.3188],[18.6127,69.2976],[18.6835,69.2793],[18.7139,69.2633],[18.7377,69.2586],[18.7649,69.2264],[19.0008,69.1397],[19.0342,69.1228],[19.1138,69.1066],[19.1436,69.0879],[19.2077,69.0661],[19.3127,69.0354],[19.3756,69.0549],[19.3991,69.0387],[19.4443,69.0433],[19.5614,69.0458],[19.6047,69.0423],[19.6328,69.0494],[19.7225,69.0523],[19.7863,69.033],[19.8278,69.0537],[19.8996,69.064],[19.934,69.0746],[19.9656,69.0738],[19.9743,69.0657],[20.06,69.0458],[20.2377,68.9561],[20.3064,68.9262],[20.3359,68.8023],[20.2027,68.6659],[20.0521,68.5911],[19.9375,68.5579],[19.729,68.5616],[19.5922,68.5951],[19.4582,68.6487],[19.2435,68.7274],[19.2176,68.7491],[19.2344,68.7641],[19.1721,68.7763],[19.1494,68.7588],[19.1172,68.7505],[19.0261,68.757],[19.0029,68.8003],[18.9341,68.797],[18.9045,68.8095],[18.8636,68.8018],[18.8344,68.8152],[18.8599,68.835],[18.794,68.8407],[18.7432,68.8517],[18.7027,68.8697],[18.692,68.8831],[18.6457,68.8968],[18.5955,68.8999],[18.5925,68.9236],[18.5678,68.932],[18.5855,68.9477],[18.5763,69.002],[18.5842,69.0433],[18.5272,69.0485],[18.5037,69.024],[18.4374,69.0384],[18.3769,69.0467],[18.4524,69.0437],[18.4608,69.0585],[18.4297,69.0735],[18.4247,69.1066],[18.4459,69.1306],[18.3612,69.1336],[18.2331,69.1612],[18.1783,69.1808],[18.1972,69.1867],[18.2983,69.1828],[18.3424,69.1886],[18.3431,69.2072],[18.3108,69.2199],[18.2768,69.2174],[18.2609,69.2465]]],"type":"Polygon"},"id":"gb:NOR:ADM2:86288312B50158709887361","properties":{"id":"gb:NOR:ADM2:86288312B50158709887361","metadata":{"administrative_level":"ADM2","coverage_version":1,"framework_match":{"id":"NOR-900","overlap":0.99872,"source":"Natural Earth"},"framework_reference":"Modern geographic framework; historical attributes require dated evidence","geographic_area_code":"NOR","geographic_match":"largest source overlap","geographic_overlap":0.97773,"geographic_region_code":10,"granularity_version":3,"hierarchy_overlap":0.998811,"hierarchy_source":"gb:NOR:ADM1","hierarchy_version":4,"license":"Creative Commons Attribution 4.0 International (CC BY 4.0)","original_geometry_sha256":"c4ae7db7f376e8401409c163eb08d8cb6623e35ea0fed09daf8b8890b779ee42","original_id":"86288312B50158709887361","parent_match":"Named source administrative unit grouped within this geographic area","parent_source_level":"ADM1","reference_owner_id":"owner:Q20","reference_polity":"Norway","reference_polity_evidence":{"classification":"Sovereign country","note":null,"reference_territory":"Norway","source":"Natural Earth pinned administrative and sovereignty reference; dates vary","source_url":"https://github.com/nvkelso/natural-earth-vector/tree/ca96624a56bd078437bca8184e78163e5039ad19","uncertainty":false},"reference_polity_status":"reference","reference_version":3,"reference_year":"2013","regional_match":{"method":"reference-territory-constrained overlap","overlap":0.99872,"reference_iso":"NOR","source_id":"NOR-900"},"remote_version":1,"representative_point":[19.386211673811417,68.97905],"selection_reason":"Named local administrative territories at the reviewed country-specific district tier; subordinate wards, villages and electoral divisions are not substituted based on area.","semantic_review":{"continent":"Europe","decision_index":615,"evidence_file":"geographic-decisions","status":"open"},"semantic_version":1,"source_id":"gb:NOR:ADM2","source_name":"geoBoundaries gbOpen","source_role":"Municipality","source_url":"https://github.com/wmgeolab/geoBoundaries/raw/9469f09/releaseData/gbOpen/NOR/ADM2/geoBoundaries-NOR-ADM2.geojson","topology_conflicts":1,"topology_note":"Shared display coverage reconciled against Natural Earth reference borders, then finer source geometry. Original source boundaries may differ.","topology_reconciled":true,"topology_version":1},"name":"Målselv nor","parent_id":"framework:province:troms-og-finnmark:38859f82963b","reference_owner":"Norway"},"type":"Feature"},{"geometry":{"coordinates":[[[19.7318,69.3381],[19.7649,69.3565],[19.8175,69.3647],[19.8688,69.3814],[19.8904,69.4015],[20.1552,69.415],[20.1402,69.3964],[20.0561,69.3757],[19.969,69.3436],[19.984,69.3357],[19.932,69.3038],[19.9011,69.2742],[19.9583,69.2766],[19.9655,69.2948],[20.0652,69.351],[20.0903,69.3554],[20.1862,69.3873],[20.236,69.3797],[20.2669,69.3972],[20.2553,69.4174],[20.3209,69.4599],[20.3763,69.4577],[20.4737,69.4447],[20.4741,69.426],[20.4923,69.3993],[20.4823,69.3761],[20.5088,69.3535],[20.5519,69.3392],[20.5791,69.3395],[20.6985,69.3126],[20.8473,69.3085],[20.8666,69.285],[20.8431,69.2731],[20.9394,69.2473],[20.9673,69.2609],[21.032,69.2343],[21.0033,69.2223],[20.9876,69.1919],[21.0467,69.1395],[21.0556,69.1221],[21.1087,69.1039],[21.0575,69.0363],[20.7173,69.1198],[20.5523,69.0601],[20.06,69.0458],[19.9743,69.0657],[19.9656,69.0738],[19.9914,69.0915],[19.9539,69.1003],[19.9355,69.1429],[19.9198,69.2057],[19.8222,69.2305],[19.7124,69.2419],[19.6422,69.2821],[19.7436,69.3019],[19.7318,69.3381]]],"type":"Polygon"},"id":"gb:NOR:ADM2:86288312B64496782861055","properties":{"id":"gb:NOR:ADM2:86288312B64496782861055","metadata":{"administrative_level":"ADM2","coverage_version":1,"framework_match":{"id":"NOR-900","overlap":0.978963,"source":"Natural Earth"},"framework_reference":"Modern geographic framework; historical attributes require dated evidence","geographic_area_code":"NOR","geographic_match":"largest source overlap","geographic_overlap":0.99149,"geographic_region_code":10,"granularity_version":3,"hierarchy_overlap":0.997926,"hierarchy_source":"gb:NOR:ADM1","hierarchy_version":4,"license":"Creative Commons Attribution 4.0 International (CC BY 4.0)","original_geometry_sha256":"a0e651f2c5513de3fca0ce147407599fc15097065d9f947829cc643906521507","original_id":"86288312B64496782861055","parent_match":"Named source administrative unit grouped within this geographic area","parent_source_level":"ADM1","reference_owner_id":"owner:Q20","reference_polity":"Norway","reference_polity_evidence":{"classification":"Sovereign country","note":null,"reference_territory":"Norway","source":"Natural Earth pinned administrative and sovereignty reference; dates vary","source_url":"https://github.com/nvkelso/natural-earth-vector/tree/ca96624a56bd078437bca8184e78163e5039ad19","uncertainty":false},"reference_polity_status":"reference","reference_version":3,"reference_year":"2013","regional_match":{"method":"reference-territory-constrained overlap","overlap":0.978963,"reference_iso":"NOR","source_id":"NOR-900"},"remote_version":1,"representative_point":[20.30255706351962,69.2541],"selection_reason":"Named local administrative territories at the reviewed country-specific district tier; subordinate wards, villages and electoral divisions are not substituted based on area.","semantic_review":{"continent":"Europe","decision_index":615,"evidence_file":"geographic-decisions","status":"open"},"semantic_version":1,"source_id":"gb:NOR:ADM2","source_name":"geoBoundaries gbOpen","source_role":"Municipality","source_url":"https://github.com/wmgeolab/geoBoundaries/raw/9469f09/releaseData/gbOpen/NOR/ADM2/geoBoundaries-NOR-ADM2.geojson","topology_conflicts":2,"topology_note":"Shared display coverage reconciled against Natural Earth reference borders, then finer source geometry. Original source boundaries may differ.","topology_reconciled":true,"topology_version":1},"name":"Omasvuotna sme 2","parent_id":"framework:province:troms-og-finnmark:38859f82963b","reference_owner":"Norway"},"type":"Feature"},{"geometry":{"coordinates":[[[18.4057,68.5819],[18.1259,68.5365],[18.0233,68.6085],[18.0137,68.645],[18.0456,68.6552],[18.0514,68.7089],[17.9949,68.7259],[18.0107,68.7391],[17.9848,68.7574],[18.0365,68.7586],[18.0925,68.7688],[18.0975,68.7913],[18.1359,68.8347],[18.1201,68.8361],[18.0904,68.8643],[18.171,68.8783],[18.1443,68.9118],[18.2269,68.9954],[18.3681,69.0376],[18.3769,69.0467],[18.4374,69.0384],[18.5037,69.024],[18.5272,69.0485],[18.5842,69.0433],[18.5763,69.002],[18.5855,68.9477],[18.5678,68.932],[18.5925,68.9236],[18.5955,68.8999],[18.6457,68.8968],[18.692,68.8831],[18.7027,68.8697],[18.7432,68.8517],[18.794,68.8407],[18.8599,68.835],[18.8344,68.8152],[18.8636,68.8018],[18.9045,68.8095],[18.9341,68.797],[19.0029,68.8003],[19.0261,68.757],[19.1172,68.7505],[19.1494,68.7588],[19.1721,68.7763],[19.2344,68.7641],[19.2176,68.7491],[19.2435,68.7274],[19.4582,68.6487],[19.5922,68.5951],[19.729,68.5616],[19.9375,68.5579],[20.0258,68.5308],[20.2264,68.4908],[20.180603665279992,68.49993187133],[20.1855,68.4945],[20.1826920593434,68.49159687491436],[20.21223423974587,68.48495127966972],[19.9779,68.3882],[19.9214,68.356],[18.9838,68.517],[18.6212,68.507],[18.62860409315946,68.50720419451626],[18.58624246390095,68.52300587855962],[18.569118322868558,68.52601211665197],[18.556252804586677,68.53070860009558],[18.5373,68.5392],[18.4966,68.5526],[18.448144505578995,68.57074182984901],[18.436218,68.573852],[18.432633900803385,68.57333778372458],[18.4057,68.5819]]],"type":"Polygon"},"id":"gb:NOR:ADM2:86288312B82966611739072","properties":{"id":"gb:NOR:ADM2:86288312B82966611739072","metadata":{"administrative_level":"ADM2","coverage_version":1,"framework_match":{"id":"NOR-900","overlap":0.991028,"source":"Natural Earth"},"framework_reference":"Modern geographic framework; historical attributes require dated evidence","geographic_area_code":"NOR","geographic_match":"largest source overlap","geographic_overlap":0.99737,"geographic_region_code":10,"granularity_version":3,"hierarchy_overlap":0.999995,"hierarchy_source":"gb:NOR:ADM1","hierarchy_version":4,"license":"Creative Commons Attribution 4.0 International (CC BY 4.0)","original_geometry_sha256":"45e4f2bcfaac542fa6e98e72ca4d4150fd9b7984c6a907833706a413cd216f52","original_id":"86288312B82966611739072","parent_match":"Named source administrative unit grouped within this geographic area","parent_source_level":"ADM1","reference_owner_id":"owner:Q20","reference_polity":"Norway","reference_polity_evidence":{"classification":"Sovereign country","note":null,"reference_territory":"Norway","source":"Natural Earth pinned administrative and sovereignty reference; dates vary","source_url":"https://github.com/nvkelso/natural-earth-vector/tree/ca96624a56bd078437bca8184e78163e5039ad19","uncertainty":false},"reference_polity_status":"reference","reference_version":3,"reference_year":"2013","regional_match":{"method":"reference-territory-constrained overlap","overlap":0.991028,"reference_iso":"NOR","source_id":"NOR-900"},"remote_version":1,"representative_point":[18.70785924396442,68.68205],"selection_reason":"Named local administrative territories at the reviewed country-specific district tier; subordinate wards, villages and electoral divisions are not substituted based on area.","semantic_review":{"continent":"Europe","decision_index":615,"evidence_file":"geographic-decisions","status":"open"},"semantic_version":1,"source_id":"gb:NOR:ADM2","source_name":"geoBoundaries gbOpen","source_role":"Municipality","source_url":"https://github.com/wmgeolab/geoBoundaries/raw/9469f09/releaseData/gbOpen/NOR/ADM2/geoBoundaries-NOR-ADM2.geojson","topology_conflicts":1,"topology_note":"Shared display coverage reconciled against Natural Earth reference borders, then finer source geometry. Original source boundaries may differ.","topology_reconciled":true,"topology_version":1},"name":"Bardu nor","parent_id":"framework:province:troms-og-finnmark:38859f82963b","reference_owner":"Norway"},"type":"Feature"},{"geometry":{"coordinates":[[[23.1154,68.071],[23.0511,68.0157],[22.9803,67.9876],[22.9032,67.9394],[22.856,67.8902],[22.8003,67.8514],[22.7189,67.8312],[22.6353,67.815],[22.4681,67.7689],[22.4317,67.7527],[22.3416,67.699],[22.138,67.5464],[22.1145,67.5202],[22.0673,67.4883],[22.0609,67.462],[22.018,67.4307],[22.0094,67.4159],[21.9666,67.3995],[21.9558,67.3789],[21.9132,67.3698],[21.853,67.3937],[21.8637,67.4143],[21.8272,67.439],[21.7694,67.4587],[21.6858,67.4653],[21.5765,67.4669],[21.4993,67.4718],[21.4265,67.4874],[21.2979,67.494],[21.2271,67.4825],[21.1971,67.4948],[21.0471,67.5071],[20.9185,67.5522],[20.8306,67.5931],[20.7449,67.6249],[20.6463,67.6543],[20.6099,67.673],[20.5198,67.686],[20.4127,67.7072],[20.3162,67.7494],[20.2862,67.751],[20.2326,67.7348],[20.1469,67.7397],[20.1169,67.7502],[20.0397,67.7551],[19.9754,67.7648],[19.9283,67.7818],[19.7718,67.8199],[19.6261,67.8304],[19.5704,67.8417],[19.4825,67.8466],[19.4589,67.8587],[19.3903,67.8668],[19.1696,67.866],[19.1439,67.8595],[19.0924,67.87],[18.9874,67.8741],[18.9231,67.8652],[18.6316,67.8692],[18.458,67.8732],[18.3851,67.8652],[18.2994,67.8757],[18.218,67.8958],[18.1194,67.9281],[17.9629,67.9643],[17.90255750424601,67.97191419504783],[18.1514,68.1988],[18.1494,68.20650108695652],[18.1494,68.2178],[18.133508612567773,68.2676915651942],[18.131910321489002,68.27384585448392],[18.1258,68.317],[18.110036803874095,68.36263995157384],[18.10844836584985,68.37034681754332],[18.105854511231904,68.43101869821626],[18.1259,68.5365],[18.4057,68.5819],[18.43263390080337,68.57333778372458],[18.436218,68.573852],[18.448144505578995,68.57074182984901],[18.4966,68.5526],[18.5373,68.5392],[18.5652,68.5267],[18.58624246390095,68.52300587855962],[18.62860409315946,68.50720419451626],[18.9838,68.517],[19.07211811967863,68.50183445257224],[19.0731,68.5016],[19.074828369560677,68.5013690619675],[19.437000592571916,68.43917865251271],[19.4461,68.4371],[19.473930665802293,68.43283720435775],[19.62563578705636,68.40678715687278],[19.7568,68.3811],[19.849416283259153,68.36836068514855],[19.9214,68.356],[19.9779,68.3882],[20.21223423974588,68.48495127966972],[20.1826920593434,68.49159687491436],[20.1855,68.4945],[20.1791,68.5016],[20.1491,68.5063],[20.089,68.5212],[20.0269,68.5337],[19.9497,68.5549],[19.9497,68.5604],[19.95145675623269,68.56194331855956],[20.0521,68.5911],[20.2027,68.6659],[20.3359,68.8023],[20.318705825242716,68.87451553398058],[20.3205,68.8793],[20.3141,68.9194],[20.306570209118956,68.92548512170038],[20.3064,68.9262],[20.304851852944534,68.92687379325994],[20.2969,68.9333],[20.1769,68.9887],[20.0955,69.0348],[20.08884601713613,69.04663789974619],[20.55095942717649,69.06006105994034],[20.65373664257372,69.05678235970956],[20.63749698739537,69.0459318783384],[20.6624,69.0431],[20.7028,69.0445],[20.775,69.0326],[20.80106859121024,69.02263472136562],[20.818399005394458,69.00867557316252],[20.8204,69.0059],[20.83238226179459,68.9977721720694],[20.84373744261352,68.99364223322259],[20.8665,68.9872],[20.869685660182466,68.9871019796867],[20.9034,68.9696],[20.8924,68.9479],[20.8609,68.943],[20.8499,68.9341],[20.885774690690692,68.91478285885886],[20.885563939135075,68.91339869702905],[20.9148,68.897],[20.9569,68.8969],[20.9873,68.8923],[20.987833225430528,68.89303498640425],[21.0351,68.8783],[21.077149177153917,68.87041577928365],[21.078451900265712,68.8672712752207],[21.093898857357452,68.86197059924002],[21.099327842879905,68.8610102371801],[21.1023,68.8581],[21.153792912808456,68.84137905414339],[21.216617,68.817248],[21.217602615986976,68.81656735360949],[21.227635697892758,68.81502019611935],[21.2395,68.8095],[21.2532,68.7961],[21.262082689912823,68.79128854296388],[21.261,68.7903],[21.269,68.7813],[21.28201056445895,68.77323345003545],[21.288344,68.770015],[21.293718,68.768207],[21.297301799924558,68.76375288404677],[21.299,68.7627],[21.3257,68.7592],[21.3624,68.767],[21.379444363636377,68.76566079999999],[21.3972,68.7589],[21.410432797529,68.74595697175997],[21.40968127559782,68.745109801583],[21.4106251506185,68.744034136632],[21.4082,68.7311],[21.4013,68.7216],[21.4055,68.7101],[21.4356,68.6972],[21.453124933220696,68.69521853770118],[21.46363,68.686868],[21.481378122239345,68.68057010051066],[21.5012,68.6764],[21.5554,68.6771],[21.556107918367346,68.67696726530612],[21.5563,68.6758],[21.56898908930928,68.67290954685437],[21.5706,68.6715],[21.585979704301096,68.66903924731183],[21.6002,68.6658],[21.625879579006455,68.65761434184677],[21.6265,68.6549],[21.6692,68.6388],[21.677806710621372,68.63669803106937],[21.6825,68.6343],[21.688,68.6268],[21.6825,68.6088],[21.729476868466907,68.59969595572348],[21.734681945007864,68.59164924708169],[21.779,68.5854],[21.8395,68.5909],[21.851874226202035,68.58974306015185],[21.8732,68.5848],[21.9061,68.5728],[21.9692,68.5437],[21.9775,68.5241],[22.0117,68.4955],[22.036788031614485,68.49357736580151],[22.036722,68.492926],[22.038375,68.488275],[22.063435878851624,68.47992186805742],[22.1225,68.4809],[22.134184134990733,68.4767739193267],[22.186431448266774,68.47657501340454],[22.2045,68.48],[22.21358823266538,68.47647162731815],[22.231722303414085,68.47640259077178],[22.2518,68.4823],[22.2764,68.4792],[22.28551382871898,68.48142062831731],[22.3025,68.4804],[22.3341,68.4627],[22.37448758630678,68.4646627612037],[22.373962,68.456339],[22.374665210617692,68.45595137062949],[22.3974,68.4639],[22.399832644199947,68.46436254502393],[22.43854236815778,68.4613960054309],[22.4396,68.4588],[22.449942560130633,68.45199568412458],[22.456851,68.451792],[22.516542877358358,68.43921257456465],[22.5261,68.4355],[22.5522,68.4295],[22.5851,68.4229],[22.6359,68.4265],[22.6496,68.4244],[22.6606,68.4179],[22.704339307841252,68.40795071538376],[22.719057,68.398772],[22.748572487789428,68.3855105502442],[22.748721115430698,68.38550757769138],[22.768619674339615,68.38864576745475],[22.7689,68.3886],[22.7964,68.3876],[22.8307,68.382],[22.8348,68.3633],[22.870163067866883,68.35507495004936],[22.871217363413226,68.35422419611338],[22.8762,68.3522],[22.8936,68.3487],[22.917,68.3337],[22.9776,68.3242],[23.0356,68.3074],[23.04467545982865,68.30682148463244],[23.0501,68.2868],[23.0803,68.2594],[23.112295418754456,68.25181775232642],[23.113,68.2515],[23.115760235558078,68.25099666292763],[23.1187,68.2503],[23.1311,68.2381],[23.1297,68.2147],[23.142,68.206],[23.1434,68.1963],[23.1352,68.1902],[23.1311,68.1754],[23.1215,68.1647],[23.1228,68.1555],[23.15031179193486,68.1457562403564],[23.149832,68.144834],[23.149706809302014,68.14318924279112],[23.1545,68.1367],[23.1656,68.1332],[23.2014,68.14],[23.201842622950803,68.1402],[23.2111,68.1402],[23.2032,68.1198],[23.1754,68.107],[23.1582,68.087],[23.1154,68.071]]],"type":"Polygon"},"id":"gb:SWE:ADM2:70781695B94600430897975","properties":{"id":"gb:SWE:ADM2:70781695B94600430897975","metadata":{"administrative_level":"ADM2","coverage_version":1,"framework_match":{"id":"SWE-190","overlap":0.981354,"source":"Natural Earth"},"framework_reference":"Modern geographic framework; historical attributes require dated evidence","geographic_area_code":"SWE","geographic_match":"largest source overlap","geographic_overlap":0.96701,"geographic_region_code":10,"granularity_version":3,"hierarchy_overlap":0.990407,"hierarchy_source":"gb:SWE:ADM1","hierarchy_version":4,"license":"CC0 1.0 Universal (CC0 1.0) Public Domain Dedication","original_geometry_sha256":"84a43ab72d4daacc1763703822eef3a15890a73b52c17f301bf2303cee90f6ac","original_id":"70781695B94600430897975","parent_match":"Named source administrative unit grouped within this geographic area","parent_source_level":"ADM1","reference_owner_id":"owner:Q34","reference_polity":"Sweden","reference_polity_evidence":{"classification":"Sovereign country","note":null,"reference_territory":"Sweden","source":"Natural Earth pinned administrative and sovereignty reference; dates vary","source_url":"https://github.com/nvkelso/natural-earth-vector/tree/ca96624a56bd078437bca8184e78163e5039ad19","uncertainty":false},"reference_polity_status":"reference","reference_version":3,"reference_year":"2017","regional_match":{"method":"reference-territory-constrained overlap","overlap":0.981354,"reference_iso":"SWE","source_id":"SWE-190"},"remote_version":1,"representative_point":[20.639596367521367,68.21625],"search_aliases":["Kiruna"],"selection_reason":"Named Municipality territories at the reviewed country-specific district tier; subordinate wards, villages and electoral divisions are not substituted based on area.","semantic_review":{"continent":"Europe","decision_index":790,"evidence_file":"geographic-decisions","status":"open"},"semantic_version":1,"source_id":"gb:SWE:ADM2","source_name":"geoBoundaries gbOpen","source_role":"Municipality","source_url":"https://github.com/wmgeolab/geoBoundaries/raw/9469f09/releaseData/gbOpen/SWE/ADM2/geoBoundaries-SWE-ADM2.geojson","topology_conflicts":5,"topology_note":"Shared display coverage reconciled against Natural Earth reference borders, then finer source geometry. Original source boundaries may differ.","topology_reconciled":true,"topology_version":1},"name":"Kiruna","parent_id":"framework:province:norrbottens-lan:a6d0306eee4c","reference_owner":"Sweden"},"type":"Feature"}],"type":"FeatureCollection"}
