{"features":[{"geometry":{"coordinates":[[[20.306570209118956,68.92548512170038],[20.3141,68.9194],[20.3205,68.8793],[20.318705825242716,68.87451553398058],[20.306570209118956,68.92548512170038]]],"type":"Polygon"},"id":"physical-component:000bb4f5335601ba33572e2aca833ec87188059fcdd1f5d830826fa3783c2f05","properties":{"administrative_assignment":null,"dateline_connected":false,"diagnostic_nearby_locations":[],"fragment_bindings":[{"feature_sha256":"9e61f933d9b411ac097e9b1c94a4cd993f16522f2eb7d217a373bcc376edf813","id":"physical-gap:1840:208:402082636c7e541ef57970f94bf11a7a05d1c10be07561ccf12b5a27badf1dba"}],"measured_fragment_area_sum_m2":924598.8192988317,"measured_fragment_count":1,"positive_area_input_overlap":false,"touches_blocked_tile":false,"touches_domain_boundary":false,"touches_reference_shore":false,"unmeasured_fragment_ids":[],"water_status":"unverified"},"type":"Feature"},{"geometry":{"coordinates":[[[20.08884601713613,69.04663789974619],[20.0955,69.0348],[20.1769,68.9887],[20.2969,68.9333],[20.304851852944534,68.92687379325994],[20.2377,68.9561],[20.06,69.0458],[20.08884601713613,69.04663789974619]]],"type":"Polygon"},"id":"physical-component:2b3823b49787cb624b7298ab8394ef521dd10a907c12c2a2b0249a6796970eb5","properties":{"administrative_assignment":null,"dateline_connected":false,"diagnostic_nearby_locations":[],"fragment_bindings":[{"feature_sha256":"74b307c35f2eeac480f98a50ab071064c99a95b14f91fde61d590b09d4290428","id":"physical-gap:1840:207:8bac3528841b2a33243efc15b312be1e0c2020dfe765268734e22d34d457bd86"}],"measured_fragment_area_sum_m2":4843428.362685459,"measured_fragment_count":1,"positive_area_input_overlap":false,"touches_blocked_tile":false,"touches_domain_boundary":false,"touches_reference_shore":false,"unmeasured_fragment_ids":[],"water_status":"unverified"},"type":"Feature"},{"geometry":{"coordinates":[[[19.7568,68.3811],[19.62563578705636,68.40678715687278],[19.849416283259153,68.36836068514855],[19.7568,68.3811]]],"type":"Polygon"},"id":"physical-component:4d6cbd694c671b2f56683e931c11b97522823512c0542a6aa7aaa73843ed078b","properties":{"administrative_assignment":null,"dateline_connected":false,"diagnostic_nearby_locations":[],"fragment_bindings":[{"feature_sha256":"d71c3e8c2aca95b564f032d1ae91b02c63f8525488cda13a099da145aba367c9","id":"physical-gap:1839:334:4b4225a5c63aa6b84311dcb66d7d254770baf4057ee52ef08c38b70508df7757"}],"measured_fragment_area_sum_m2":1624083.0307754807,"measured_fragment_count":1,"positive_area_input_overlap":false,"touches_blocked_tile":false,"touches_domain_boundary":false,"touches_reference_shore":false,"unmeasured_fragment_ids":[],"water_status":"unverified"},"type":"Feature"},{"geometry":{"coordinates":[[[20.0269,68.5337],[20.089,68.5212],[20.1491,68.5063],[20.1791,68.5016],[20.180603665279992,68.49993187133],[20.0258,68.5308],[20.0,68.53871823329558],[19.9375,68.5579],[19.95145675623269,68.56194331855956],[19.9497,68.5604],[19.9497,68.5549],[20.0,68.54108704663213],[20.0269,68.5337]]],"type":"Polygon"},"id":"physical-component:9bdcd0999b59fbb4e5e8601729b4a4dadf0900ed8ead792d512aaa031e314ae9","properties":{"administrative_assignment":null,"dateline_connected":false,"diagnostic_nearby_locations":[],"fragment_bindings":[{"feature_sha256":"aa7e3a20f20f0113ab4c58cff999ba83a77374ca396d41b07349d8025ecf35f9","id":"physical-gap:1839:213:d02b3727a1143dee92eb8308fb3bd28a15f430ded33dfac92cb7997a77e7ed51"},{"feature_sha256":"93924d380c21800faaaea8af61dcd2b003788d0a043613dbb5bd33633e68bfe9","id":"physical-gap:1840:99:e8d4ea9d81f24b10d1fa772d37118b2baa73d355ff4d9b575db44a4019029c76"}],"measured_fragment_area_sum_m2":2300254.187448697,"measured_fragment_count":2,"positive_area_input_overlap":false,"touches_blocked_tile":false,"touches_domain_boundary":false,"touches_reference_shore":false,"unmeasured_fragment_ids":[],"water_status":"unverified"},"type":"Feature"}],"type":"FeatureCollection"}
