{"features":[{"geometry":{"coordinates":[[[20.0,68.53871823329558],[19.9375,68.5579],[19.95145675623269,68.56194331855956],[19.9497,68.5604],[19.9497,68.5549],[20.0,68.54108704663213],[20.0,68.53871823329558]]],"type":"Polygon"},"id":"physical-gap:1839:213:d02b3727a1143dee92eb8308fb3bd28a15f430ded33dfac92cb7997a77e7ed51","properties":{"administrative_assignment":null,"area_m2":562873.6559452834,"exact_location_contacts":[{"geometry":{"coordinates":[19.9375,68.5579],"type":"Point"},"id":"gb:NOR:ADM2:86288312B50158709887361","input_path":"data/geography/part-17.json","kind":"point-only-ambiguous","name":"Målselv nor","reference_year":"2013","source":"https://github.com/wmgeolab/geoBoundaries/raw/9469f09/releaseData/gbOpen/NOR/ADM2/geoBoundaries-NOR-ADM2.geojson"},{"geometry":{"coordinates":[[20.0,68.53871823329558],[19.9375,68.5579]],"type":"LineString"},"id":"gb:NOR:ADM2:86288312B82966611739072","input_path":"data/geography/part-17.json","kind":"positive-length-boundary","name":"Bardu nor","reference_year":"2013","source":"https://github.com/wmgeolab/geoBoundaries/raw/9469f09/releaseData/gbOpen/NOR/ADM2/geoBoundaries-NOR-ADM2.geojson"},{"geometry":{"coordinates":[[[19.95145675623269,68.56194331855956],[19.9497,68.5604]],[[19.9497,68.5604],[19.9497,68.5549]],[[19.9497,68.5549],[20.0,68.54108704663213]]],"type":"MultiLineString"},"id":"gb:SWE:ADM2:70781695B94600430897975","input_path":"data/geography/part-22.json","kind":"positive-length-boundary","name":"Kiruna","reference_year":"2017","source":"https://github.com/wmgeolab/geoBoundaries/raw/9469f09/releaseData/gbOpen/SWE/ADM2/geoBoundaries-SWE-ADM2.geojson"}],"original_planar_area":0.00012360273023349097,"status":"uncovered-physical-reference-candidate","tile":[15,65,20,70],"touches_reference_shore":false,"water_diagnostics":[],"water_status":"unverified"},"type":"Feature"},{"geometry":{"coordinates":[[[19.7568,68.3811],[19.62563578705636,68.40678715687278],[19.849416283259153,68.36836068514855],[19.7568,68.3811]]],"type":"Polygon"},"id":"physical-gap:1839:334:4b4225a5c63aa6b84311dcb66d7d254770baf4057ee52ef08c38b70508df7757","properties":{"administrative_assignment":null,"area_m2":1624083.0307754807,"exact_location_contacts":[{"geometry":{"coordinates":[[[19.62563578705636,68.40678715687278],[19.681299084460985,68.39722893280906]],[[19.681299084460985,68.39722893280906],[19.849416283259153,68.36836068514855]]],"type":"MultiLineString"},"id":"gb:NOR:ADM2:86288312B82966611739072","input_path":"data/geography/part-17.json","kind":"positive-length-boundary","name":"Bardu nor","reference_year":"2013","source":"https://github.com/wmgeolab/geoBoundaries/raw/9469f09/releaseData/gbOpen/NOR/ADM2/geoBoundaries-NOR-ADM2.geojson"},{"geometry":{"coordinates":[[[19.7568,68.3811],[19.62563578705636,68.40678715687278]],[[19.849416283259153,68.36836068514855],[19.7568,68.3811]]],"type":"MultiLineString"},"id":"gb:SWE:ADM2:70781695B94600430897975","input_path":"data/geography/part-22.json","kind":"positive-length-boundary","name":"Kiruna","reference_year":"2017","source":"https://github.com/wmgeolab/geoBoundaries/raw/9469f09/releaseData/gbOpen/SWE/ADM2/geoBoundaries-SWE-ADM2.geojson"}],"original_planar_area":0.0003540533955593686,"status":"uncovered-physical-reference-candidate","tile":[15,65,20,70],"touches_reference_shore":false,"water_diagnostics":[],"water_status":"unverified"},"type":"Feature"},{"geometry":{"coordinates":[[[20.08884601713613,69.04663789974619],[20.0955,69.0348],[20.1769,68.9887],[20.2969,68.9333],[20.304851852944534,68.92687379325994],[20.2377,68.9561],[20.06,69.0458],[20.08884601713613,69.04663789974619]]],"type":"Polygon"},"id":"physical-gap:1840:207:8bac3528841b2a33243efc15b312be1e0c2020dfe765268734e22d34d457bd86","properties":{"administrative_assignment":null,"area_m2":4843428.362685459,"exact_location_contacts":[{"geometry":{"coordinates":[[20.2377,68.9561],[20.06,69.0458]],"type":"LineString"},"id":"gb:NOR:ADM2:86288312B50158709887361","input_path":"data/geography/part-17.json","kind":"positive-length-boundary","name":"Målselv nor","reference_year":"2013","source":"https://github.com/wmgeolab/geoBoundaries/raw/9469f09/releaseData/gbOpen/NOR/ADM2/geoBoundaries-NOR-ADM2.geojson"},{"geometry":{"coordinates":[[20.06,69.0458],[20.08884601713613,69.04663789974619]],"type":"LineString"},"id":"gb:NOR:ADM2:86288312B64496782861055","input_path":"data/geography/part-17.json","kind":"positive-length-boundary","name":"Omasvuotna sme 2","reference_year":"2013","source":"https://github.com/wmgeolab/geoBoundaries/raw/9469f09/releaseData/gbOpen/NOR/ADM2/geoBoundaries-NOR-ADM2.geojson"},{"geometry":{"coordinates":[[[20.08884601713613,69.04663789974619],[20.0955,69.0348]],[[20.0955,69.0348],[20.1769,68.9887]],[[20.1769,68.9887],[20.2969,68.9333]],[[20.2969,68.9333],[20.304851852944534,68.92687379325994]]],"type":"MultiLineString"},"id":"gb:SWE:ADM2:70781695B94600430897975","input_path":"data/geography/part-22.json","kind":"positive-length-boundary","name":"Kiruna","reference_year":"2017","source":"https://github.com/wmgeolab/geoBoundaries/raw/9469f09/releaseData/gbOpen/SWE/ADM2/geoBoundaries-SWE-ADM2.geojson"}],"original_planar_area":0.0010851354106806447,"status":"uncovered-physical-reference-candidate","tile":[20,65,25,70],"touches_reference_shore":false,"water_diagnostics":[],"water_status":"unverified"},"type":"Feature"},{"geometry":{"coordinates":[[[20.306570209118956,68.92548512170038],[20.3141,68.9194],[20.3205,68.8793],[20.318705825242716,68.87451553398058],[20.306570209118956,68.92548512170038]]],"type":"Polygon"},"id":"physical-gap:1840:208:402082636c7e541ef57970f94bf11a7a05d1c10be07561ccf12b5a27badf1dba","properties":{"administrative_assignment":null,"area_m2":924598.8192988317,"exact_location_contacts":[{"geometry":{"coordinates":[[20.318705825242716,68.87451553398058],[20.306570209118956,68.92548512170038]],"type":"LineString"},"id":"gb:NOR:ADM2:86288312B50158709887361","input_path":"data/geography/part-17.json","kind":"positive-length-boundary","name":"Målselv nor","reference_year":"2013","source":"https://github.com/wmgeolab/geoBoundaries/raw/9469f09/releaseData/gbOpen/NOR/ADM2/geoBoundaries-NOR-ADM2.geojson"},{"geometry":{"coordinates":[[[20.306570209118956,68.92548512170038],[20.3141,68.9194]],[[20.3141,68.9194],[20.3205,68.8793]],[[20.3205,68.8793],[20.318705825242716,68.87451553398058]]],"type":"MultiLineString"},"id":"gb:SWE:ADM2:70781695B94600430897975","input_path":"data/geography/part-22.json","kind":"positive-length-boundary","name":"Kiruna","reference_year":"2017","source":"https://github.com/wmgeolab/geoBoundaries/raw/9469f09/releaseData/gbOpen/SWE/ADM2/geoBoundaries-SWE-ADM2.geojson"}],"original_planar_area":0.00020625531304608506,"status":"uncovered-physical-reference-candidate","tile":[20,65,25,70],"touches_reference_shore":false,"water_diagnostics":[],"water_status":"unverified"},"type":"Feature"},{"geometry":{"coordinates":[[[20.0,68.54108704663213],[20.0269,68.5337],[20.089,68.5212],[20.1491,68.5063],[20.1791,68.5016],[20.180603665279992,68.49993187133],[20.0258,68.5308],[20.0,68.53871823329558],[20.0,68.54108704663213]]],"type":"Polygon"},"id":"physical-gap:1840:99:e8d4ea9d81f24b10d1fa772d37118b2baa73d355ff4d9b575db44a4019029c76","properties":{"administrative_assignment":null,"area_m2":1737380.5315034136,"exact_location_contacts":[{"geometry":{"coordinates":[[[20.180603665279992,68.49993187133],[20.0258,68.5308]],[[20.0258,68.5308],[20.0,68.53871823329558]]],"type":"MultiLineString"},"id":"gb:NOR:ADM2:86288312B82966611739072","input_path":"data/geography/part-17.json","kind":"positive-length-boundary","name":"Bardu nor","reference_year":"2013","source":"https://github.com/wmgeolab/geoBoundaries/raw/9469f09/releaseData/gbOpen/NOR/ADM2/geoBoundaries-NOR-ADM2.geojson"},{"geometry":{"coordinates":[[[20.0,68.54108704663213],[20.0269,68.5337]],[[20.0269,68.5337],[20.089,68.5212]],[[20.089,68.5212],[20.1491,68.5063]],[[20.1491,68.5063],[20.1791,68.5016]],[[20.1791,68.5016],[20.180603665279992,68.49993187133]]],"type":"MultiLineString"},"id":"gb:SWE:ADM2:70781695B94600430897975","input_path":"data/geography/part-22.json","kind":"positive-length-boundary","name":"Kiruna","reference_year":"2017","source":"https://github.com/wmgeolab/geoBoundaries/raw/9469f09/releaseData/gbOpen/SWE/ADM2/geoBoundaries-SWE-ADM2.geojson"}],"original_planar_area":0.00038106911715551255,"status":"uncovered-physical-reference-candidate","tile":[20,65,25,70],"touches_reference_shore":false,"water_diagnostics":[],"water_status":"unverified"},"type":"Feature"}],"type":"FeatureCollection"}
