{"type":"FeatureCollection","stac_version":"1.0.0","stac_extensions":[],"context":{"limit":1000,"matched":7,"returned":7},"numberMatched":7,"numberReturned":7,"features":[{"type":"Feature","stac_version":"1.0.0","id":"S1B_IW_GRDH_1SDV_20200827T171320_20200827T171345_023111_02BE19","properties":{"sar:frequency_band":"C","sar:center_frequency":5.405,"sar:observation_direction":"right","sar:instrument_mode":"IW","sar:polarizations":["VV","VH"],"sar:product_type":"GRD","sar:resolution_range":20,"sar:resolution_azimuth":22,"sar:pixel_spacing_range":10,"sar:pixel_spacing_azimuth":10,"sar:looks_range":5,"sar:looks_azimuth":1,"sar:looks_equivalent_number":4.4,"sat:platform_international_designator":"2016-025A","sat:orbit_state":"ascending","sat:absolute_orbit":23111,"sat:relative_orbit":160,"proj:epsg":4326,"proj:bbox":[17.742334,-18.998434,20.503893,-16.938974],"proj:shape":[26011,16853],"proj:transform":[0.00016386156767341138,0,17.742334,0,-0.0000791765022490484,-16.938974],"proj:centroid":{"lat":-17.96811,"lon":19.11847},"platform":"sentinel-1b","constellation":"sentinel-1","start_datetime":"2020-08-27T17:13:20.060866Z","end_datetime":"2020-08-27T17:13:45.058707Z","s1:instrument_configuration_ID":"1","s1:datatake_id":"179737","s1:product_timeliness":"Fast-24h","s1:processing_level":"1","s1:resolution":"high","s1:orbit_source":"RESORB","s1:slice_number":"6","s1:total_slices":"13","s1:shape":[26011,16853],"s1:product_identifier":"S1B_IW_GRDH_1SDV_20200827T171320_20200827T171345_023111_02BE19_953A","s1:processing_datetime":"2020-08-28T07:48:14.000000Z","storage:platform":"AWS","storage:region":"eu-central-1","storage:requester_pays":true,"datetime":"2020-08-27T17:13:32.559786Z","processing:software":{"sentinel1-to-stac":"2023.05.15"},"created":"2023-05-16T18:30:56.177Z","updated":"2023-05-16T18:30:56.177Z"},"geometry":{"type":"Polygon","coordinates":[[[20.0646353,-16.9513628],[17.774191,-17.4860102],[18.1480729,-18.989706],[20.4537398,-18.4494893],[20.0646353,-16.9513628]]]},"links":[{"rel":"self","type":"application/geo+json","href":"https://earth-search.aws.element84.com/v1/collections/sentinel-1-grd/items/S1B_IW_GRDH_1SDV_20200827T171320_20200827T171345_023111_02BE19"},{"rel":"canonical","href":"s3://earthsearch-data/sentinel-1-grd/2020/8/27/IW/S1B_IW_GRDH_1SDV_20200827T171320_20200827T171345_023111_02BE19/S1B_IW_GRDH_1SDV_20200827T171320_20200827T171345_023111_02BE19.json","type":"application/json"},{"rel":"parent","type":"application/json","href":"https://earth-search.aws.element84.com/v1/collections/sentinel-1-grd"},{"rel":"collection","type":"application/json","href":"https://earth-search.aws.element84.com/v1/collections/sentinel-1-grd"},{"rel":"root","type":"application/json","href":"https://earth-search.aws.element84.com/v1"},{"rel":"thumbnail","href":"https://earth-search.aws.element84.com/v1/collections/sentinel-1-grd/items/S1B_IW_GRDH_1SDV_20200827T171320_20200827T171345_023111_02BE19/thumbnail"}],"assets":{"safe-manifest":{"href":"s3://sentinel-s1-l1c/GRD/2020/8/27/IW/DV/S1B_IW_GRDH_1SDV_20200827T171320_20200827T171345_023111_02BE19_953A/manifest.safe","type":"application/xml","title":"Manifest File","description":"General product metadata in XML format. Contains a high-level textual description of the product and references to all of product's components, the product metadata, including the product identification and the resource references, and references to the physical location of each component file contained in the product.","roles":["metadata"]},"schema-product-vh":{"href":"s3://sentinel-s1-l1c/GRD/2020/8/27/IW/DV/S1B_IW_GRDH_1SDV_20200827T171320_20200827T171345_023111_02BE19_953A/annotation/iw-vh.xml","type":"application/xml","title":"VH Product Schema","description":"Describes the main characteristics corresponding to the band: state of the platform during acquisition, image properties, Doppler information, geographic location, etc.","roles":["metadata"]},"schema-product-vv":{"href":"s3://sentinel-s1-l1c/GRD/2020/8/27/IW/DV/S1B_IW_GRDH_1SDV_20200827T171320_20200827T171345_023111_02BE19_953A/annotation/iw-vv.xml","type":"application/xml","title":"VV Product Schema","description":"Describes the main characteristics corresponding to the band: state of the platform during acquisition, image properties, Doppler information, geographic location, etc.","roles":["metadata"]},"schema-calibration-vh":{"href":"s3://sentinel-s1-l1c/GRD/2020/8/27/IW/DV/S1B_IW_GRDH_1SDV_20200827T171320_20200827T171345_023111_02BE19_953A/annotation/calibration/calibration-iw-vh.xml","type":"application/xml","title":"VH Calibration Schema","description":"Calibration metadata including calibration information and the beta nought, sigma nought, gamma and digital number look-up tables that can be used for absolute product calibration.","roles":["metadata"]},"schema-calibration-vv":{"href":"s3://sentinel-s1-l1c/GRD/2020/8/27/IW/DV/S1B_IW_GRDH_1SDV_20200827T171320_20200827T171345_023111_02BE19_953A/annotation/calibration/calibration-iw-vv.xml","type":"application/xml","title":"VV Calibration Schema","description":"Calibration metadata including calibration information and the beta nought, sigma nought, gamma and digital number look-up tables that can be used for absolute product calibration.","roles":["metadata"]},"schema-noise-vh":{"href":"s3://sentinel-s1-l1c/GRD/2020/8/27/IW/DV/S1B_IW_GRDH_1SDV_20200827T171320_20200827T171345_023111_02BE19_953A/annotation/calibration/noise-iw-vh.xml","type":"application/xml","title":"VH Noise Schema","description":"Estimated thermal noise look-up tables","roles":["metadata"]},"schema-noise-vv":{"href":"s3://sentinel-s1-l1c/GRD/2020/8/27/IW/DV/S1B_IW_GRDH_1SDV_20200827T171320_20200827T171345_023111_02BE19_953A/annotation/calibration/noise-iw-vv.xml","type":"application/xml","title":"VV Noise Schema","description":"Estimated thermal noise look-up tables","roles":["metadata"]},"thumbnail":{"href":"s3://sentinel-s1-l1c/GRD/2020/8/27/IW/DV/S1B_IW_GRDH_1SDV_20200827T171320_20200827T171345_023111_02BE19_953A/preview/quick-look.png","type":"image/png","title":"Preview Image","description":"An averaged, decimated preview image in PNG format. Single polarization products are represented with a grey scale image. Dual polarization products are represented by a single composite colour image in RGB with the red channel (R) representing the  co-polarization VV or HH), the green channel (G) represents the cross-polarization (VH or HV) and the blue channel (B) represents the ratio of the cross an co-polarizations.","roles":["thumbnail"]},"vh":{"href":"s3://sentinel-s1-l1c/GRD/2020/8/27/IW/DV/S1B_IW_GRDH_1SDV_20200827T171320_20200827T171345_023111_02BE19_953A/measurement/iw-vh.tiff","type":"image/tiff; application=geotiff; profile=cloud-optimized","title":"VH Data","description":"Actual SAR data that have been processed into an image","raster:bands":[{"nodata":0,"data_type":"uint16"}],"roles":["data"]},"vv":{"href":"s3://sentinel-s1-l1c/GRD/2020/8/27/IW/DV/S1B_IW_GRDH_1SDV_20200827T171320_20200827T171345_023111_02BE19_953A/measurement/iw-vv.tiff","type":"image/tiff; application=geotiff; profile=cloud-optimized","title":"VV Data","description":"Actual SAR data that have been processed into an image","raster:bands":[{"nodata":0,"data_type":"uint16"}],"roles":["data"]}},"bbox":[17.742334,-18.998434,20.503893,-16.938974],"stac_extensions":["https://stac-extensions.github.io/raster/v1.1.0/schema.json","https://stac-extensions.github.io/sar/v1.0.0/schema.json","https://stac-extensions.github.io/sat/v1.0.0/schema.json","https://stac-extensions.github.io/processing/v1.1.0/schema.json","https://stac-extensions.github.io/projection/v1.1.0/schema.json","https://stac-extensions.github.io/storage/v1.0.0/schema.json"],"collection":"sentinel-1-grd"},{"type":"Feature","stac_version":"1.0.0","id":"S1B_IW_GRDH_1SDV_20200822T170518_20200822T170543_023038_02BBEB","properties":{"sar:frequency_band":"C","sar:center_frequency":5.405,"sar:observation_direction":"right","sar:instrument_mode":"IW","sar:polarizations":["VV","VH"],"sar:product_type":"GRD","sar:resolution_range":20,"sar:resolution_azimuth":22,"sar:pixel_spacing_range":10,"sar:pixel_spacing_azimuth":10,"sar:looks_range":5,"sar:looks_azimuth":1,"sar:looks_equivalent_number":4.4,"sat:platform_international_designator":"2016-025A","sat:orbit_state":"ascending","sat:absolute_orbit":23038,"sat:relative_orbit":87,"proj:epsg":4326,"proj:bbox":[19.612249,-18.212944,22.353912,-16.156475],"proj:shape":[25971,16854],"proj:transform":[0.0001626713539812509,0,19.612249,0,-0.00007918328135227754,-16.156475],"proj:centroid":{"lat":-17.18412,"lon":20.97864},"platform":"sentinel-1b","constellation":"sentinel-1","start_datetime":"2020-08-22T17:05:18.952138Z","end_datetime":"2020-08-22T17:05:43.951354Z","s1:instrument_configuration_ID":"1","s1:datatake_id":"179179","s1:product_timeliness":"Fast-24h","s1:processing_level":"1","s1:resolution":"high","s1:orbit_source":"RESORB","s1:slice_number":"6","s1:total_slices":"12","s1:shape":[25971,16854],"s1:product_identifier":"S1B_IW_GRDH_1SDV_20200822T170518_20200822T170543_023038_02BBEB_EE25","s1:processing_datetime":"2020-08-22T20:01:38.000000Z","storage:platform":"AWS","storage:region":"eu-central-1","storage:requester_pays":true,"datetime":"2020-08-22T17:05:31.451746Z","processing:software":{"sentinel1-to-stac":"2023.05.15"},"created":"2023-05-16T18:40:18.263Z","updated":"2023-05-16T18:40:18.263Z"},"geometry":{"type":"Polygon","coordinates":[[[21.9221183,-16.1688583],[19.6442075,-16.6993205],[20.0111939,-18.2039649],[22.3091221,-17.6668302],[21.9221183,-16.1688583]]]},"links":[{"rel":"self","type":"application/geo+json","href":"https://earth-search.aws.element84.com/v1/collections/sentinel-1-grd/items/S1B_IW_GRDH_1SDV_20200822T170518_20200822T170543_023038_02BBEB"},{"rel":"canonical","href":"s3://earthsearch-data/sentinel-1-grd/2020/8/22/IW/S1B_IW_GRDH_1SDV_20200822T170518_20200822T170543_023038_02BBEB/S1B_IW_GRDH_1SDV_20200822T170518_20200822T170543_023038_02BBEB.json","type":"application/json"},{"rel":"parent","type":"application/json","href":"https://earth-search.aws.element84.com/v1/collections/sentinel-1-grd"},{"rel":"collection","type":"application/json","href":"https://earth-search.aws.element84.com/v1/collections/sentinel-1-grd"},{"rel":"root","type":"application/json","href":"https://earth-search.aws.element84.com/v1"},{"rel":"thumbnail","href":"https://earth-search.aws.element84.com/v1/collections/sentinel-1-grd/items/S1B_IW_GRDH_1SDV_20200822T170518_20200822T170543_023038_02BBEB/thumbnail"}],"assets":{"safe-manifest":{"href":"s3://sentinel-s1-l1c/GRD/2020/8/22/IW/DV/S1B_IW_GRDH_1SDV_20200822T170518_20200822T170543_023038_02BBEB_EE25/manifest.safe","type":"application/xml","title":"Manifest File","description":"General product metadata in XML format. Contains a high-level textual description of the product and references to all of product's components, the product metadata, including the product identification and the resource references, and references to the physical location of each component file contained in the product.","roles":["metadata"]},"schema-product-vh":{"href":"s3://sentinel-s1-l1c/GRD/2020/8/22/IW/DV/S1B_IW_GRDH_1SDV_20200822T170518_20200822T170543_023038_02BBEB_EE25/annotation/iw-vh.xml","type":"application/xml","title":"VH Product Schema","description":"Describes the main characteristics corresponding to the band: state of the platform during acquisition, image properties, Doppler information, geographic location, etc.","roles":["metadata"]},"schema-product-vv":{"href":"s3://sentinel-s1-l1c/GRD/2020/8/22/IW/DV/S1B_IW_GRDH_1SDV_20200822T170518_20200822T170543_023038_02BBEB_EE25/annotation/iw-vv.xml","type":"application/xml","title":"VV Product Schema","description":"Describes the main characteristics corresponding to the band: state of the platform during acquisition, image properties, Doppler information, geographic location, etc.","roles":["metadata"]},"schema-calibration-vh":{"href":"s3://sentinel-s1-l1c/GRD/2020/8/22/IW/DV/S1B_IW_GRDH_1SDV_20200822T170518_20200822T170543_023038_02BBEB_EE25/annotation/calibration/calibration-iw-vh.xml","type":"application/xml","title":"VH Calibration Schema","description":"Calibration metadata including calibration information and the beta nought, sigma nought, gamma and digital number look-up tables that can be used for absolute product calibration.","roles":["metadata"]},"schema-calibration-vv":{"href":"s3://sentinel-s1-l1c/GRD/2020/8/22/IW/DV/S1B_IW_GRDH_1SDV_20200822T170518_20200822T170543_023038_02BBEB_EE25/annotation/calibration/calibration-iw-vv.xml","type":"application/xml","title":"VV Calibration Schema","description":"Calibration metadata including calibration information and the beta nought, sigma nought, gamma and digital number look-up tables that can be used for absolute product calibration.","roles":["metadata"]},"schema-noise-vh":{"href":"s3://sentinel-s1-l1c/GRD/2020/8/22/IW/DV/S1B_IW_GRDH_1SDV_20200822T170518_20200822T170543_023038_02BBEB_EE25/annotation/calibration/noise-iw-vh.xml","type":"application/xml","title":"VH Noise Schema","description":"Estimated thermal noise look-up tables","roles":["metadata"]},"schema-noise-vv":{"href":"s3://sentinel-s1-l1c/GRD/2020/8/22/IW/DV/S1B_IW_GRDH_1SDV_20200822T170518_20200822T170543_023038_02BBEB_EE25/annotation/calibration/noise-iw-vv.xml","type":"application/xml","title":"VV Noise Schema","description":"Estimated thermal noise look-up tables","roles":["metadata"]},"thumbnail":{"href":"s3://sentinel-s1-l1c/GRD/2020/8/22/IW/DV/S1B_IW_GRDH_1SDV_20200822T170518_20200822T170543_023038_02BBEB_EE25/preview/quick-look.png","type":"image/png","title":"Preview Image","description":"An averaged, decimated preview image in PNG format. Single polarization products are represented with a grey scale image. Dual polarization products are represented by a single composite colour image in RGB with the red channel (R) representing the  co-polarization VV or HH), the green channel (G) represents the cross-polarization (VH or HV) and the blue channel (B) represents the ratio of the cross an co-polarizations.","roles":["thumbnail"]},"vh":{"href":"s3://sentinel-s1-l1c/GRD/2020/8/22/IW/DV/S1B_IW_GRDH_1SDV_20200822T170518_20200822T170543_023038_02BBEB_EE25/measurement/iw-vh.tiff","type":"image/tiff; application=geotiff; profile=cloud-optimized","title":"VH Data","description":"Actual SAR data that have been processed into an image","raster:bands":[{"nodata":0,"data_type":"uint16"}],"roles":["data"]},"vv":{"href":"s3://sentinel-s1-l1c/GRD/2020/8/22/IW/DV/S1B_IW_GRDH_1SDV_20200822T170518_20200822T170543_023038_02BBEB_EE25/measurement/iw-vv.tiff","type":"image/tiff; application=geotiff; profile=cloud-optimized","title":"VV Data","description":"Actual SAR data that have been processed into an image","raster:bands":[{"nodata":0,"data_type":"uint16"}],"roles":["data"]}},"bbox":[19.612249,-18.212944,22.353912,-16.156475],"stac_extensions":["https://stac-extensions.github.io/storage/v1.0.0/schema.json","https://stac-extensions.github.io/projection/v1.1.0/schema.json","https://stac-extensions.github.io/processing/v1.1.0/schema.json","https://stac-extensions.github.io/sat/v1.0.0/schema.json","https://stac-extensions.github.io/sar/v1.0.0/schema.json","https://stac-extensions.github.io/raster/v1.1.0/schema.json"],"collection":"sentinel-1-grd"},{"type":"Feature","stac_version":"1.0.0","id":"S1B_IW_GRDH_1SDV_20200822T170453_20200822T170518_023038_02BBEB","properties":{"sar:frequency_band":"C","sar:center_frequency":5.405,"sar:observation_direction":"right","sar:instrument_mode":"IW","sar:polarizations":["VV","VH"],"sar:product_type":"GRD","sar:resolution_range":20,"sar:resolution_azimuth":22,"sar:pixel_spacing_range":10,"sar:pixel_spacing_azimuth":10,"sar:looks_range":5,"sar:looks_azimuth":1,"sar:looks_equivalent_number":4.4,"sat:platform_international_designator":"2016-025A","sat:orbit_state":"ascending","sat:absolute_orbit":23038,"sat:relative_orbit":87,"proj:epsg":4326,"proj:bbox":[19.972963,-19.717566,22.745358,-17.656143],"proj:shape":[25986,16853],"proj:transform":[0.00016450453925117187,0,19.972963,0,-0.00007932821519279617,-17.656143],"proj:centroid":{"lat":-18.68628,"lon":21.35433},"platform":"sentinel-1b","constellation":"sentinel-1","start_datetime":"2020-08-22T17:04:53.952921Z","end_datetime":"2020-08-22T17:05:18.950653Z","s1:instrument_configuration_ID":"1","s1:datatake_id":"179179","s1:product_timeliness":"Fast-24h","s1:processing_level":"1","s1:resolution":"high","s1:orbit_source":"RESORB","s1:slice_number":"5","s1:total_slices":"12","s1:shape":[25986,16853],"s1:product_identifier":"S1B_IW_GRDH_1SDV_20200822T170453_20200822T170518_023038_02BBEB_541A","s1:processing_datetime":"2020-08-22T20:02:55.000000Z","storage:platform":"AWS","storage:region":"eu-central-1","storage:requester_pays":true,"datetime":"2020-08-22T17:05:06.451787Z","processing:software":{"sentinel1-to-stac":"2023.05.15"},"created":"2023-05-16T18:36:58.046Z","updated":"2023-05-16T18:36:58.046Z"},"geometry":{"type":"Polygon","coordinates":[[[22.3074775,-17.6671865],[20.0114079,-18.2042005],[20.3885078,-19.7073935],[22.7013126,-19.1644292],[22.3074775,-17.6671865]]]},"links":[{"rel":"self","type":"application/geo+json","href":"https://earth-search.aws.element84.com/v1/collections/sentinel-1-grd/items/S1B_IW_GRDH_1SDV_20200822T170453_20200822T170518_023038_02BBEB"},{"rel":"canonical","href":"s3://earthsearch-data/sentinel-1-grd/2020/8/22/IW/S1B_IW_GRDH_1SDV_20200822T170453_20200822T170518_023038_02BBEB/S1B_IW_GRDH_1SDV_20200822T170453_20200822T170518_023038_02BBEB.json","type":"application/json"},{"rel":"parent","type":"application/json","href":"https://earth-search.aws.element84.com/v1/collections/sentinel-1-grd"},{"rel":"collection","type":"application/json","href":"https://earth-search.aws.element84.com/v1/collections/sentinel-1-grd"},{"rel":"root","type":"application/json","href":"https://earth-search.aws.element84.com/v1"},{"rel":"thumbnail","href":"https://earth-search.aws.element84.com/v1/collections/sentinel-1-grd/items/S1B_IW_GRDH_1SDV_20200822T170453_20200822T170518_023038_02BBEB/thumbnail"}],"assets":{"safe-manifest":{"href":"s3://sentinel-s1-l1c/GRD/2020/8/22/IW/DV/S1B_IW_GRDH_1SDV_20200822T170453_20200822T170518_023038_02BBEB_541A/manifest.safe","type":"application/xml","title":"Manifest File","description":"General product metadata in XML format. Contains a high-level textual description of the product and references to all of product's components, the product metadata, including the product identification and the resource references, and references to the physical location of each component file contained in the product.","roles":["metadata"]},"schema-product-vh":{"href":"s3://sentinel-s1-l1c/GRD/2020/8/22/IW/DV/S1B_IW_GRDH_1SDV_20200822T170453_20200822T170518_023038_02BBEB_541A/annotation/iw-vh.xml","type":"application/xml","title":"VH Product Schema","description":"Describes the main characteristics corresponding to the band: state of the platform during acquisition, image properties, Doppler information, geographic location, etc.","roles":["metadata"]},"schema-product-vv":{"href":"s3://sentinel-s1-l1c/GRD/2020/8/22/IW/DV/S1B_IW_GRDH_1SDV_20200822T170453_20200822T170518_023038_02BBEB_541A/annotation/iw-vv.xml","type":"application/xml","title":"VV Product Schema","description":"Describes the main characteristics corresponding to the band: state of the platform during acquisition, image properties, Doppler information, geographic location, etc.","roles":["metadata"]},"schema-calibration-vh":{"href":"s3://sentinel-s1-l1c/GRD/2020/8/22/IW/DV/S1B_IW_GRDH_1SDV_20200822T170453_20200822T170518_023038_02BBEB_541A/annotation/calibration/calibration-iw-vh.xml","type":"application/xml","title":"VH Calibration Schema","description":"Calibration metadata including calibration information and the beta nought, sigma nought, gamma and digital number look-up tables that can be used for absolute product calibration.","roles":["metadata"]},"schema-calibration-vv":{"href":"s3://sentinel-s1-l1c/GRD/2020/8/22/IW/DV/S1B_IW_GRDH_1SDV_20200822T170453_20200822T170518_023038_02BBEB_541A/annotation/calibration/calibration-iw-vv.xml","type":"application/xml","title":"VV Calibration Schema","description":"Calibration metadata including calibration information and the beta nought, sigma nought, gamma and digital number look-up tables that can be used for absolute product calibration.","roles":["metadata"]},"schema-noise-vh":{"href":"s3://sentinel-s1-l1c/GRD/2020/8/22/IW/DV/S1B_IW_GRDH_1SDV_20200822T170453_20200822T170518_023038_02BBEB_541A/annotation/calibration/noise-iw-vh.xml","type":"application/xml","title":"VH Noise Schema","description":"Estimated thermal noise look-up tables","roles":["metadata"]},"schema-noise-vv":{"href":"s3://sentinel-s1-l1c/GRD/2020/8/22/IW/DV/S1B_IW_GRDH_1SDV_20200822T170453_20200822T170518_023038_02BBEB_541A/annotation/calibration/noise-iw-vv.xml","type":"application/xml","title":"VV Noise Schema","description":"Estimated thermal noise look-up tables","roles":["metadata"]},"thumbnail":{"href":"s3://sentinel-s1-l1c/GRD/2020/8/22/IW/DV/S1B_IW_GRDH_1SDV_20200822T170453_20200822T170518_023038_02BBEB_541A/preview/quick-look.png","type":"image/png","title":"Preview Image","description":"An averaged, decimated preview image in PNG format. Single polarization products are represented with a grey scale image. Dual polarization products are represented by a single composite colour image in RGB with the red channel (R) representing the  co-polarization VV or HH), the green channel (G) represents the cross-polarization (VH or HV) and the blue channel (B) represents the ratio of the cross an co-polarizations.","roles":["thumbnail"]},"vh":{"href":"s3://sentinel-s1-l1c/GRD/2020/8/22/IW/DV/S1B_IW_GRDH_1SDV_20200822T170453_20200822T170518_023038_02BBEB_541A/measurement/iw-vh.tiff","type":"image/tiff; application=geotiff; profile=cloud-optimized","title":"VH Data","description":"Actual SAR data that have been processed into an image","raster:bands":[{"nodata":0,"data_type":"uint16"}],"roles":["data"]},"vv":{"href":"s3://sentinel-s1-l1c/GRD/2020/8/22/IW/DV/S1B_IW_GRDH_1SDV_20200822T170453_20200822T170518_023038_02BBEB_541A/measurement/iw-vv.tiff","type":"image/tiff; application=geotiff; profile=cloud-optimized","title":"VV Data","description":"Actual SAR data that have been processed into an image","raster:bands":[{"nodata":0,"data_type":"uint16"}],"roles":["data"]}},"bbox":[19.972963,-19.717566,22.745358,-17.656143],"stac_extensions":["https://stac-extensions.github.io/storage/v1.0.0/schema.json","https://stac-extensions.github.io/sat/v1.0.0/schema.json","https://stac-extensions.github.io/sar/v1.0.0/schema.json","https://stac-extensions.github.io/projection/v1.1.0/schema.json","https://stac-extensions.github.io/processing/v1.1.0/schema.json","https://stac-extensions.github.io/raster/v1.1.0/schema.json"],"collection":"sentinel-1-grd"},{"type":"Feature","stac_version":"1.0.0","id":"S1B_IW_GRDH_1SDV_20200815T171319_20200815T171344_022936_02B896","properties":{"sar:frequency_band":"C","sar:center_frequency":5.405,"sar:observation_direction":"right","sar:instrument_mode":"IW","sar:polarizations":["VV","VH"],"sar:product_type":"GRD","sar:resolution_range":20,"sar:resolution_azimuth":22,"sar:pixel_spacing_range":10,"sar:pixel_spacing_azimuth":10,"sar:looks_range":5,"sar:looks_azimuth":1,"sar:looks_equivalent_number":4.4,"sat:platform_international_designator":"2016-025A","sat:orbit_state":"ascending","sat:absolute_orbit":22936,"sat:relative_orbit":160,"proj:epsg":4326,"proj:bbox":[17.742668,-18.998587,20.504339,-16.93903],"proj:shape":[26012,16854],"proj:transform":[0.00016385849056603792,0,17.742668,0,-0.00007917718745194531,-16.93903],"proj:centroid":{"lat":-17.96822,"lon":19.11886},"platform":"sentinel-1b","constellation":"sentinel-1","start_datetime":"2020-08-15T17:13:19.230393Z","end_datetime":"2020-08-15T17:13:44.229804Z","s1:instrument_configuration_ID":"1","s1:datatake_id":"178326","s1:product_timeliness":"Fast-24h","s1:processing_level":"1","s1:resolution":"high","s1:orbit_source":"RESORB","s1:slice_number":"6","s1:total_slices":"13","s1:shape":[26012,16854],"s1:product_identifier":"S1B_IW_GRDH_1SDV_20200815T171319_20200815T171344_022936_02B896_8FF7","s1:processing_datetime":"2020-08-15T18:47:34.000000Z","storage:platform":"AWS","storage:region":"eu-central-1","storage:requester_pays":true,"datetime":"2020-08-15T17:13:31.730099Z","processing:software":{"sentinel1-to-stac":"2023.05.15"},"created":"2023-05-16T23:35:22.433Z","updated":"2023-05-16T23:35:22.433Z"},"geometry":{"type":"Polygon","coordinates":[[[20.065341,-16.9514168],[17.7745271,-17.4860638],[18.1484087,-18.9897585],[20.4540739,-18.4495423],[20.065341,-16.9514168]]]},"links":[{"rel":"self","type":"application/geo+json","href":"https://earth-search.aws.element84.com/v1/collections/sentinel-1-grd/items/S1B_IW_GRDH_1SDV_20200815T171319_20200815T171344_022936_02B896"},{"rel":"canonical","href":"s3://earthsearch-data/sentinel-1-grd/2020/8/15/IW/S1B_IW_GRDH_1SDV_20200815T171319_20200815T171344_022936_02B896/S1B_IW_GRDH_1SDV_20200815T171319_20200815T171344_022936_02B896.json","type":"application/json"},{"rel":"parent","type":"application/json","href":"https://earth-search.aws.element84.com/v1/collections/sentinel-1-grd"},{"rel":"collection","type":"application/json","href":"https://earth-search.aws.element84.com/v1/collections/sentinel-1-grd"},{"rel":"root","type":"application/json","href":"https://earth-search.aws.element84.com/v1"},{"rel":"thumbnail","href":"https://earth-search.aws.element84.com/v1/collections/sentinel-1-grd/items/S1B_IW_GRDH_1SDV_20200815T171319_20200815T171344_022936_02B896/thumbnail"}],"assets":{"safe-manifest":{"href":"s3://sentinel-s1-l1c/GRD/2020/8/15/IW/DV/S1B_IW_GRDH_1SDV_20200815T171319_20200815T171344_022936_02B896_8FF7/manifest.safe","type":"application/xml","title":"Manifest File","description":"General product metadata in XML format. Contains a high-level textual description of the product and references to all of product's components, the product metadata, including the product identification and the resource references, and references to the physical location of each component file contained in the product.","roles":["metadata"]},"schema-product-vh":{"href":"s3://sentinel-s1-l1c/GRD/2020/8/15/IW/DV/S1B_IW_GRDH_1SDV_20200815T171319_20200815T171344_022936_02B896_8FF7/annotation/iw-vh.xml","type":"application/xml","title":"VH Product Schema","description":"Describes the main characteristics corresponding to the band: state of the platform during acquisition, image properties, Doppler information, geographic location, etc.","roles":["metadata"]},"schema-product-vv":{"href":"s3://sentinel-s1-l1c/GRD/2020/8/15/IW/DV/S1B_IW_GRDH_1SDV_20200815T171319_20200815T171344_022936_02B896_8FF7/annotation/iw-vv.xml","type":"application/xml","title":"VV Product Schema","description":"Describes the main characteristics corresponding to the band: state of the platform during acquisition, image properties, Doppler information, geographic location, etc.","roles":["metadata"]},"schema-calibration-vh":{"href":"s3://sentinel-s1-l1c/GRD/2020/8/15/IW/DV/S1B_IW_GRDH_1SDV_20200815T171319_20200815T171344_022936_02B896_8FF7/annotation/calibration/calibration-iw-vh.xml","type":"application/xml","title":"VH Calibration Schema","description":"Calibration metadata including calibration information and the beta nought, sigma nought, gamma and digital number look-up tables that can be used for absolute product calibration.","roles":["metadata"]},"schema-calibration-vv":{"href":"s3://sentinel-s1-l1c/GRD/2020/8/15/IW/DV/S1B_IW_GRDH_1SDV_20200815T171319_20200815T171344_022936_02B896_8FF7/annotation/calibration/calibration-iw-vv.xml","type":"application/xml","title":"VV Calibration Schema","description":"Calibration metadata including calibration information and the beta nought, sigma nought, gamma and digital number look-up tables that can be used for absolute product calibration.","roles":["metadata"]},"schema-noise-vh":{"href":"s3://sentinel-s1-l1c/GRD/2020/8/15/IW/DV/S1B_IW_GRDH_1SDV_20200815T171319_20200815T171344_022936_02B896_8FF7/annotation/calibration/noise-iw-vh.xml","type":"application/xml","title":"VH Noise Schema","description":"Estimated thermal noise look-up tables","roles":["metadata"]},"schema-noise-vv":{"href":"s3://sentinel-s1-l1c/GRD/2020/8/15/IW/DV/S1B_IW_GRDH_1SDV_20200815T171319_20200815T171344_022936_02B896_8FF7/annotation/calibration/noise-iw-vv.xml","type":"application/xml","title":"VV Noise Schema","description":"Estimated thermal noise look-up tables","roles":["metadata"]},"thumbnail":{"href":"s3://sentinel-s1-l1c/GRD/2020/8/15/IW/DV/S1B_IW_GRDH_1SDV_20200815T171319_20200815T171344_022936_02B896_8FF7/preview/quick-look.png","type":"image/png","title":"Preview Image","description":"An averaged, decimated preview image in PNG format. Single polarization products are represented with a grey scale image. Dual polarization products are represented by a single composite colour image in RGB with the red channel (R) representing the  co-polarization VV or HH), the green channel (G) represents the cross-polarization (VH or HV) and the blue channel (B) represents the ratio of the cross an co-polarizations.","roles":["thumbnail"]},"vh":{"href":"s3://sentinel-s1-l1c/GRD/2020/8/15/IW/DV/S1B_IW_GRDH_1SDV_20200815T171319_20200815T171344_022936_02B896_8FF7/measurement/iw-vh.tiff","type":"image/tiff; application=geotiff; profile=cloud-optimized","title":"VH Data","description":"Actual SAR data that have been processed into an image","raster:bands":[{"nodata":0,"data_type":"uint16"}],"roles":["data"]},"vv":{"href":"s3://sentinel-s1-l1c/GRD/2020/8/15/IW/DV/S1B_IW_GRDH_1SDV_20200815T171319_20200815T171344_022936_02B896_8FF7/measurement/iw-vv.tiff","type":"image/tiff; application=geotiff; profile=cloud-optimized","title":"VV Data","description":"Actual SAR data that have been processed into an image","raster:bands":[{"nodata":0,"data_type":"uint16"}],"roles":["data"]}},"bbox":[17.742668,-18.998587,20.504339,-16.93903],"stac_extensions":["https://stac-extensions.github.io/raster/v1.1.0/schema.json","https://stac-extensions.github.io/sat/v1.0.0/schema.json","https://stac-extensions.github.io/sar/v1.0.0/schema.json","https://stac-extensions.github.io/projection/v1.1.0/schema.json","https://stac-extensions.github.io/storage/v1.0.0/schema.json","https://stac-extensions.github.io/processing/v1.1.0/schema.json"],"collection":"sentinel-1-grd"},{"type":"Feature","stac_version":"1.0.0","id":"S1B_IW_GRDH_1SDV_20200810T170518_20200810T170543_022863_02B66D","properties":{"sar:frequency_band":"C","sar:center_frequency":5.405,"sar:observation_direction":"right","sar:instrument_mode":"IW","sar:polarizations":["VV","VH"],"sar:product_type":"GRD","sar:resolution_range":20,"sar:resolution_azimuth":22,"sar:pixel_spacing_range":10,"sar:pixel_spacing_azimuth":10,"sar:looks_range":5,"sar:looks_azimuth":1,"sar:looks_equivalent_number":4.4,"sat:platform_international_designator":"2016-025A","sat:orbit_state":"ascending","sat:absolute_orbit":22863,"sat:relative_orbit":87,"proj:epsg":4326,"proj:bbox":[19.611605,-18.21286,22.353312,-16.156366],"proj:shape":[25971,16854],"proj:transform":[0.00016267396463747467,0,19.611605,0,-0.00007918424396442189,-16.156366],"proj:centroid":{"lat":-17.18402,"lon":20.97802},"platform":"sentinel-1b","constellation":"sentinel-1","start_datetime":"2020-08-10T17:05:18.359077Z","end_datetime":"2020-08-10T17:05:43.358315Z","s1:instrument_configuration_ID":"1","s1:datatake_id":"177773","s1:product_timeliness":"Fast-24h","s1:processing_level":"1","s1:resolution":"high","s1:orbit_source":"RESORB","s1:slice_number":"6","s1:total_slices":"12","s1:shape":[25971,16854],"s1:product_identifier":"S1B_IW_GRDH_1SDV_20200810T170518_20200810T170543_022863_02B66D_0F43","s1:processing_datetime":"2020-08-10T19:08:56.000000Z","storage:platform":"AWS","storage:region":"eu-central-1","storage:requester_pays":true,"datetime":"2020-08-10T17:05:30.858696Z","processing:software":{"sentinel1-to-stac":"2023.05.15"},"created":"2023-05-16T22:13:27.039Z","updated":"2023-05-16T22:13:27.039Z"},"geometry":{"type":"Polygon","coordinates":[[[21.9214698,-16.1687484],[19.6435652,-16.6992092],[20.0105507,-18.2042203],[22.3084727,-17.6667163],[21.9214698,-16.1687484]]]},"links":[{"rel":"self","type":"application/geo+json","href":"https://earth-search.aws.element84.com/v1/collections/sentinel-1-grd/items/S1B_IW_GRDH_1SDV_20200810T170518_20200810T170543_022863_02B66D"},{"rel":"canonical","href":"s3://earthsearch-data/sentinel-1-grd/2020/8/10/IW/S1B_IW_GRDH_1SDV_20200810T170518_20200810T170543_022863_02B66D/S1B_IW_GRDH_1SDV_20200810T170518_20200810T170543_022863_02B66D.json","type":"application/json"},{"rel":"parent","type":"application/json","href":"https://earth-search.aws.element84.com/v1/collections/sentinel-1-grd"},{"rel":"collection","type":"application/json","href":"https://earth-search.aws.element84.com/v1/collections/sentinel-1-grd"},{"rel":"root","type":"application/json","href":"https://earth-search.aws.element84.com/v1"},{"rel":"thumbnail","href":"https://earth-search.aws.element84.com/v1/collections/sentinel-1-grd/items/S1B_IW_GRDH_1SDV_20200810T170518_20200810T170543_022863_02B66D/thumbnail"}],"assets":{"safe-manifest":{"href":"s3://sentinel-s1-l1c/GRD/2020/8/10/IW/DV/S1B_IW_GRDH_1SDV_20200810T170518_20200810T170543_022863_02B66D_0F43/manifest.safe","type":"application/xml","title":"Manifest File","description":"General product metadata in XML format. Contains a high-level textual description of the product and references to all of product's components, the product metadata, including the product identification and the resource references, and references to the physical location of each component file contained in the product.","roles":["metadata"]},"schema-product-vh":{"href":"s3://sentinel-s1-l1c/GRD/2020/8/10/IW/DV/S1B_IW_GRDH_1SDV_20200810T170518_20200810T170543_022863_02B66D_0F43/annotation/iw-vh.xml","type":"application/xml","title":"VH Product Schema","description":"Describes the main characteristics corresponding to the band: state of the platform during acquisition, image properties, Doppler information, geographic location, etc.","roles":["metadata"]},"schema-product-vv":{"href":"s3://sentinel-s1-l1c/GRD/2020/8/10/IW/DV/S1B_IW_GRDH_1SDV_20200810T170518_20200810T170543_022863_02B66D_0F43/annotation/iw-vv.xml","type":"application/xml","title":"VV Product Schema","description":"Describes the main characteristics corresponding to the band: state of the platform during acquisition, image properties, Doppler information, geographic location, etc.","roles":["metadata"]},"schema-calibration-vh":{"href":"s3://sentinel-s1-l1c/GRD/2020/8/10/IW/DV/S1B_IW_GRDH_1SDV_20200810T170518_20200810T170543_022863_02B66D_0F43/annotation/calibration/calibration-iw-vh.xml","type":"application/xml","title":"VH Calibration Schema","description":"Calibration metadata including calibration information and the beta nought, sigma nought, gamma and digital number look-up tables that can be used for absolute product calibration.","roles":["metadata"]},"schema-calibration-vv":{"href":"s3://sentinel-s1-l1c/GRD/2020/8/10/IW/DV/S1B_IW_GRDH_1SDV_20200810T170518_20200810T170543_022863_02B66D_0F43/annotation/calibration/calibration-iw-vv.xml","type":"application/xml","title":"VV Calibration Schema","description":"Calibration metadata including calibration information and the beta nought, sigma nought, gamma and digital number look-up tables that can be used for absolute product calibration.","roles":["metadata"]},"schema-noise-vh":{"href":"s3://sentinel-s1-l1c/GRD/2020/8/10/IW/DV/S1B_IW_GRDH_1SDV_20200810T170518_20200810T170543_022863_02B66D_0F43/annotation/calibration/noise-iw-vh.xml","type":"application/xml","title":"VH Noise Schema","description":"Estimated thermal noise look-up tables","roles":["metadata"]},"schema-noise-vv":{"href":"s3://sentinel-s1-l1c/GRD/2020/8/10/IW/DV/S1B_IW_GRDH_1SDV_20200810T170518_20200810T170543_022863_02B66D_0F43/annotation/calibration/noise-iw-vv.xml","type":"application/xml","title":"VV Noise Schema","description":"Estimated thermal noise look-up tables","roles":["metadata"]},"thumbnail":{"href":"s3://sentinel-s1-l1c/GRD/2020/8/10/IW/DV/S1B_IW_GRDH_1SDV_20200810T170518_20200810T170543_022863_02B66D_0F43/preview/quick-look.png","type":"image/png","title":"Preview Image","description":"An averaged, decimated preview image in PNG format. Single polarization products are represented with a grey scale image. Dual polarization products are represented by a single composite colour image in RGB with the red channel (R) representing the  co-polarization VV or HH), the green channel (G) represents the cross-polarization (VH or HV) and the blue channel (B) represents the ratio of the cross an co-polarizations.","roles":["thumbnail"]},"vh":{"href":"s3://sentinel-s1-l1c/GRD/2020/8/10/IW/DV/S1B_IW_GRDH_1SDV_20200810T170518_20200810T170543_022863_02B66D_0F43/measurement/iw-vh.tiff","type":"image/tiff; application=geotiff; profile=cloud-optimized","title":"VH Data","description":"Actual SAR data that have been processed into an image","raster:bands":[{"nodata":0,"data_type":"uint16"}],"roles":["data"]},"vv":{"href":"s3://sentinel-s1-l1c/GRD/2020/8/10/IW/DV/S1B_IW_GRDH_1SDV_20200810T170518_20200810T170543_022863_02B66D_0F43/measurement/iw-vv.tiff","type":"image/tiff; application=geotiff; profile=cloud-optimized","title":"VV Data","description":"Actual SAR data that have been processed into an image","raster:bands":[{"nodata":0,"data_type":"uint16"}],"roles":["data"]}},"bbox":[19.611605,-18.21286,22.353312,-16.156366],"stac_extensions":["https://stac-extensions.github.io/storage/v1.0.0/schema.json","https://stac-extensions.github.io/sat/v1.0.0/schema.json","https://stac-extensions.github.io/raster/v1.1.0/schema.json","https://stac-extensions.github.io/processing/v1.1.0/schema.json","https://stac-extensions.github.io/sar/v1.0.0/schema.json","https://stac-extensions.github.io/projection/v1.1.0/schema.json"],"collection":"sentinel-1-grd"},{"type":"Feature","stac_version":"1.0.0","id":"S1B_IW_GRDH_1SDV_20200810T170453_20200810T170518_022863_02B66D","properties":{"sar:frequency_band":"C","sar:center_frequency":5.405,"sar:observation_direction":"right","sar:instrument_mode":"IW","sar:polarizations":["VV","VH"],"sar:product_type":"GRD","sar:resolution_range":20,"sar:resolution_azimuth":22,"sar:pixel_spacing_range":10,"sar:pixel_spacing_azimuth":10,"sar:looks_range":5,"sar:looks_azimuth":1,"sar:looks_equivalent_number":4.4,"sat:platform_international_designator":"2016-025A","sat:orbit_state":"ascending","sat:absolute_orbit":22863,"sat:relative_orbit":87,"proj:epsg":4326,"proj:bbox":[19.972372,-19.717482,22.744761,-17.656021],"proj:shape":[25986,16853],"proj:transform":[0.00016450418323147217,0,19.972372,0,-0.00007932967751866395,-17.656021],"proj:centroid":{"lat":-18.68617,"lon":21.35373},"platform":"sentinel-1b","constellation":"sentinel-1","start_datetime":"2020-08-10T17:04:53.359839Z","end_datetime":"2020-08-10T17:05:18.357593Z","s1:instrument_configuration_ID":"1","s1:datatake_id":"177773","s1:product_timeliness":"Fast-24h","s1:processing_level":"1","s1:resolution":"high","s1:orbit_source":"RESORB","s1:slice_number":"5","s1:total_slices":"12","s1:shape":[25986,16853],"s1:product_identifier":"S1B_IW_GRDH_1SDV_20200810T170453_20200810T170518_022863_02B66D_500B","s1:processing_datetime":"2020-08-10T19:09:56.000000Z","storage:platform":"AWS","storage:region":"eu-central-1","storage:requester_pays":true,"datetime":"2020-08-10T17:05:05.858716Z","processing:software":{"sentinel1-to-stac":"2023.05.15"},"created":"2023-05-16T17:44:27.153Z","updated":"2023-05-16T17:44:27.153Z"},"geometry":{"type":"Polygon","coordinates":[[[22.3068632,-17.6670709],[20.0107943,-18.2040848],[20.387894,-19.7072773],[22.7006982,-19.1643132],[22.3068632,-17.6670709]]]},"links":[{"rel":"self","type":"application/geo+json","href":"https://earth-search.aws.element84.com/v1/collections/sentinel-1-grd/items/S1B_IW_GRDH_1SDV_20200810T170453_20200810T170518_022863_02B66D"},{"rel":"canonical","href":"s3://earthsearch-data/sentinel-1-grd/2020/8/10/IW/S1B_IW_GRDH_1SDV_20200810T170453_20200810T170518_022863_02B66D/S1B_IW_GRDH_1SDV_20200810T170453_20200810T170518_022863_02B66D.json","type":"application/json"},{"rel":"parent","type":"application/json","href":"https://earth-search.aws.element84.com/v1/collections/sentinel-1-grd"},{"rel":"collection","type":"application/json","href":"https://earth-search.aws.element84.com/v1/collections/sentinel-1-grd"},{"rel":"root","type":"application/json","href":"https://earth-search.aws.element84.com/v1"},{"rel":"thumbnail","href":"https://earth-search.aws.element84.com/v1/collections/sentinel-1-grd/items/S1B_IW_GRDH_1SDV_20200810T170453_20200810T170518_022863_02B66D/thumbnail"}],"assets":{"safe-manifest":{"href":"s3://sentinel-s1-l1c/GRD/2020/8/10/IW/DV/S1B_IW_GRDH_1SDV_20200810T170453_20200810T170518_022863_02B66D_500B/manifest.safe","type":"application/xml","title":"Manifest File","description":"General product metadata in XML format. Contains a high-level textual description of the product and references to all of product's components, the product metadata, including the product identification and the resource references, and references to the physical location of each component file contained in the product.","roles":["metadata"]},"schema-product-vh":{"href":"s3://sentinel-s1-l1c/GRD/2020/8/10/IW/DV/S1B_IW_GRDH_1SDV_20200810T170453_20200810T170518_022863_02B66D_500B/annotation/iw-vh.xml","type":"application/xml","title":"VH Product Schema","description":"Describes the main characteristics corresponding to the band: state of the platform during acquisition, image properties, Doppler information, geographic location, etc.","roles":["metadata"]},"schema-product-vv":{"href":"s3://sentinel-s1-l1c/GRD/2020/8/10/IW/DV/S1B_IW_GRDH_1SDV_20200810T170453_20200810T170518_022863_02B66D_500B/annotation/iw-vv.xml","type":"application/xml","title":"VV Product Schema","description":"Describes the main characteristics corresponding to the band: state of the platform during acquisition, image properties, Doppler information, geographic location, etc.","roles":["metadata"]},"schema-calibration-vh":{"href":"s3://sentinel-s1-l1c/GRD/2020/8/10/IW/DV/S1B_IW_GRDH_1SDV_20200810T170453_20200810T170518_022863_02B66D_500B/annotation/calibration/calibration-iw-vh.xml","type":"application/xml","title":"VH Calibration Schema","description":"Calibration metadata including calibration information and the beta nought, sigma nought, gamma and digital number look-up tables that can be used for absolute product calibration.","roles":["metadata"]},"schema-calibration-vv":{"href":"s3://sentinel-s1-l1c/GRD/2020/8/10/IW/DV/S1B_IW_GRDH_1SDV_20200810T170453_20200810T170518_022863_02B66D_500B/annotation/calibration/calibration-iw-vv.xml","type":"application/xml","title":"VV Calibration Schema","description":"Calibration metadata including calibration information and the beta nought, sigma nought, gamma and digital number look-up tables that can be used for absolute product calibration.","roles":["metadata"]},"schema-noise-vh":{"href":"s3://sentinel-s1-l1c/GRD/2020/8/10/IW/DV/S1B_IW_GRDH_1SDV_20200810T170453_20200810T170518_022863_02B66D_500B/annotation/calibration/noise-iw-vh.xml","type":"application/xml","title":"VH Noise Schema","description":"Estimated thermal noise look-up tables","roles":["metadata"]},"schema-noise-vv":{"href":"s3://sentinel-s1-l1c/GRD/2020/8/10/IW/DV/S1B_IW_GRDH_1SDV_20200810T170453_20200810T170518_022863_02B66D_500B/annotation/calibration/noise-iw-vv.xml","type":"application/xml","title":"VV Noise Schema","description":"Estimated thermal noise look-up tables","roles":["metadata"]},"thumbnail":{"href":"s3://sentinel-s1-l1c/GRD/2020/8/10/IW/DV/S1B_IW_GRDH_1SDV_20200810T170453_20200810T170518_022863_02B66D_500B/preview/quick-look.png","type":"image/png","title":"Preview Image","description":"An averaged, decimated preview image in PNG format. Single polarization products are represented with a grey scale image. Dual polarization products are represented by a single composite colour image in RGB with the red channel (R) representing the  co-polarization VV or HH), the green channel (G) represents the cross-polarization (VH or HV) and the blue channel (B) represents the ratio of the cross an co-polarizations.","roles":["thumbnail"]},"vh":{"href":"s3://sentinel-s1-l1c/GRD/2020/8/10/IW/DV/S1B_IW_GRDH_1SDV_20200810T170453_20200810T170518_022863_02B66D_500B/measurement/iw-vh.tiff","type":"image/tiff; application=geotiff; profile=cloud-optimized","title":"VH Data","description":"Actual SAR data that have been processed into an image","raster:bands":[{"nodata":0,"data_type":"uint16"}],"roles":["data"]},"vv":{"href":"s3://sentinel-s1-l1c/GRD/2020/8/10/IW/DV/S1B_IW_GRDH_1SDV_20200810T170453_20200810T170518_022863_02B66D_500B/measurement/iw-vv.tiff","type":"image/tiff; application=geotiff; profile=cloud-optimized","title":"VV Data","description":"Actual SAR data that have been processed into an image","raster:bands":[{"nodata":0,"data_type":"uint16"}],"roles":["data"]}},"bbox":[19.972372,-19.717482,22.744761,-17.656021],"stac_extensions":["https://stac-extensions.github.io/sar/v1.0.0/schema.json","https://stac-extensions.github.io/storage/v1.0.0/schema.json","https://stac-extensions.github.io/processing/v1.1.0/schema.json","https://stac-extensions.github.io/raster/v1.1.0/schema.json","https://stac-extensions.github.io/projection/v1.1.0/schema.json","https://stac-extensions.github.io/sat/v1.0.0/schema.json"],"collection":"sentinel-1-grd"},{"type":"Feature","stac_version":"1.0.0","id":"S1B_IW_GRDH_1SDV_20200803T171318_20200803T171343_022761_02B330","properties":{"sar:frequency_band":"C","sar:center_frequency":5.405,"sar:observation_direction":"right","sar:instrument_mode":"IW","sar:polarizations":["VV","VH"],"sar:product_type":"GRD","sar:resolution_range":20,"sar:resolution_azimuth":22,"sar:pixel_spacing_range":10,"sar:pixel_spacing_azimuth":10,"sar:looks_range":5,"sar:looks_azimuth":1,"sar:looks_equivalent_number":4.4,"sat:platform_international_designator":"2016-025A","sat:orbit_state":"ascending","sat:absolute_orbit":22761,"sat:relative_orbit":160,"proj:epsg":4326,"proj:bbox":[17.742401,-18.998623,20.503935,-16.93922],"proj:shape":[26011,16853],"proj:transform":[0.00016386008425799546,0,17.742401,0,-0.0000791743108684787,-16.93922],"proj:centroid":{"lat":-17.96833,"lon":19.11853},"platform":"sentinel-1b","constellation":"sentinel-1","start_datetime":"2020-08-03T17:13:18.603388Z","end_datetime":"2020-08-03T17:13:43.601229Z","s1:instrument_configuration_ID":"1","s1:datatake_id":"176944","s1:product_timeliness":"Fast-24h","s1:processing_level":"1","s1:resolution":"high","s1:orbit_source":"RESORB","s1:slice_number":"6","s1:total_slices":"13","s1:shape":[26011,16853],"s1:product_identifier":"S1B_IW_GRDH_1SDV_20200803T171318_20200803T171343_022761_02B330_A59A","s1:processing_datetime":"2020-08-03T18:49:26.000000Z","storage:platform":"AWS","storage:region":"eu-central-1","storage:requester_pays":true,"datetime":"2020-08-03T17:13:31.102308Z","processing:software":{"sentinel1-to-stac":"2023.05.15"},"created":"2023-05-16T18:32:43.833Z","updated":"2023-05-16T18:32:43.833Z"},"geometry":{"type":"Polygon","coordinates":[[[20.0647033,-16.951608],[17.7742584,-17.4862555],[18.1477691,-18.9895805],[20.4538079,-18.449735],[20.0647033,-16.951608]]]},"links":[{"rel":"self","type":"application/geo+json","href":"https://earth-search.aws.element84.com/v1/collections/sentinel-1-grd/items/S1B_IW_GRDH_1SDV_20200803T171318_20200803T171343_022761_02B330"},{"rel":"canonical","href":"s3://earthsearch-data/sentinel-1-grd/2020/8/3/IW/S1B_IW_GRDH_1SDV_20200803T171318_20200803T171343_022761_02B330/S1B_IW_GRDH_1SDV_20200803T171318_20200803T171343_022761_02B330.json","type":"application/json"},{"rel":"parent","type":"application/json","href":"https://earth-search.aws.element84.com/v1/collections/sentinel-1-grd"},{"rel":"collection","type":"application/json","href":"https://earth-search.aws.element84.com/v1/collections/sentinel-1-grd"},{"rel":"root","type":"application/json","href":"https://earth-search.aws.element84.com/v1"},{"rel":"thumbnail","href":"https://earth-search.aws.element84.com/v1/collections/sentinel-1-grd/items/S1B_IW_GRDH_1SDV_20200803T171318_20200803T171343_022761_02B330/thumbnail"}],"assets":{"safe-manifest":{"href":"s3://sentinel-s1-l1c/GRD/2020/8/3/IW/DV/S1B_IW_GRDH_1SDV_20200803T171318_20200803T171343_022761_02B330_A59A/manifest.safe","type":"application/xml","title":"Manifest File","description":"General product metadata in XML format. Contains a high-level textual description of the product and references to all of product's components, the product metadata, including the product identification and the resource references, and references to the physical location of each component file contained in the product.","roles":["metadata"]},"schema-product-vh":{"href":"s3://sentinel-s1-l1c/GRD/2020/8/3/IW/DV/S1B_IW_GRDH_1SDV_20200803T171318_20200803T171343_022761_02B330_A59A/annotation/iw-vh.xml","type":"application/xml","title":"VH Product Schema","description":"Describes the main characteristics corresponding to the band: state of the platform during acquisition, image properties, Doppler information, geographic location, etc.","roles":["metadata"]},"schema-product-vv":{"href":"s3://sentinel-s1-l1c/GRD/2020/8/3/IW/DV/S1B_IW_GRDH_1SDV_20200803T171318_20200803T171343_022761_02B330_A59A/annotation/iw-vv.xml","type":"application/xml","title":"VV Product Schema","description":"Describes the main characteristics corresponding to the band: state of the platform during acquisition, image properties, Doppler information, geographic location, etc.","roles":["metadata"]},"schema-calibration-vh":{"href":"s3://sentinel-s1-l1c/GRD/2020/8/3/IW/DV/S1B_IW_GRDH_1SDV_20200803T171318_20200803T171343_022761_02B330_A59A/annotation/calibration/calibration-iw-vh.xml","type":"application/xml","title":"VH Calibration Schema","description":"Calibration metadata including calibration information and the beta nought, sigma nought, gamma and digital number look-up tables that can be used for absolute product calibration.","roles":["metadata"]},"schema-calibration-vv":{"href":"s3://sentinel-s1-l1c/GRD/2020/8/3/IW/DV/S1B_IW_GRDH_1SDV_20200803T171318_20200803T171343_022761_02B330_A59A/annotation/calibration/calibration-iw-vv.xml","type":"application/xml","title":"VV Calibration Schema","description":"Calibration metadata including calibration information and the beta nought, sigma nought, gamma and digital number look-up tables that can be used for absolute product calibration.","roles":["metadata"]},"schema-noise-vh":{"href":"s3://sentinel-s1-l1c/GRD/2020/8/3/IW/DV/S1B_IW_GRDH_1SDV_20200803T171318_20200803T171343_022761_02B330_A59A/annotation/calibration/noise-iw-vh.xml","type":"application/xml","title":"VH Noise Schema","description":"Estimated thermal noise look-up tables","roles":["metadata"]},"schema-noise-vv":{"href":"s3://sentinel-s1-l1c/GRD/2020/8/3/IW/DV/S1B_IW_GRDH_1SDV_20200803T171318_20200803T171343_022761_02B330_A59A/annotation/calibration/noise-iw-vv.xml","type":"application/xml","title":"VV Noise Schema","description":"Estimated thermal noise look-up tables","roles":["metadata"]},"thumbnail":{"href":"s3://sentinel-s1-l1c/GRD/2020/8/3/IW/DV/S1B_IW_GRDH_1SDV_20200803T171318_20200803T171343_022761_02B330_A59A/preview/quick-look.png","type":"image/png","title":"Preview Image","description":"An averaged, decimated preview image in PNG format. Single polarization products are represented with a grey scale image. Dual polarization products are represented by a single composite colour image in RGB with the red channel (R) representing the  co-polarization VV or HH), the green channel (G) represents the cross-polarization (VH or HV) and the blue channel (B) represents the ratio of the cross an co-polarizations.","roles":["thumbnail"]},"vh":{"href":"s3://sentinel-s1-l1c/GRD/2020/8/3/IW/DV/S1B_IW_GRDH_1SDV_20200803T171318_20200803T171343_022761_02B330_A59A/measurement/iw-vh.tiff","type":"image/tiff; application=geotiff; profile=cloud-optimized","title":"VH Data","description":"Actual SAR data that have been processed into an image","raster:bands":[{"nodata":0,"data_type":"uint16"}],"roles":["data"]},"vv":{"href":"s3://sentinel-s1-l1c/GRD/2020/8/3/IW/DV/S1B_IW_GRDH_1SDV_20200803T171318_20200803T171343_022761_02B330_A59A/measurement/iw-vv.tiff","type":"image/tiff; application=geotiff; profile=cloud-optimized","title":"VV Data","description":"Actual SAR data that have been processed into an image","raster:bands":[{"nodata":0,"data_type":"uint16"}],"roles":["data"]}},"bbox":[17.742401,-18.998623,20.503935,-16.93922],"stac_extensions":["https://stac-extensions.github.io/sat/v1.0.0/schema.json","https://stac-extensions.github.io/projection/v1.1.0/schema.json","https://stac-extensions.github.io/raster/v1.1.0/schema.json","https://stac-extensions.github.io/processing/v1.1.0/schema.json","https://stac-extensions.github.io/sar/v1.0.0/schema.json","https://stac-extensions.github.io/storage/v1.0.0/schema.json"],"collection":"sentinel-1-grd"}],"links":[{"rel":"next","title":"Next page of Items","method":"POST","type":"application/geo+json","href":"https://earth-search.aws.element84.com/v1/search","merge":false,"body":{"datetime":"2020-08-01T00:00:00Z/2020-08-31T23:59:59Z","collections":["sentinel-1-grd"],"bbox":[18.42566188925082,-18.0421,20.943746679773703,-17.399540716612382],"limit":1000,"next":"2020-08-03T17:13:31.102308Z,S1B_IW_GRDH_1SDV_20200803T171318_20200803T171343_022761_02B330,sentinel-1-grd"}},{"rel":"root","type":"application/json","href":"https://earth-search.aws.element84.com/v1"}]}