{"type":"FeatureCollection","features":[{"geometry":{"coordinates":[[[18.4498,-17.4235],[18.4329,-17.4108],[18.42566188925082,-17.399540716612382],[18.425685104772306,-17.39956268844522],[18.4514,-17.4239],[18.4583,-17.4389],[18.4733,-17.4506],[18.4849,-17.4845],[18.5163,-17.5011],[18.5193,-17.5145],[18.5425,-17.527],[18.5429,-17.5324],[18.53837736401476,-17.538522953333864],[18.538361936901588,-17.5385438392717],[18.5374,-17.5343],[18.5347,-17.5294],[18.5183,-17.5167],[18.5114,-17.5014],[18.4786,-17.4857],[18.4727,-17.4563],[18.4557,-17.4402],[18.4498,-17.4235]]],"type":"Polygon"},"id":"physical-component:12bedbd22f54e5f9495416ba68dea11a9873b873d4ed9f19433634b22734d4a0","properties":{"administrative_assignment":null,"dateline_connected":false,"diagnostic_nearby_locations":[],"fragment_bindings":[{"feature_sha256":"97440ea15d14b5d0b62bd4895840511ab72db1781358ef3cbda1b4e9a22a2892","id":"physical-gap:615:5:b4f072612277137fcc8cbc1d9f4953dcc3f2ffcbc94251aa63be5d7a5d83dd8d"}],"measured_fragment_area_sum_m2":7422994.999326339,"measured_fragment_count":1,"positive_area_input_overlap":false,"touches_blocked_tile":false,"touches_domain_boundary":false,"touches_reference_shore":false,"unmeasured_fragment_ids":[],"water_status":"unverified"},"type":"Feature"},{"geometry":{"coordinates":[[[18.9625,-17.83],[18.9485,-17.8231],[18.943613028919327,-17.82337266362253],[18.9472,-17.8222],[18.963,-17.8222],[19.0211,-17.8335],[19.0648,-17.8356],[19.0797,-17.8381],[19.0928,-17.8364],[19.117081009910653,-17.83609166971542],[19.117083356876847,-17.836091639912674],[19.1169,-17.8363],[19.1077,-17.84],[19.0827,-17.8394],[19.0615,-17.8364],[19.0288,-17.8366],[18.9932,-17.8296],[18.9625,-17.83]]],"type":"Polygon"},"id":"physical-component:1a66c8c237c85380c1a0e1c6fb9e5b257565f5bc6deb1f1c815e6c5edbfbdcdd","properties":{"administrative_assignment":null,"dateline_connected":false,"diagnostic_nearby_locations":[],"fragment_bindings":[{"feature_sha256":"a1c38f1bd14ff5a61aed6c0f7e4479cf15af1ab93e2fed0b14694f559da52a40","id":"physical-gap:615:11:9a6d24a83734caaaac629e2a6f803e5083bf6c1a31c3ad2c4a4977bac6f6bff5"}],"measured_fragment_area_sum_m2":5256128.876389082,"measured_fragment_count":1,"positive_area_input_overlap":false,"touches_blocked_tile":false,"touches_domain_boundary":false,"touches_reference_shore":false,"unmeasured_fragment_ids":[],"water_status":"unverified"},"type":"Feature"},{"geometry":{"coordinates":[[[20.9365,-17.9783],[20.9287,-17.9856],[20.927399149162458,-17.98596625897368],[20.92742505348961,-17.985941767609827],[20.9317,-17.9819],[20.9436,-17.9682],[20.943746679773703,-17.968173229547006],[20.9365,-17.9783]]],"type":"Polygon"},"id":"physical-component:27a5a61d775c185cfe295a44375f3eb4b4c947d58bb6867a2c38346df3318f14","properties":{"administrative_assignment":null,"dateline_connected":false,"diagnostic_nearby_locations":[],"fragment_bindings":[{"feature_sha256":"832ab71bc46408c401987582fa9c1a5d9d6769f07f8766d8646bcc82433cf078","id":"physical-gap:616:44:b1096252afa69e50d374cad1f1f43195c381c005698c6a734346966d9c1b5df0"}],"measured_fragment_area_sum_m2":204483.4449033688,"measured_fragment_count":1,"positive_area_input_overlap":false,"touches_blocked_tile":false,"touches_domain_boundary":false,"touches_reference_shore":false,"unmeasured_fragment_ids":[],"water_status":"unverified"},"type":"Feature"},{"geometry":{"coordinates":[[[19.7344,-17.8986],[19.7283,-17.8942],[19.72624724006288,-17.889330662474734],[19.72627307170495,-17.889345333407338],[19.7519,-17.9039],[19.7644,-17.9017],[19.770956351455812,-17.896186704457612],[19.7676,-17.9066],[19.7495,-17.9137],[19.7344,-17.8986]]],"type":"Polygon"},"id":"physical-component:2808758be3af125429c34c98cf7ddd2bd8b216fab7130ac6fa2cd490bebe1022","properties":{"administrative_assignment":null,"dateline_connected":false,"diagnostic_nearby_locations":[],"fragment_bindings":[{"feature_sha256":"88a221865e99b47fecce1305b6a5239eca0029a488ac41fd8954016339b7ee1a","id":"physical-gap:615:17:ce1730f7f40262207494236b1a61b136d732edb27fe28806d4e47040254b2dab"}],"measured_fragment_area_sum_m2":3531798.9750620667,"measured_fragment_count":1,"positive_area_input_overlap":false,"touches_blocked_tile":false,"touches_domain_boundary":false,"touches_reference_shore":false,"unmeasured_fragment_ids":[],"water_status":"unverified"},"type":"Feature"},{"geometry":{"coordinates":[[[20.58168269513991,-17.98281877761414],[20.5812,-17.9831],[20.57115897887324,-17.982332977552815],[20.571188119369765,-17.98231221494904],[20.5771,-17.9781],[20.5806,-17.9786],[20.58168269513991,-17.98281877761414]]],"type":"Polygon"},"id":"physical-component:460cfe8bf6af451c62128caa84c9191bdaf5bab74a140b5e112cffbdc6e3343f","properties":{"administrative_assignment":null,"dateline_connected":false,"diagnostic_nearby_locations":[],"fragment_bindings":[{"feature_sha256":"f7b1d701f42fb4c4e93366ced5dfe496cb21d6de6558ce02f76737ae15015c25","id":"physical-gap:616:37:635cc356a73422ce9b95f545ebd3a53531f16c9a465da821bf761007d74452b1"}],"measured_fragment_area_sum_m2":380120.0820412447,"measured_fragment_count":1,"positive_area_input_overlap":false,"touches_blocked_tile":false,"touches_domain_boundary":false,"touches_reference_shore":false,"unmeasured_fragment_ids":[],"water_status":"unverified"},"type":"Feature"},{"geometry":{"coordinates":[[[19.3572,-17.8615],[19.3312,-17.8489],[19.331859616330544,-17.848093802262667],[19.3378,-17.8499],[19.344,-17.8551],[19.34400062436899,-17.85510026415611],[19.347308570820733,-17.856499779962615],[19.34734603050515,-17.856515628290637],[19.349774009064443,-17.8575428499888],[19.357440909090908,-17.860786538461536],[19.3572,-17.8615]]],"type":"Polygon"},"id":"physical-component:46fb46ce05b51235b38b2f3658e470931ce9f23cdd4a9d4368689d22b1bfd0f3","properties":{"administrative_assignment":null,"dateline_connected":false,"diagnostic_nearby_locations":[],"fragment_bindings":[{"feature_sha256":"02f5b6c83f2c18bf7816abf9219cce012fffa7a07e702e1d728ae4d2d489f76f","id":"physical-gap:615:15:c9af02aab971940eb155bb1fa5dea9fa9cdc8056abe508c11c0519468c50ab75"}],"measured_fragment_area_sum_m2":264771.2906460223,"measured_fragment_count":1,"positive_area_input_overlap":false,"touches_blocked_tile":false,"touches_domain_boundary":false,"touches_reference_shore":false,"unmeasured_fragment_ids":[],"water_status":"unverified"},"type":"Feature"},{"geometry":{"coordinates":[[[19.1405,-17.812],[19.1311,-17.8141],[19.128527593203145,-17.81637415673345],[19.1304,-17.8127],[19.1435,-17.8064],[19.1693,-17.8089],[19.2104,-17.8239],[19.2322,-17.8272],[19.23757494360546,-17.823657423532765],[19.23764058394161,-17.82361416058394],[19.2324,-17.8297],[19.2228,-17.8308],[19.192,-17.8234],[19.1714,-17.8136],[19.1646,-17.8183],[19.1405,-17.812]]],"type":"Polygon"},"id":"physical-component:492208178f65a4c75b5f1085973333925ec916837a5a5b399df0621fcbd08331","properties":{"administrative_assignment":null,"dateline_connected":false,"diagnostic_nearby_locations":[],"fragment_bindings":[{"feature_sha256":"dabf1ec13ceca9688ec4f2e149f79d6db8e634346aeba0dfade1a289f9a98c5e","id":"physical-gap:615:12:dfd4aaf6f06eca8efc25c0fe21f8ddc99ac18e6b1bdead109102ef39b725c996"}],"measured_fragment_area_sum_m2":6598467.398814485,"measured_fragment_count":1,"positive_area_input_overlap":false,"touches_blocked_tile":false,"touches_domain_boundary":false,"touches_reference_shore":false,"unmeasured_fragment_ids":[],"water_status":"unverified"},"type":"Feature"},{"geometry":{"coordinates":[[[20.6713,-17.989],[20.6577,-17.9853],[20.65523020134228,-17.983805121865064],[20.6741,-17.9885],[20.676390000407054,-17.99139617698539],[20.676408806262234,-17.99141996086106],[20.6713,-17.989]]],"type":"Polygon"},"id":"physical-component:5580cd043e913861246c3f6ccc264067d589e54f0f07ffb90bf5594252d46f8c","properties":{"administrative_assignment":null,"dateline_connected":false,"diagnostic_nearby_locations":[],"fragment_bindings":[{"feature_sha256":"0d6ebdf36ef14bdd5e354dbf43bc2fc3cbf06a1265ea769b946c29d293140b43","id":"physical-gap:616:41:97f45ac270c2701dffba471706cb66182abb2fda3c1751bdf955fbbe5a1166e3"}],"measured_fragment_area_sum_m2":252635.44932853934,"measured_fragment_count":1,"positive_area_input_overlap":false,"touches_blocked_tile":false,"touches_domain_boundary":false,"touches_reference_shore":false,"unmeasured_fragment_ids":[],"water_status":"unverified"},"type":"Feature"},{"geometry":{"coordinates":[[[20.1704,-17.8816],[20.1649,-17.8893],[20.15750490463215,-17.89055340599455],[20.1589,-17.8901],[20.1763,-17.8749],[20.1976,-17.882],[20.2369,-17.8863],[20.2397,-17.8943],[20.2558,-17.8787],[20.258346212626666,-17.877253751228054],[20.25837689110557,-17.877236325852035],[20.2568,-17.8803],[20.2531,-17.8828],[20.2483,-17.8935],[20.2406,-17.8958],[20.2333,-17.8893],[20.2155,-17.8907],[20.1704,-17.8816]]],"type":"Polygon"},"id":"physical-component:56fd69bee0fd575fced4f54d4020b5e33335d08e05f469fa6dcfd9cc4d74723e","properties":{"administrative_assignment":null,"dateline_connected":false,"diagnostic_nearby_locations":[],"fragment_bindings":[{"feature_sha256":"d15d44d400fc6fb74eb7ef33bfb81203751ddb5d3f24e790f0408107abef1820","id":"physical-gap:616:32:d004bde79bd327c5129692658f72ba4117af874e7c7a7dbcf279eea6e5fed386"}],"measured_fragment_area_sum_m2":5745351.908647882,"measured_fragment_count":1,"positive_area_input_overlap":false,"touches_blocked_tile":false,"touches_domain_boundary":false,"touches_reference_shore":false,"unmeasured_fragment_ids":[],"water_status":"unverified"},"type":"Feature"},{"geometry":{"coordinates":[[[19.7817,-17.8906],[19.7775,-17.8932],[19.773469660194174,-17.894073240291263],[19.7776,-17.8906],[19.7784,-17.8883],[19.7892,-17.8809],[19.8017,-17.8728],[19.839,-17.8676],[19.8607,-17.8699],[19.8615,-17.8809],[19.897422769230765,-17.877432923076924],[19.8908,-17.8824],[19.8504,-17.8852],[19.8157,-17.8746],[19.7948,-17.8785],[19.7817,-17.8906]]],"type":"Polygon"},"id":"physical-component:669db93ffd01edc618c8ea3dd682c3e0a3f06067f145f4fa92097965135fe34e","properties":{"administrative_assignment":null,"dateline_connected":false,"diagnostic_nearby_locations":[],"fragment_bindings":[{"feature_sha256":"000b03c1afaaa9a22e384e2392980877780b72c4e656fccff1aad8286ab7c9c4","id":"physical-gap:615:18:e49d2ba6c82af771dfd068c5d0eae63318b02c5d82bac68acfb5efe19d4c9c79"}],"measured_fragment_area_sum_m2":9576067.39773874,"measured_fragment_count":1,"positive_area_input_overlap":false,"touches_blocked_tile":false,"touches_domain_boundary":false,"touches_reference_shore":false,"unmeasured_fragment_ids":[],"water_status":"unverified"},"type":"Feature"},{"geometry":{"coordinates":[[[19.2571,-17.8282],[19.2494,-17.8207],[19.24524446764092,-17.82014592901879],[19.2471,-17.8177],[19.258,-17.8264],[19.2716,-17.8214],[19.302273804260384,-17.834868946101516],[19.3028,-17.8351],[19.303261602738555,-17.83533537169342],[19.307139550648934,-17.83731274117248],[19.309492784336687,-17.838512657359797],[19.31641092063263,-17.84204022190674],[19.316535001544636,-17.842103490886622],[19.3117,-17.8411],[19.2921,-17.8383],[19.2712,-17.8248],[19.2571,-17.8282]]],"type":"Polygon"},"id":"physical-component:66c8d0eed6cd91ec69afb99b735291be5c3bd1cec1c842f90ae1dac80073044b","properties":{"administrative_assignment":null,"dateline_connected":false,"diagnostic_nearby_locations":[],"fragment_bindings":[{"feature_sha256":"7b9641e03e192b22fe21f7c9e20c55d116d7d875e1ca4ff00046bd895b462b6d","id":"physical-gap:615:14:fe1630c3557d203e0ca11f1b135d612ca4ba2ac782c2d0aef76d4c6efa72582d"}],"measured_fragment_area_sum_m2":3207090.3460556115,"measured_fragment_count":1,"positive_area_input_overlap":false,"touches_blocked_tile":false,"touches_domain_boundary":false,"touches_reference_shore":false,"unmeasured_fragment_ids":[],"water_status":"unverified"},"type":"Feature"},{"geometry":{"coordinates":[[[19.4043,-17.8707],[19.3707,-17.8522],[19.365192017005196,-17.851931317902693],[19.365190480455453,-17.851920664491153],[19.365,-17.8506],[19.3759,-17.8447],[19.386,-17.8565],[19.42087359585587,-17.868066984764077],[19.425690300279427,-17.869664604548127],[19.4264,-17.8699],[19.426613339884444,-17.869820266911876],[19.428483104933125,-17.869121465833075],[19.466,-17.8551],[19.5328,-17.8588],[19.6129,-17.8602],[19.6276,-17.8536],[19.6843,-17.8477],[19.6898,-17.8676],[19.7061,-17.8728],[19.7154,-17.8809],[19.717,-17.8809],[19.71728972665135,-17.881213091703884],[19.717294341055826,-17.88121807823775],[19.7128,-17.8808],[19.7088,-17.8889],[19.6897,-17.8761],[19.6833,-17.8626],[19.6619,-17.8527],[19.6464,-17.8542],[19.614,-17.8656],[19.5799,-17.8665],[19.5498,-17.8726],[19.5113,-17.8636],[19.4999,-17.873],[19.4672,-17.8693],[19.4599,-17.8636],[19.4357,-17.8703],[19.4043,-17.8707]]],"type":"Polygon"},"id":"physical-component:682a74b71110cd544d02f8e86650ff7cd694cabdd0a2f5f38bf6d471c7ca49d8","properties":{"administrative_assignment":null,"dateline_connected":false,"diagnostic_nearby_locations":[],"fragment_bindings":[{"feature_sha256":"e10c9239894b9e8fb3719d95d9f7fd010cd51a0600a4af88a48e642861b520c4","id":"physical-gap:615:16:ecadd250a52e5c2999b50dbff406d2592add6e418e5f14ffaf4bd30416624368"}],"measured_fragment_area_sum_m2":32993138.52674746,"measured_fragment_count":1,"positive_area_input_overlap":false,"touches_blocked_tile":false,"touches_domain_boundary":false,"touches_reference_shore":false,"unmeasured_fragment_ids":[],"water_status":"unverified"},"type":"Feature"},{"geometry":{"coordinates":[[[18.8036,-17.7753],[18.797,-17.7723],[18.79217601424896,-17.768899485454185],[18.79258361443893,-17.76898819843671],[18.8078,-17.7723],[18.8275,-17.7731],[18.8384,-17.7781],[18.838444322384973,-17.778231537400565],[18.838862969950686,-17.779473975337513],[18.8415,-17.7873],[18.84172751942175,-17.787476487028083],[18.842975355911687,-17.78844443495953],[18.855363973517893,-17.79805429721481],[18.861284146495397,-17.802646580926336],[18.8629,-17.8039],[18.876,-17.8068],[18.876100000000005,-17.8068],[18.8719,-17.8096],[18.8669,-17.8085],[18.8437,-17.7916],[18.8362,-17.7773],[18.8036,-17.7753]]],"type":"Polygon"},"id":"physical-component:77525b48385a7fc7d2273e829ebbb98d199a950203a1eecf910319e359dfa393","properties":{"administrative_assignment":null,"dateline_connected":false,"diagnostic_nearby_locations":[],"fragment_bindings":[{"feature_sha256":"db09ea8e611bca2deb87c99358d9cc787a85d15449993a425c36c31a62e69815","id":"physical-gap:615:9:25656de7ab07e14ac1622bbc9cfc3546d149d67eda1fde53b827fd092c7e27b6"}],"measured_fragment_area_sum_m2":2546636.5691041043,"measured_fragment_count":1,"positive_area_input_overlap":false,"touches_blocked_tile":false,"touches_domain_boundary":false,"touches_reference_shore":false,"unmeasured_fragment_ids":[],"water_status":"unverified"},"type":"Feature"},{"geometry":{"coordinates":[[[18.5484,-17.5667],[18.5462,-17.5589],[18.541064406779665,-17.549770056497177],[18.546,-17.5545],[18.5504,-17.5632],[18.5582,-17.5678],[18.56240516085344,-17.57929982764002],[18.5631,-17.5812],[18.56326944874567,-17.581212138162297],[18.598,-17.5837],[18.6194,-17.6057],[18.6177,-17.6278],[18.6242,-17.6399],[18.6749,-17.6699],[18.6784,-17.6778],[18.7169,-17.7053],[18.724162230919763,-17.713288454011742],[18.6996,-17.6983],[18.6543,-17.662],[18.6243,-17.6429],[18.615,-17.6273],[18.6165,-17.6101],[18.5986,-17.5919],[18.5695,-17.588],[18.5484,-17.5667]]],"type":"Polygon"},"id":"physical-component:9e71342159b50824e1fa23a4767246d236e14e7f49a148ea94e18ba82a1b278a","properties":{"administrative_assignment":null,"dateline_connected":false,"diagnostic_nearby_locations":[],"fragment_bindings":[{"feature_sha256":"4e5a8e64ceb1d955c2127911f1bf67b18b983fe560ffb730184fab20eadc79a9","id":"physical-gap:615:6:d3e14efaeedd7d66084c3b0a203abf321237d9f4eab7b0dc6c46d69e61fc945e"}],"measured_fragment_area_sum_m2":11954657.875156144,"measured_fragment_count":1,"positive_area_input_overlap":false,"touches_blocked_tile":false,"touches_domain_boundary":false,"touches_reference_shore":false,"unmeasured_fragment_ids":[],"water_status":"unverified"},"type":"Feature"},{"geometry":{"coordinates":[[[20.7056,-18.0171],[20.688,-18.0065],[20.685229508196723,-18.002268149882905],[20.685237222594495,-18.002274762223852],[20.689,-18.0055],[20.7153,-18.0079],[20.7442,-17.9998],[20.747511975804436,-18.007822341392966],[20.747953645450647,-18.008892163424896],[20.7487,-18.0107],[20.752080440870348,-18.01206893886485],[20.753048793353727,-18.012461081606055],[20.785,-18.0254],[20.790402439024387,-18.0291897706589],[20.7827,-18.0285],[20.7691,-18.0219],[20.7523,-18.0202],[20.743,-18.0072],[20.7229,-18.0158],[20.7056,-18.0171]]],"type":"Polygon"},"id":"physical-component:a13ab87e240b965f49977fac808a2856e5387d1def5db4521a1b765fd52cbb9e","properties":{"administrative_assignment":null,"dateline_connected":false,"diagnostic_nearby_locations":[],"fragment_bindings":[{"feature_sha256":"ba2427f897df5d7fa2aa3ade6099cdea1b6dd46cbc747fa3e8428bdc71056988","id":"physical-gap:616:42:dccb183779a17ab1aa8d63d8eb6b6e5f71701562aff4772e62bd63aca5c35fef"}],"measured_fragment_area_sum_m2":7654721.186545034,"measured_fragment_count":1,"positive_area_input_overlap":false,"touches_blocked_tile":false,"touches_domain_boundary":false,"touches_reference_shore":false,"unmeasured_fragment_ids":[],"water_status":"unverified"},"type":"Feature"},{"geometry":{"coordinates":[[[20.0107,-17.8849],[20.0221,-17.8986],[20.0425,-17.8972],[20.0549,-17.8844],[20.0907,-17.8915],[20.1027,-17.9043],[20.1171,-17.9024],[20.133,-17.8967],[20.1429,-17.8953],[20.150781174438688,-17.892738618307426],[20.1286,-17.9065],[20.114,-17.9119],[20.0838,-17.8955],[20.0599,-17.8913],[20.0386,-17.901],[20.0165,-17.9015],[20.0,-17.891619760479042],[19.9998,-17.8915],[19.9709,-17.8935],[19.9559,-17.8788],[19.9128,-17.8659],[19.90008759124088,-17.87543430656934],[19.9037,-17.8702],[19.9037,-17.8626],[19.909771476113193,-17.862840931591794],[19.9415,-17.8641],[19.9589,-17.8816],[19.9982,-17.8816],[20.0,-17.8820752],[20.0107,-17.8849]]],"type":"Polygon"},"id":"physical-component:c31b3663898b9ff3e785f7b01788c8b72ffba23b712a9c41a5a2859510e9e460","properties":{"administrative_assignment":null,"dateline_connected":false,"diagnostic_nearby_locations":[],"fragment_bindings":[{"feature_sha256":"60ba0f1788c3ccf966d64055d41b165a5abdeac40ec17679a0d20a802084c045","id":"physical-gap:615:1:db962a659e5b2d50eca3985d907949ec6ba411f8ad4d0e32494cff4223cbe491"},{"feature_sha256":"3ae0d31708674c6a7e5b9fbef2bb2a811d612e88a098389a6df330121506a015","id":"physical-gap:616:0:c8128b4a7e5a6dbc4becbc0f500220f5949364ab4efff46adc5909edb451d902"}],"measured_fragment_area_sum_m2":18996248.93377077,"measured_fragment_count":2,"positive_area_input_overlap":false,"touches_blocked_tile":false,"touches_domain_boundary":false,"touches_reference_shore":false,"unmeasured_fragment_ids":[],"water_status":"unverified"},"type":"Feature"},{"geometry":{"coordinates":[[[20.2942,-17.879],[20.2882,-17.8786],[20.281033741429976,-17.873082615083256],[20.2857,-17.8749],[20.2951,-17.8712],[20.3046,-17.8589],[20.3289,-17.8603],[20.3444,-17.8693],[20.3647,-17.8939],[20.3941,-17.8972],[20.4234,-17.9085],[20.4418,-17.91],[20.4543,-17.9147],[20.4702,-17.9426],[20.4808342793432,-17.949223103801465],[20.480919525350597,-17.94927619561309],[20.4724,-17.9483],[20.4533,-17.9167],[20.4397,-17.9102],[20.4174,-17.9093],[20.3898,-17.8971],[20.3699,-17.8986],[20.3351,-17.874],[20.3168,-17.8652],[20.2942,-17.879]]],"type":"Polygon"},"id":"physical-component:c599cd47e0a90b61f5a300a5bf863630acca9f95e38b776003aad9af0054ca90","properties":{"administrative_assignment":null,"dateline_connected":false,"diagnostic_nearby_locations":[],"fragment_bindings":[{"feature_sha256":"cfba8a09b4603d2fd77385e012dd6270f105ae6f4ed2a9ec93faab29439150a4","id":"physical-gap:616:33:669c6f908f457b2d226e0d70fcc5f824fc5d3a17c2e67a728df2d7c589cd0934"}],"measured_fragment_area_sum_m2":10564200.331147788,"measured_fragment_count":1,"positive_area_input_overlap":false,"touches_blocked_tile":false,"touches_domain_boundary":false,"touches_reference_shore":false,"unmeasured_fragment_ids":[],"water_status":"unverified"},"type":"Feature"},{"geometry":{"coordinates":[[[20.6149,-17.985],[20.6109,-17.9833],[20.60869965618364,-17.980279188997873],[20.615498500245288,-17.983419959352442],[20.6149,-17.985]]],"type":"Polygon"},"id":"physical-component:cd9a7967a8f7f17c8fae2c8dbb4cc22f9ca5ac63271e2d003200ab381890ff17","properties":{"administrative_assignment":null,"dateline_connected":false,"diagnostic_nearby_locations":[],"fragment_bindings":[{"feature_sha256":"6fba055cb2bc113f7111229506008c9b32d851d3b0bbdeacd16f499af25a43b4","id":"physical-gap:616:39:76a78cf5825b68403ecd7ab4e46705f17855b2b7db5c4da806e2afcb49a0ba96"}],"measured_fragment_area_sum_m2":122882.53985087367,"measured_fragment_count":1,"positive_area_input_overlap":false,"touches_blocked_tile":false,"touches_domain_boundary":false,"touches_reference_shore":false,"unmeasured_fragment_ids":[],"water_status":"unverified"},"type":"Feature"},{"geometry":{"coordinates":[[[18.7549,-17.7464],[18.7438,-17.7405],[18.742875480299578,-17.738238228590035],[18.744,-17.739],[18.7558,-17.7398],[18.7746,-17.7361],[18.7851,-17.7515],[18.786185285919824,-17.761935441536764],[18.786186967225728,-17.761951607939682],[18.7849,-17.7603],[18.7785,-17.744],[18.7549,-17.7464]]],"type":"Polygon"},"id":"physical-component:dbc2f6bc19725cb3232b8fd44be0761111ccb4df102520f3d951216ea17eff1a","properties":{"administrative_assignment":null,"dateline_connected":false,"diagnostic_nearby_locations":[],"fragment_bindings":[{"feature_sha256":"1ce07968b06c5367778438b2cc098c6983b1198b955592b54a690fcf3f7ef949","id":"physical-gap:615:8:f56deaa5d67f7438066f3137bb91aa6328d115ebb3924272437c3e6a05501cea"}],"measured_fragment_area_sum_m2":2987031.650846362,"measured_fragment_count":1,"positive_area_input_overlap":false,"touches_blocked_tile":false,"touches_domain_boundary":false,"touches_reference_shore":false,"unmeasured_fragment_ids":[],"water_status":"unverified"},"type":"Feature"},{"geometry":{"coordinates":[[[18.739719767701587,-17.730518003127095],[18.7382,-17.7268],[18.73398846153846,-17.721376923076924],[18.733991996591634,-17.7213776978831],[18.7382,-17.7223],[18.739716735502217,-17.73050160678976],[18.739719767701587,-17.730518003127095]]],"type":"Polygon"},"id":"physical-component:ebcac3213aa796d0dd4af51f08801e99de7d2380493cde958824a955bc03a37e","properties":{"administrative_assignment":null,"dateline_connected":false,"diagnostic_nearby_locations":[],"fragment_bindings":[{"feature_sha256":"23d992dd51fd18ddcfc13a2e8f429f386dc6e60d3a907bc80ef1df5ff109835e","id":"physical-gap:615:7:ba07f7a761f219c765b53a521842a44cf752e4d9cecb29fca3dd57bbe6c33434"}],"measured_fragment_area_sum_m2":151384.11367761766,"measured_fragment_count":1,"positive_area_input_overlap":false,"touches_blocked_tile":false,"touches_domain_boundary":false,"touches_reference_shore":false,"unmeasured_fragment_ids":[],"water_status":"unverified"},"type":"Feature"},{"geometry":{"coordinates":[[[18.4498,-17.4235],[18.4329,-17.4108],[18.42566188925082,-17.399540716612382],[18.425685104772306,-17.39956268844522],[18.4514,-17.4239],[18.4583,-17.4389],[18.4733,-17.4506],[18.4849,-17.4845],[18.5163,-17.5011],[18.5193,-17.5145],[18.5425,-17.527],[18.5429,-17.5324],[18.53837736401476,-17.538522953333864],[18.538361936901588,-17.5385438392717],[18.5374,-17.5343],[18.5347,-17.5294],[18.5183,-17.5167],[18.5114,-17.5014],[18.4786,-17.4857],[18.4727,-17.4563],[18.4557,-17.4402],[18.4498,-17.4235]]],"type":"Polygon"},"id":"physical-component:12bedbd22f54e5f9495416ba68dea11a9873b873d4ed9f19433634b22734d4a0","properties":{"administrative_assignment":null,"dateline_connected":false,"diagnostic_nearby_locations":[],"fragment_bindings":[{"feature_sha256":"97440ea15d14b5d0b62bd4895840511ab72db1781358ef3cbda1b4e9a22a2892","id":"physical-gap:615:5:b4f072612277137fcc8cbc1d9f4953dcc3f2ffcbc94251aa63be5d7a5d83dd8d"}],"measured_fragment_area_sum_m2":7422994.999326339,"measured_fragment_count":1,"positive_area_input_overlap":false,"touches_blocked_tile":false,"touches_domain_boundary":false,"touches_reference_shore":false,"unmeasured_fragment_ids":[],"water_status":"unverified"},"type":"Feature"}]}
