{"type":"FeatureCollection","features":[{"geometry":{"coordinates":[[[-28.05484,39.097724],[-28.04483,39.103217],[-28.034332,39.105048],[-28.023834,39.103217],[-28.013824,39.097724],[-28.007069,39.10456],[-27.991282,39.087795],[-27.958079,39.066474],[-27.942209,39.053046],[-27.935902,39.035956],[-27.947174,39.024237],[-27.94775244316235,39.02402689175267],[-27.9516,39.058],[-28.0142,39.0886],[-28.0398,39.094],[-28.056543410777532,39.09464952886637],[-28.05484,39.097724]]],"type":"Polygon"},"id":"physical-component:0e69e3b2e7e12679af2fda46506d4983475b060805de4ce2b408ea58a6f146e9","properties":{"administrative_assignment":null,"dateline_connected":false,"diagnostic_nearby_locations":[],"fragment_bindings":[{"feature_sha256":"e579ce374c3c000bbea3c8f13a052096463b7ce018b9aa303bf9e75be6db5854","id":"physical-gap:1398:33:34b94fb238b50dd227eebc71f87ed9c8152a269fcfca403abadbfe9c2289a32d"}],"measured_fragment_area_sum_m2":12845439.812148698,"measured_fragment_count":1,"positive_area_input_overlap":false,"touches_blocked_tile":false,"touches_domain_boundary":false,"touches_reference_shore":true,"unmeasured_fragment_ids":[],"water_status":"unverified"},"type":"Feature"},{"geometry":{"coordinates":[[[-31.099965,39.664008],[-31.131581,39.65884],[-31.133046,39.665351],[-31.148915,39.696357],[-31.152699,39.701077],[-31.149648,39.711493],[-31.141103,39.720893],[-31.129384,39.727118],[-31.117299,39.728339],[-31.082672,39.722724],[-31.08023,39.693305],[-31.099965,39.664008]],[[-31.0895,39.7007],[-31.098,39.719],[-31.1104,39.7227],[-31.1323,39.711],[-31.1246,39.6912],[-31.1086,39.6783],[-31.0933,39.6854],[-31.0895,39.7007]]],"type":"Polygon"},"id":"physical-component:170eb2e6d328a6cd841a5e527f4d77724b372513bf3a3751c44f8963108898a4","properties":{"administrative_assignment":null,"dateline_connected":false,"diagnostic_nearby_locations":[],"fragment_bindings":[{"feature_sha256":"649246a6f48a46d4747efdbcdf3249d6f937f84b26df37d1271d5bd8198d0a01","id":"physical-gap:1397:2:d7584ef93d1421f2f3f0341b69f8cad76c2c8f69fe2a31f582f78a902f3742b8"}],"measured_fragment_area_sum_m2":23158342.0748868,"measured_fragment_count":1,"positive_area_input_overlap":false,"touches_blocked_tile":false,"touches_domain_boundary":false,"touches_reference_shore":true,"unmeasured_fragment_ids":[],"water_status":"unverified"},"type":"Feature"},{"geometry":{"coordinates":[[[-28.518666,38.550116],[-28.48526,38.557807],[-28.439783242696233,38.55694337888774],[-28.52861416952727,38.543020036124254],[-28.518666,38.550116]]],"type":"Polygon"},"id":"physical-component:180451af0aa8bf42d7b0001ec6fe45f8448f9279b6bc4d93a809188b8d6b72c9","properties":{"administrative_assignment":null,"dateline_connected":false,"diagnostic_nearby_locations":[],"fragment_bindings":[{"feature_sha256":"9c050082dad0cb2c9643e2ab1ec2d1a1dfe376c19628b7a4d2238f65e86714a9","id":"physical-gap:1398:19:12e8e19253ef60e882d39c78e0a95a0b9022608514be24d62f18ff8b3a9165e9"}],"measured_fragment_area_sum_m2":4211392.107749514,"measured_fragment_count":1,"positive_area_input_overlap":false,"touches_blocked_tile":false,"touches_domain_boundary":false,"touches_reference_shore":true,"unmeasured_fragment_ids":[],"water_status":"unverified"},"type":"Feature"},{"geometry":{"coordinates":[[[-25.327545,37.72724],[-25.340806011119934,37.724342616362335],[-25.3399,37.7556],[-25.3131,37.7358],[-25.206836945431643,37.739481397957896],[-25.327545,37.72724]]],"type":"Polygon"},"id":"physical-component:197c5f7ad9e21ef7f300219295e89ab6c408b598bf3374b6a3411c81a9c00c59","properties":{"administrative_assignment":null,"dateline_connected":false,"diagnostic_nearby_locations":[],"fragment_bindings":[{"feature_sha256":"62b106caea7f3ee8371f7f7f1e4cc81d0a0ef16d3a93ebb8134203780383ce30","id":"physical-gap:1398:4:9699098c97eb3a738be2a189821fdd61d8fd70696ac7754635d561416080b87e"}],"measured_fragment_area_sum_m2":8725562.615511077,"measured_fragment_count":1,"positive_area_input_overlap":false,"touches_blocked_tile":false,"touches_domain_boundary":false,"touches_reference_shore":true,"unmeasured_fragment_ids":[],"water_status":"unverified"},"type":"Feature"},{"geometry":{"coordinates":[[[-28.637807,38.529446],[-28.635365,38.525784],[-28.632069,38.523627],[-28.623402,38.522366],[-28.63622,38.51553],[-28.647817,38.515815],[-28.671783,38.522366],[-28.683949,38.52143],[-28.714345,38.515326],[-28.72704,38.514879],[-28.749582,38.523505],[-28.75183318540345,38.5262],[-28.729,38.5262],[-28.6802,38.5335],[-28.64351080603555,38.5349232876969],[-28.637807,38.529446]]],"type":"Polygon"},"id":"physical-component:27511314e794ac6283a40085a5fde351c1c135fddef5853e4cd77202ba92097c","properties":{"administrative_assignment":null,"dateline_connected":false,"diagnostic_nearby_locations":[],"fragment_bindings":[{"feature_sha256":"dc5bda2c3a91f8a21884653d8765e35f88772dba07296ca6f1657718f3eb8c60","id":"physical-gap:1398:21:256b7c6b61f22c8f380b0ff65392257f7fbfde38af49f95e9fd9d4212da53599"}],"measured_fragment_area_sum_m2":14078524.600028343,"measured_fragment_count":1,"positive_area_input_overlap":false,"touches_blocked_tile":false,"touches_domain_boundary":false,"touches_reference_shore":true,"unmeasured_fragment_ids":[],"water_status":"unverified"},"type":"Feature"},{"geometry":{"coordinates":[[[-25.841461,37.905992],[-25.764556,37.911566],[-25.763492431457824,37.91133326087256],[-25.812,37.9026],[-25.846055824078498,37.89271531636724],[-25.841461,37.905992]]],"type":"Polygon"},"id":"physical-component:285b6efbc96116d3f3ed1f99471d163b6a15e6d7c7a051765a33cec4f162bdc0","properties":{"administrative_assignment":null,"dateline_connected":false,"diagnostic_nearby_locations":[],"fragment_bindings":[{"feature_sha256":"400b2a59ee9454e242e43181f52c9bdbb40f91ad1b1c778994fbcfc19b6266d3","id":"physical-gap:1398:8:c127c117803c56cbf343d0229acc2755c55f31f2b357a4ccb44b08199a960c38"}],"measured_fragment_area_sum_m2":4160348.334673292,"measured_fragment_count":1,"positive_area_input_overlap":false,"touches_blocked_tile":false,"touches_domain_boundary":false,"touches_reference_shore":true,"unmeasured_fragment_ids":[],"water_status":"unverified"},"type":"Feature"},{"geometry":{"coordinates":[[[-27.217152,38.641303],[-27.228383,38.641099],[-27.252919,38.652655],[-27.278798,38.657416],[-27.304758,38.658881],[-27.327626,38.666327],[-27.352691,38.684394],[-27.373402,38.706977],[-27.38329,38.727729],[-27.391713,38.758857],[-27.368764,38.78266],[-27.365247624537126,38.784122241023965],[-27.3784,38.7636],[-27.3621,38.7347],[-27.3389,38.7039],[-27.3018,38.6731],[-27.2415,38.664],[-27.20466520126916,38.652505002465034],[-27.217152,38.641303]]],"type":"Polygon"},"id":"physical-component:2aba2a590c088246cbbe4604927f4662ef653df6b2506271ef90d8ff4bf6cf70","properties":{"administrative_assignment":null,"dateline_connected":false,"diagnostic_nearby_locations":[],"fragment_bindings":[{"feature_sha256":"1da4775b63d12f80e1747bc1d616e044cb278eaf10d11a29637953845b82b2a3","id":"physical-gap:1398:30:e419bcc328b5093a97270fa0d1b8aa1099ab7b442dfa2d34c4c77757053fc149"}],"measured_fragment_area_sum_m2":40914714.12387884,"measured_fragment_count":1,"positive_area_input_overlap":false,"touches_blocked_tile":false,"touches_domain_boundary":false,"touches_reference_shore":true,"unmeasured_fragment_ids":[],"water_status":"unverified"},"type":"Feature"},{"geometry":{"coordinates":[[[-28.548899,38.52251889189189],[-28.5401,38.4985],[-28.548899,38.49380053409091],[-28.548899,38.52251889189189]]],"type":"Polygon"},"id":"physical-component:2aeb439f6611c644a00b6d513ed9d0b461353f21491b6b1b61c7c7863c21970e","properties":{"administrative_assignment":null,"dateline_connected":false,"diagnostic_nearby_locations":[],"fragment_bindings":[{"feature_sha256":"9c0667d0566aac6d04673ef69ede050e1c07ad62fe8c156e8391661831828012","id":"physical-gap:1398:18:302f4529d33b4ea53b59359d4b7ec063a681e576a7056ed7af26cb9470e309a5"}],"measured_fragment_area_sum_m2":1223374.890928098,"measured_fragment_count":1,"positive_area_input_overlap":false,"touches_blocked_tile":false,"touches_domain_boundary":false,"touches_reference_shore":true,"unmeasured_fragment_ids":[],"water_status":"unverified"},"type":"Feature"},{"geometry":{"coordinates":[[[-25.372426,37.717434],[-25.420318,37.713568],[-25.465443,37.715399],[-25.488271,37.71369],[-25.505686,37.706732],[-25.527577013132838,37.71757946775566],[-25.4941,37.7248],[-25.4105,37.7175],[-25.37212392514785,37.7175],[-25.372426,37.717434]]],"type":"Polygon"},"id":"physical-component:2ca77579b71b18dc73da63b1c5b9e0d08e5f828b694f5860f24013d00331f5bd","properties":{"administrative_assignment":null,"dateline_connected":false,"diagnostic_nearby_locations":[],"fragment_bindings":[{"feature_sha256":"22670efa85f266a69e35a00a45e01e5266019e5568413c445b92b5a9b7e91953","id":"physical-gap:1398:5:99f53360f687839bf85900043a0754c829b2bb65b6b343a3e816521274e8955c"}],"measured_fragment_area_sum_m2":9511198.275887098,"measured_fragment_count":1,"positive_area_input_overlap":false,"touches_blocked_tile":false,"touches_domain_boundary":false,"touches_reference_shore":true,"unmeasured_fragment_ids":[],"water_status":"unverified"},"type":"Feature"},{"geometry":{"coordinates":[[[-25.197825,37.864407],[-25.18552390828036,37.86047062519216],[-25.2318,37.8495],[-25.308998762885818,37.86236646048096],[-25.197825,37.864407]]],"type":"Polygon"},"id":"physical-component:332ae302451a8b8263c9b574161b10527bb5bb6d76434ffa764629ebcc6341dc","properties":{"administrative_assignment":null,"dateline_connected":false,"diagnostic_nearby_locations":[],"fragment_bindings":[{"feature_sha256":"ac3ce29aa73c2541fa87d70ef3c740afa32dcf2dc3baf90b383d321f8781fb62","id":"physical-gap:1398:13:99bf6f76b28e74f56eae1c045d9470ccb587cafbf38d9414831f9121d3b8748c"}],"measured_fragment_area_sum_m2":9303830.129764875,"measured_fragment_count":1,"positive_area_input_overlap":false,"touches_blocked_tile":false,"touches_domain_boundary":false,"touches_reference_shore":true,"unmeasured_fragment_ids":[],"water_status":"unverified"},"type":"Feature"},{"geometry":{"coordinates":[[[-27.051747,38.654283],[-27.054351,38.645209],[-27.060292,38.641425],[-27.089101,38.631008],[-27.114166,38.638983],[-27.181711,38.63935],[-27.203754204828833,38.65222070874831],[-27.1835,38.6459],[-27.0976,38.6387],[-27.0744,38.6713],[-27.0373,38.6948],[-27.03170287915286,38.70792013273845],[-27.022817,38.702826],[-27.020131,38.693671],[-27.025746,38.690009],[-27.04776,38.682929],[-27.054351,38.679389],[-27.056142,38.671332],[-27.051747,38.654283]]],"type":"Polygon"},"id":"physical-component:35d850a449c10acb23bd14adc9c162a452ab166090f6784e3cfd75c3f213a165","properties":{"administrative_assignment":null,"dateline_connected":false,"diagnostic_nearby_locations":[],"fragment_bindings":[{"feature_sha256":"d33ab04cca4a661f9647b7d12ee2c8f93942dbaf212c3b1d49949b927e3eb630","id":"physical-gap:1398:29:91ab11bd4044caf66b155b23e1b4fc0b287a7646d124130537247884a359225c"}],"measured_fragment_area_sum_m2":19099953.43995022,"measured_fragment_count":1,"positive_area_input_overlap":false,"touches_blocked_tile":false,"touches_domain_boundary":false,"touches_reference_shore":true,"unmeasured_fragment_ids":[],"water_status":"unverified"},"type":"Feature"},{"geometry":{"coordinates":[[[-28.241851,38.37759],[-28.253651,38.382554],[-28.262929,38.394843],[-28.265375512792367,38.397118380935964],[-28.244,38.3917],[-28.21369882801984,38.39511509110432],[-28.241851,38.37759]]],"type":"Polygon"},"id":"physical-component:3b388b486ead9fd134100516ff2fa802518c8cc34f41818c5e74b978d316b467","properties":{"administrative_assignment":null,"dateline_connected":false,"diagnostic_nearby_locations":[],"fragment_bindings":[{"feature_sha256":"52baeb823666065168bdc428eae1e1e73fae624eee2f4f49270cab6ec8669c09","id":"physical-gap:1398:16:91d2de6dd562312a88c0aead495a8ae9135276e71e23983bc55a4f50f458acfc"}],"measured_fragment_area_sum_m2":4022587.204975041,"measured_fragment_count":1,"positive_area_input_overlap":false,"touches_blocked_tile":false,"touches_domain_boundary":false,"touches_reference_shore":true,"unmeasured_fragment_ids":[],"water_status":"unverified"},"type":"Feature"},{"geometry":{"coordinates":[[[-25.564511266393595,37.83081247115967],[-25.663509944410126,37.81732606121275],[-25.673119156500473,37.84250882393228],[-25.564511266393595,37.83081247115967]]],"type":"Polygon"},"id":"physical-component:3bfdf83181a63b3e00894786efa44f61bbf284706dedbb85e2823ebf9fbadb59","properties":{"administrative_assignment":null,"dateline_connected":false,"diagnostic_nearby_locations":[],"fragment_bindings":[{"feature_sha256":"7a7575d5cf1cebf359b229047bc02f550db40de952673a6f0e1743869adc342e","id":"physical-gap:1398:10:517726f9e092bfe46cde14bb8549561484ae0047942c6f657d58dc8295c1dca2"}],"measured_fragment_area_sum_m2":12813297.205975493,"measured_fragment_count":1,"positive_area_input_overlap":false,"touches_blocked_tile":false,"touches_domain_boundary":false,"touches_reference_shore":true,"unmeasured_fragment_ids":[],"water_status":"unverified"},"type":"Feature"},{"geometry":{"coordinates":[[[-25.512563,37.84748],[-25.498891,37.850775],[-25.489858,37.848049],[-25.480725547709305,37.84222644731078],[-25.535640687117585,37.83474545769365],[-25.512563,37.84748]]],"type":"Polygon"},"id":"physical-component:4393d90168c783a5f18639aa341efc242b27bdf055c7f5ab8fdbd57999b7ec22","properties":{"administrative_assignment":null,"dateline_connected":false,"diagnostic_nearby_locations":[],"fragment_bindings":[{"feature_sha256":"05807446cc684dbf1cedce1a4b2c5670d7ecf3decbad4bd9370eedee29d08104","id":"physical-gap:1398:11:cff86a9d77aa22b15a2046241af7f0ddd2133cb593d4fbd566a0009a095f93a8"}],"measured_fragment_area_sum_m2":3571301.256873346,"measured_fragment_count":1,"positive_area_input_overlap":false,"touches_blocked_tile":false,"touches_domain_boundary":false,"touches_reference_shore":true,"unmeasured_fragment_ids":[],"water_status":"unverified"},"type":"Feature"},{"geometry":{"coordinates":[[[-27.298207,38.803534],[-27.144276,38.796088],[-27.131767638601534,38.79172942800854],[-27.1881,38.789],[-27.2392,38.7944],[-27.328595121588013,38.798561497039444],[-27.298207,38.803534]]],"type":"Polygon"},"id":"physical-component:51f6d7b294d3f4b168d072630538a123827c308bb86ad976ccba7c299a29b782","properties":{"administrative_assignment":null,"dateline_connected":false,"diagnostic_nearby_locations":[],"fragment_bindings":[{"feature_sha256":"af9cacf0909f97e9caa67a1c59db2daeac93ef7668fc12afffce0cac8d447449","id":"physical-gap:1398:31:6d21cee92f10264b566740468dbcfebf039ab12ed736cc85aca1a741b972b71f"}],"measured_fragment_area_sum_m2":11650644.849776607,"measured_fragment_count":1,"positive_area_input_overlap":false,"touches_blocked_tile":false,"touches_domain_boundary":false,"touches_reference_shore":true,"unmeasured_fragment_ids":[],"water_status":"unverified"},"type":"Feature"},{"geometry":{"coordinates":[[[-25.012196,36.949205],[-25.02356440161725,36.937836598382745],[-25.0276,36.9499],[-25.0462,36.9777],[-25.061832871009976,37.018808660804005],[-25.046742,37.010728],[-25.029205,36.992377],[-25.016916,36.970445],[-25.012196,36.949205]]],"type":"Polygon"},"id":"physical-component:5a729a9ec96832442bec331bd6af6115e6a4ee8b197184ca6a23974e763e17a7","properties":{"administrative_assignment":null,"dateline_connected":false,"diagnostic_nearby_locations":[],"fragment_bindings":[{"feature_sha256":"d2c0cb3c08df1d4896787da88fdfabb675f4c6c740ec85d015452dc72cc7c1f6","id":"physical-gap:1398:0:0343315b8b184fb2ba9163bcd5591da4d4d9b1f7c286fc8288159b551d6656dc"}],"measured_fragment_area_sum_m2":13845739.716654008,"measured_fragment_count":1,"positive_area_input_overlap":false,"touches_blocked_tile":false,"touches_domain_boundary":false,"touches_reference_shore":true,"unmeasured_fragment_ids":[],"water_status":"unverified"},"type":"Feature"},{"geometry":{"coordinates":[[[-25.151723,36.945868],[-25.169097,36.94599],[-25.176666,36.956041],[-25.183217,36.968899],[-25.195302,36.98017],[-25.20165,36.990424],[-25.190989,37.000434],[-25.170318,37.01553],[-25.133616,37.023017],[-25.094472,37.024482],[-25.066803,37.02147],[-25.064263849461355,37.02011036911988],[-25.1715,37.0092],[-25.1831,36.9851],[-25.1715,36.961],[-25.136994535469086,36.94890913641774],[-25.151723,36.945868]]],"type":"Polygon"},"id":"physical-component:5b336fdbf1e789f41d62e829d20fdc31190037f1c8588cf641843590b897c7d3","properties":{"administrative_assignment":null,"dateline_connected":false,"diagnostic_nearby_locations":[],"fragment_bindings":[{"feature_sha256":"05cb275bbb840903befee1cf3579b8879082e2ad899fe8ad1accfbef8cd6d4fd","id":"physical-gap:1398:2:84413e919c4adbf6bdf19ee01cb68d62f06dc3157f5f85df4b985a98b2c75162"}],"measured_fragment_area_sum_m2":17469957.201886564,"measured_fragment_count":1,"positive_area_input_overlap":false,"touches_blocked_tile":false,"touches_domain_boundary":false,"touches_reference_shore":true,"unmeasured_fragment_ids":[],"water_status":"unverified"},"type":"Feature"},{"geometry":{"coordinates":[[[-28.661110784158534,38.62421880181477],[-28.7104,38.6387],[-28.71485373267132,38.64350767169156],[-28.661110784158534,38.62421880181477]]],"type":"Polygon"},"id":"physical-component:65ae730ba87f47e6ea2384b3ba147899d82c9fb99a8306b00cede0634e95739a","properties":{"administrative_assignment":null,"dateline_connected":false,"diagnostic_nearby_locations":[],"fragment_bindings":[{"feature_sha256":"3b985133e541d7589837e48bd3b37e81a79c3a43d9321fc95406edbac616d7f9","id":"physical-gap:1398:22:1aa982fe8c378d1942a57d0783b4b43595c138a4e4fbf99627338efd49a9fe55"}],"measured_fragment_area_sum_m2":833501.9286837229,"measured_fragment_count":1,"positive_area_input_overlap":false,"touches_blocked_tile":false,"touches_domain_boundary":false,"touches_reference_shore":true,"unmeasured_fragment_ids":[],"water_status":"unverified"},"type":"Feature"},{"geometry":{"coordinates":[[[-28.174469,38.464789],[-28.126428695548633,38.4513430671043],[-28.1699,38.4553],[-28.183209178598894,38.465990103292285],[-28.174469,38.464789]]],"type":"Polygon"},"id":"physical-component:66b7d84b8f82e63bf5390a970be65ea9084861ec136ab86aa967ef709b34f80c","properties":{"administrative_assignment":null,"dateline_connected":false,"diagnostic_nearby_locations":[],"fragment_bindings":[{"feature_sha256":"702bfdc5ae6a18f7cb4fada25e7921ab3aa30004edd87a0b2e6babd4b4be9012","id":"physical-gap:1398:20:c72f15328dcf5e32182bf08729b4977fcad7794f104cc1b02b17d510b8a1f6bb"}],"measured_fragment_area_sum_m2":2285942.9506974597,"measured_fragment_count":1,"positive_area_input_overlap":false,"touches_blocked_tile":false,"touches_domain_boundary":false,"touches_reference_shore":true,"unmeasured_fragment_ids":[],"water_status":"unverified"},"type":"Feature"},{"geometry":{"coordinates":[[[-31.159535,39.501776],[-31.140736,39.482733],[-31.13268,39.465522],[-31.131581,39.423],[-31.139027,39.400295],[-31.156646,39.372626],[-31.177235,39.355618],[-31.193674,39.364651],[-31.212514,39.357733],[-31.234446,39.355699],[-31.251784470210655,39.35774931850747],[-31.2452,39.359],[-31.1992,39.3889],[-31.174,39.3992],[-31.1561,39.4141],[-31.1502,39.4348],[-31.1443,39.4612],[-31.163353051304256,39.499914178713965],[-31.159535,39.501776]]],"type":"Polygon"},"id":"physical-component:72fdc2c1b3c1f5c2c2e78d62b81db2bca855a5d92b8d7f9a72e72096a31476ca","properties":{"administrative_assignment":null,"dateline_connected":false,"diagnostic_nearby_locations":[],"fragment_bindings":[{"feature_sha256":"bdab46d9bb94e35db986c830f8648afc77353578ca90256ea830dbbb7c3960bc","id":"physical-gap:1397:0:76b722e7dd71ee21f5b0289124ecef6fd51e6d4ef33adf8190305c214ac9d44e"}],"measured_fragment_area_sum_m2":39504609.74607654,"measured_fragment_count":1,"positive_area_input_overlap":false,"touches_blocked_tile":false,"touches_domain_boundary":false,"touches_reference_shore":true,"unmeasured_fragment_ids":[],"water_status":"unverified"},"type":"Feature"},{"geometry":{"coordinates":[[[-28.072987,39.052965],[-28.07287358106625,39.0540998091131],[-28.007414000489742,39.0164605502816],[-28.025217,39.01911],[-28.045155,39.02558],[-28.061635,39.036282],[-28.072987,39.052965]]],"type":"Polygon"},"id":"physical-component:779c27157d199c00390ae7166e76a060bdcdc9bd1ce979e478510b58fc55c9a3","properties":{"administrative_assignment":null,"dateline_connected":false,"diagnostic_nearby_locations":[],"fragment_bindings":[{"feature_sha256":"93aa0040402f17f39c1a4b38ebc9b28e2856515643bc3339b30a651a6a9cccf6","id":"physical-gap:1398:32:fe429f4632da44500dab69bd09fa9c0a17a382d1a400e7aaf2f1ac33cd4dde73"}],"measured_fragment_area_sum_m2":5162324.637882283,"measured_fragment_count":1,"positive_area_input_overlap":false,"touches_blocked_tile":false,"touches_domain_boundary":false,"touches_reference_shore":true,"unmeasured_fragment_ids":[],"water_status":"unverified"},"type":"Feature"},{"geometry":{"coordinates":[[[-25.739084,37.905992],[-25.704213,37.882636],[-25.69811,37.874335],[-25.697174,37.862535],[-25.694203,37.852688],[-25.688832,37.845852],[-25.687802644058912,37.84553125589238],[-25.7079,37.8421],[-25.7377,37.8587],[-25.735,37.8866],[-25.75952886075351,37.910465918570985],[-25.739084,37.905992]]],"type":"Polygon"},"id":"physical-component:8cb026de2a31178f9eefe3d0104fd443b1f388997c00cf6ee49d8b2b4840941c","properties":{"administrative_assignment":null,"dateline_connected":false,"diagnostic_nearby_locations":[],"fragment_bindings":[{"feature_sha256":"e7d70a72deb432f42ab6d16d3b6ec7bb8d3668bbbde9188f403732826ea24a16","id":"physical-gap:1398:9:383749761d712a250d5b17f314badd72d54b5367c19ed39c9d7af69e66cbd5de"}],"measured_fragment_area_sum_m2":18791094.33805029,"measured_fragment_count":1,"positive_area_input_overlap":false,"touches_blocked_tile":false,"touches_domain_boundary":false,"touches_reference_shore":true,"unmeasured_fragment_ids":[],"water_status":"unverified"},"type":"Feature"},{"geometry":{"coordinates":[[[-27.976877,38.593085],[-28.003774,38.589423],[-28.020741,38.597398],[-28.034535,38.590074],[-28.044179,38.59394],[-28.061635,38.611721],[-28.074371,38.617621],[-28.086359437712364,38.620801903727035],[-28.0258,38.6224],[-27.9744,38.6099],[-27.96824204711822,38.58937349039407],[-27.976877,38.593085]]],"type":"Polygon"},"id":"physical-component:92c4f5ea47edf0954fad3b713143129f5f87620778ed47086f3656459f87da94","properties":{"administrative_assignment":null,"dateline_connected":false,"diagnostic_nearby_locations":[],"fragment_bindings":[{"feature_sha256":"ff9bc154cba0759458bb237d68598792e27293f0c61ef0ebddee298256567e91","id":"physical-gap:1398:26:d89099c146a687da36c04c505f024d2a45e2b937e8367dd41b3f17968f1d0813"}],"measured_fragment_area_sum_m2":21811007.700634364,"measured_fragment_count":1,"positive_area_input_overlap":false,"touches_blocked_tile":false,"touches_domain_boundary":false,"touches_reference_shore":true,"unmeasured_fragment_ids":[],"water_status":"unverified"},"type":"Feature"},{"geometry":{"coordinates":[[[-25.132314,37.7862],[-25.138840077048375,37.77777988176066],[-25.1367,37.789],[-25.13409510784419,37.80879718038416],[-25.132314,37.7862]]],"type":"Polygon"},"id":"physical-component:99977c0830de2770e612cc251aa6f139976cccc11ed443c631a19462a0ea40f2","properties":{"administrative_assignment":null,"dateline_connected":false,"diagnostic_nearby_locations":[],"fragment_bindings":[{"feature_sha256":"44d8a17df394f5a8010d52741653d4777715addf9b2edae8604a431c7ea44ae1","id":"physical-gap:1398:14:9feefbc9e9d18c82a4f73d0b8cf7ff106bb5725bc119647c4d2fa7999b18d47f"}],"measured_fragment_area_sum_m2":729941.7834573387,"measured_fragment_count":1,"positive_area_input_overlap":false,"touches_blocked_tile":false,"touches_domain_boundary":false,"touches_reference_shore":true,"unmeasured_fragment_ids":[],"water_status":"unverified"},"type":"Feature"},{"geometry":{"coordinates":[[[-28.231109,38.685045],[-28.234731,38.683254],[-28.238637,38.682847],[-28.247222,38.686225],[-28.249623,38.689927],[-28.248525,38.694403],[-28.249257,38.698188],[-28.257192,38.699897],[-28.265492,38.703192],[-28.312123,38.735256],[-28.315785,38.742092],[-28.315541,38.755072],[-28.312486531234335,38.75408833459102],[-28.271043622830874,38.73504433144371],[-28.264475,38.731513],[-28.261796934313754,38.73079525791085],[-28.2296,38.716],[-28.237,38.6876],[-28.229490910065262,38.68528200920097],[-28.231109,38.685045]]],"type":"Polygon"},"id":"physical-component:a9661a35dcff88843dfaf080ae5d5213bf6842315bb0b49f5f881d4f1836f18c","properties":{"administrative_assignment":null,"dateline_connected":false,"diagnostic_nearby_locations":[],"fragment_bindings":[{"feature_sha256":"9b614f9c88b9f9fa910e6ae9a779768c96887c9e2c5b80ffd95f68230cf5443e","id":"physical-gap:1398:28:22c9317cd568dccc026d5e093913ad1367d2d467a036f4ec8693c6aca5233541"}],"measured_fragment_area_sum_m2":21486154.919810005,"measured_fragment_count":1,"positive_area_input_overlap":false,"touches_blocked_tile":false,"touches_domain_boundary":false,"touches_reference_shore":true,"unmeasured_fragment_ids":[],"water_status":"unverified"},"type":"Feature"},{"geometry":{"coordinates":[[[-25.101469995318897,36.948],[-25.0926,36.948],[-25.090098470680733,36.94500247779846],[-25.101469995318897,36.948]]],"type":"Polygon"},"id":"physical-component:b66835b29701594888e4b633b50ea8c38d71f45d914410c757da2f877fc2c68d","properties":{"administrative_assignment":null,"dateline_connected":false,"diagnostic_nearby_locations":[],"fragment_bindings":[{"feature_sha256":"e655e814b897ecdb1d47cdac5ff7a2015563c0a0e64ccf01f08131d303f6329b","id":"physical-gap:1398:1:44959cf81c3c00667984eb24a7cba2362f869292a192bb30482ac503477e1c9a"}],"measured_fragment_area_sum_m2":131412.14524242588,"measured_fragment_count":1,"positive_area_input_overlap":false,"touches_blocked_tile":false,"touches_domain_boundary":false,"touches_reference_shore":true,"unmeasured_fragment_ids":[],"water_status":"unverified"},"type":"Feature"},{"geometry":{"coordinates":[[[-25.442047,37.837307],[-25.339752,37.861802],[-25.326109231167518,37.86205240628498],[-25.4244,37.8275],[-25.44358005288013,37.83659354005761],[-25.442047,37.837307]]],"type":"Polygon"},"id":"physical-component:c355095cf0c1afa187c475d39e2524d13ad6e2c4a74188d7e4ad9943d418c09c","properties":{"administrative_assignment":null,"dateline_connected":false,"diagnostic_nearby_locations":[],"fragment_bindings":[{"feature_sha256":"0ad381bf97e8605dbbb29dafe5ee36a31c16cf2bb07677d3d5c1875b8748b1f3","id":"physical-gap:1398:12:8eb7940142f69f58a10690fc725bdbc1130af2ffe5ec13dbfd256b3e2abb91b9"}],"measured_fragment_area_sum_m2":9329204.046734512,"measured_fragment_count":1,"positive_area_input_overlap":false,"touches_blocked_tile":false,"touches_domain_boundary":false,"touches_reference_shore":true,"unmeasured_fragment_ids":[],"water_status":"unverified"},"type":"Feature"},{"geometry":{"coordinates":[[[-28.084869,38.398179],[-28.097000637200193,38.399580590613326],[-28.051386539498377,38.40068638692125],[-28.054189,38.398505],[-28.084869,38.398179]]],"type":"Polygon"},"id":"physical-component:cf2ad81db3bd3a09d2273ae9b0212e345333a52a993a3740c98663a6ee61a08d","properties":{"administrative_assignment":null,"dateline_connected":false,"diagnostic_nearby_locations":[],"fragment_bindings":[{"feature_sha256":"d0361ba42f9936a4b09aa638bf9e5ee0e4414280e76c19400ec94aa6bc0d2ad7","id":"physical-gap:1398:15:414903a2e0853b08db3f15760916e8d377918f1fa49fc92bfa7b5bb2116ec14a"}],"measured_fragment_area_sum_m2":695050.1687640083,"measured_fragment_count":1,"positive_area_input_overlap":false,"touches_blocked_tile":false,"touches_domain_boundary":false,"touches_reference_shore":true,"unmeasured_fragment_ids":[],"water_status":"unverified"},"type":"Feature"},{"geometry":{"coordinates":[[[-25.825063,37.815416],[-25.84007385427482,37.832201661145184],[-25.8166,37.8129],[-25.7795,37.7964],[-25.748221191355064,37.770019740410085],[-25.825063,37.815416]]],"type":"Polygon"},"id":"physical-component:d1d3d6b80732286dcd82e9b64ff234930b2e8bc41243874f5878d8db4dc4c454","properties":{"administrative_assignment":null,"dateline_connected":false,"diagnostic_nearby_locations":[],"fragment_bindings":[{"feature_sha256":"77b29610a2a19edafe59bd29d0d63efa49456afeb334c64cdb2d2b5a8396d462","id":"physical-gap:1398:7:273950c1f112e2729071268cb5ba4f40e33f5c957a710a154e28a09ac52d9c2c"}],"measured_fragment_area_sum_m2":3703655.692264282,"measured_fragment_count":1,"positive_area_input_overlap":false,"touches_blocked_tile":false,"touches_domain_boundary":false,"touches_reference_shore":true,"unmeasured_fragment_ids":[],"water_status":"unverified"},"type":"Feature"},{"geometry":{"coordinates":[[[-28.596059,38.55272],[-28.603017,38.5515],[-28.626036550593707,38.54365095368569],[-28.6153,38.5552],[-28.605624128964244,38.583977375063235],[-28.596059,38.55272]]],"type":"Polygon"},"id":"physical-component:da67728b0f79b9ee55b69fd6ba3a7501aa58016c823f397d10d0ebc1bde91e2e","properties":{"administrative_assignment":null,"dateline_connected":false,"diagnostic_nearby_locations":[],"fragment_bindings":[{"feature_sha256":"6e0e922c1c5b3e8cd829cef4fe26ac98f1d6dd48673b4e774cbce4d464007b08","id":"physical-gap:1398:24:f2cf635f95dec67063ff70a5dd7efcabf8fd4f67ea2ff5da9c8d392d6f1b5f07"}],"measured_fragment_area_sum_m2":3870218.9379085274,"measured_fragment_count":1,"positive_area_input_overlap":false,"touches_blocked_tile":false,"touches_domain_boundary":false,"touches_reference_shore":true,"unmeasured_fragment_ids":[],"water_status":"unverified"},"type":"Feature"},{"geometry":{"coordinates":[[[-31.268788,39.364651],[-31.278147,39.378404],[-31.284657,39.397895],[-31.284901,39.416164],[-31.275624,39.426093],[-31.280914,39.443101],[-31.275624,39.457099],[-31.267079,39.472073],[-31.262563,39.491889],[-31.255767,39.507473],[-31.239329,39.517564],[-31.224311807832724,39.52113801054185],[-31.2339,39.5041],[-31.2601,39.4956],[-31.2735,39.4336],[-31.272,39.3969],[-31.2646,39.3809],[-31.26349003811952,39.36217864294921],[-31.268788,39.364651]]],"type":"Polygon"},"id":"physical-component:e353e9f47c2054bda7739f91c40b539e6684d02e0c395a27e7a97300f2968b0a","properties":{"administrative_assignment":null,"dateline_connected":false,"diagnostic_nearby_locations":[],"fragment_bindings":[{"feature_sha256":"0f746c2aba2c4b5206d7cf783c15ee4b772324bba9fc29c122df6cd2c1d7b8f9","id":"physical-gap:1397:1:07ea4b4c2c8058144c71559bb7f9324d1f75006438c70d7ad67a20e9b22ac11d"}],"measured_fragment_area_sum_m2":13407885.497366136,"measured_fragment_count":1,"positive_area_input_overlap":false,"touches_blocked_tile":false,"touches_domain_boundary":false,"touches_reference_shore":true,"unmeasured_fragment_ids":[],"water_status":"unverified"},"type":"Feature"},{"geometry":{"coordinates":[[[-28.177887,38.645087],[-28.19579,38.655748],[-28.214461667632865,38.68064261268587],[-28.1369,38.6567],[-28.102852896190207,38.62517812895359],[-28.177887,38.645087]]],"type":"Polygon"},"id":"physical-component:ef2dbebc91e1019944c989823051df5793ae57e76815bd1362b85b05ed9cc1e9","properties":{"administrative_assignment":null,"dateline_connected":false,"diagnostic_nearby_locations":[],"fragment_bindings":[{"feature_sha256":"4003f7e14c267868783fc5f9f66e8029eabc8e0f6da09f5e39471a15f5e4dfbc","id":"physical-gap:1398:27:517b63fa8be10e2f37b5365955da6bb10df8c15cbaedd5e07fb8b8b940a2386d"}],"measured_fragment_area_sum_m2":18437590.566753253,"measured_fragment_count":1,"positive_area_input_overlap":false,"touches_blocked_tile":false,"touches_domain_boundary":false,"touches_reference_shore":true,"unmeasured_fragment_ids":[],"water_status":"unverified"},"type":"Feature"},{"geometry":{"coordinates":[[[-27.835764,38.542792],[-27.852203,38.547268],[-27.884918,38.560533],[-27.915151,38.565172],[-27.931996,38.570299],[-27.948598,38.577826],[-27.9590338081044,38.584659888256276],[-27.9237,38.5716],[-27.8489,38.5673],[-27.81456696627679,38.54213355295046],[-27.835764,38.542792]]],"type":"Polygon"},"id":"physical-component:f56f9b5d8c9533ed29440d28e881c1fbc95163600b8996f6a58eedb8c52c5abe","properties":{"administrative_assignment":null,"dateline_connected":false,"diagnostic_nearby_locations":[],"fragment_bindings":[{"feature_sha256":"e6df8bdbd1317a482a6769269fea37bf9c8d02512d84e0ab0a9fb96704b80a2e","id":"physical-gap:1398:25:16d1849077505b9062a890463162e4e39c5110dc85323810b13b574ff74cdfb4"}],"measured_fragment_area_sum_m2":12691689.773088744,"measured_fragment_count":1,"positive_area_input_overlap":false,"touches_blocked_tile":false,"touches_domain_boundary":false,"touches_reference_shore":true,"unmeasured_fragment_ids":[],"water_status":"unverified"},"type":"Feature"},{"geometry":{"coordinates":[[[-25.589772628830357,37.735507807021854],[-25.5727,37.7346],[-25.567788691087998,37.73089872371849],[-25.589772628830357,37.735507807021854]]],"type":"Polygon"},"id":"physical-component:fe8276ca4fd5c6a6fbdafc6aa66c07ce287e12525425e321498e60c021389012","properties":{"administrative_assignment":null,"dateline_connected":false,"diagnostic_nearby_locations":[],"fragment_bindings":[{"feature_sha256":"b9b5c75b8d637489c5674653bdaee952cbfeeb8d1986a0d42e73546f1547f626","id":"physical-gap:1398:6:2a2777ca2af5d94f8556569f0b37e04f2c9ec0732db9a5a4c2921fc579335018"}],"measured_fragment_area_sum_m2":287311.11726229836,"measured_fragment_count":1,"positive_area_input_overlap":false,"touches_blocked_tile":false,"touches_domain_boundary":false,"touches_reference_shore":true,"unmeasured_fragment_ids":[],"water_status":"unverified"},"type":"Feature"}]}
