{"type":"FeatureCollection","features":[{"geometry":{"coordinates":[[[21.5927,56.3222],[21.592285714285577,56.322242857142875],[21.592726530612246,56.32220612244898],[21.5927,56.3222]]],"type":"Polygon"},"id":"physical-component:00c5d50d6765602074625e006f08b1b58ac03cd3d9fc5b1a624bbf0158f18ae0","properties":{"administrative_assignment":null,"dateline_connected":false,"diagnostic_nearby_locations":[],"fragment_bindings":[{"feature_sha256":"dfeccd8aa0be18a2aaa957920c448dd017e9d3f38968ca356e524b6fa79c0270","id":"physical-gap:1696:280:9b533609e3f3b16d7589df1ea8f7391dbad19f534b39230cc33f223c3f4e6df7"}],"measured_fragment_area_sum_m2":12.653958819774308,"measured_fragment_count":1,"positive_area_input_overlap":false,"touches_blocked_tile":false,"touches_domain_boundary":false,"touches_reference_shore":false,"unmeasured_fragment_ids":[],"water_status":"unverified"},"type":"Feature"},{"geometry":{"coordinates":[[[21.237590476190483,56.122638095238095],[21.2333,56.1194],[21.2354,56.1222],[21.237590476190483,56.122638095238095]]],"type":"Polygon"},"id":"physical-component:0882c7d92c696f53d8fe8bba690973c32788f2e51bd1ef6bd4c055dd13279056","properties":{"administrative_assignment":null,"dateline_connected":false,"diagnostic_nearby_locations":[],"fragment_bindings":[{"feature_sha256":"30b7e928a40573d1218dcd277c858c5c76fd1eb7bb5257ccd73dd135950d528e","id":"physical-gap:1696:257:a614d03f2071cf9a28fa0ee73f3bd1a568f0e175a12032e13ead10f95d98f38f"}],"measured_fragment_area_sum_m2":18051.86503762449,"measured_fragment_count":1,"positive_area_input_overlap":false,"touches_blocked_tile":false,"touches_domain_boundary":false,"touches_reference_shore":false,"unmeasured_fragment_ids":[],"water_status":"unverified"},"type":"Feature"},{"geometry":{"coordinates":[[[21.354327082697576,56.22476669209642],[21.3544,56.2248],[21.378859353901372,56.227968823177505],[21.3783,56.2278],[21.354327082697576,56.22476669209642]]],"type":"Polygon"},"id":"physical-component:14f6a86eac664f3256a633ae0f853360d63edb14be9c9811b450176f50ceab26","properties":{"administrative_assignment":null,"dateline_connected":false,"diagnostic_nearby_locations":[],"fragment_bindings":[{"feature_sha256":"9eaa172c23510bfaf354177d7224efa6d0eb82e19488ff6069cbd3393f44b425","id":"physical-gap:1696:267:d86e5b17717d6aca9107de0a2c9f25d0bed8b7a1e90de96370f82085acbc0279"}],"measured_fragment_area_sum_m2":10132.203545064825,"measured_fragment_count":1,"positive_area_input_overlap":false,"touches_blocked_tile":false,"touches_domain_boundary":false,"touches_reference_shore":false,"unmeasured_fragment_ids":[],"water_status":"unverified"},"type":"Feature"},{"geometry":{"coordinates":[[[21.228039449541328,56.159160550458765],[21.2307,56.1623],[21.230964222873894,56.162317448680355],[21.2308,56.1623],[21.228039449541328,56.159160550458765]]],"type":"Polygon"},"id":"physical-component:1a77c37a11f3d84b46d4651220599107401bc21d1536133fcc7618d66c0a49f5","properties":{"administrative_assignment":null,"dateline_connected":false,"diagnostic_nearby_locations":[],"fragment_bindings":[{"feature_sha256":"47251f3eb6fff058a9494cbba5a2a2e015cda178a7e59e41ba6aeac1f9af49db","id":"physical-gap:1696:260:47b3b9da2a7613792e77cc1c44e1c94c05b99af413fb6c82127482cbf14da93b"}],"measured_fragment_area_sum_m2":1091.995254071624,"measured_fragment_count":1,"positive_area_input_overlap":false,"touches_blocked_tile":false,"touches_domain_boundary":false,"touches_reference_shore":false,"unmeasured_fragment_ids":[],"water_status":"unverified"},"type":"Feature"},{"geometry":{"coordinates":[[[21.7332,56.321],[21.7404,56.3299],[21.741027217419187,56.33008338136409],[21.7404,56.3298],[21.7332,56.321]]],"type":"Polygon"},"id":"physical-component:294063970434d15f149c664633f64dba5411458cf843cd925e4e637dd3de51da","properties":{"administrative_assignment":null,"dateline_connected":false,"diagnostic_nearby_locations":[],"fragment_bindings":[{"feature_sha256":"229a2231e672dd32d27a6df769917cb6c922362ea0812ecfbbb4b914476019b7","id":"physical-gap:1696:287:ea36dfc2aba8d5bc33ba258558fb6a27c5a502e83c2761401d74aa415e86f44d"}],"measured_fragment_area_sum_m2":2695.8877787552055,"measured_fragment_count":1,"positive_area_input_overlap":false,"touches_blocked_tile":false,"touches_domain_boundary":false,"touches_reference_shore":false,"unmeasured_fragment_ids":[],"water_status":"unverified"},"type":"Feature"},{"geometry":{"coordinates":[[[21.8688,56.3626],[21.8665,56.3661],[21.870308534850643,56.362204907539116],[21.8688,56.3626]]],"type":"Polygon"},"id":"physical-component:694a1cb53116d780f0ee776a0f3989edb0d74b01f4c5d89dc05911407407f69b","properties":{"administrative_assignment":null,"dateline_connected":false,"diagnostic_nearby_locations":[],"fragment_bindings":[{"feature_sha256":"45f33cb8e6c5dbb02db78385cd277f62a7eb1568cd5210b6aa717e155cd9a766","id":"physical-gap:1696:288:5fdbb86beba36fa4b840be5d85c9c80c10d37f348c0d4baa78fe977fcc970134"}],"measured_fragment_area_sum_m2":15041.07973144851,"measured_fragment_count":1,"positive_area_input_overlap":false,"touches_blocked_tile":false,"touches_domain_boundary":false,"touches_reference_shore":false,"unmeasured_fragment_ids":[],"water_status":"unverified"},"type":"Feature"},{"geometry":{"coordinates":[[[21.542128648261027,56.29819634277519],[21.5423,56.2983],[21.54688345864662,56.297822556390976],[21.5468,56.2976],[21.542128648261027,56.29819634277519]]],"type":"Polygon"},"id":"physical-component:7929dff9531413d6e6a860bfffea697694d286b2797a1ff0664d71115d364316","properties":{"administrative_assignment":null,"dateline_connected":false,"diagnostic_nearby_locations":[],"fragment_bindings":[{"feature_sha256":"7d268380ecad02a0a57ab31dc3c09aa8fe211d11291c3782e626407e5c673e81","id":"physical-gap:1696:274:07b7e160fa00808cbf71673f2b1ee208eb990f7f7ea3ee7ccb02377abf6290b3"}],"measured_fragment_area_sum_m2":5674.663302779969,"measured_fragment_count":1,"positive_area_input_overlap":false,"touches_blocked_tile":false,"touches_domain_boundary":false,"touches_reference_shore":false,"unmeasured_fragment_ids":[],"water_status":"unverified"},"type":"Feature"},{"geometry":{"coordinates":[[[21.6732,56.3113],[21.6805,56.3139],[21.680810126582255,56.313778164556965],[21.6807,56.3138],[21.6732,56.3113]]],"type":"Polygon"},"id":"physical-component:9e0b3beac32b8398b3708a9918c9920a76917068d6711af5b02999314f6bea22","properties":{"administrative_assignment":null,"dateline_connected":false,"diagnostic_nearby_locations":[],"fragment_bindings":[{"feature_sha256":"060d3cf1c9079c99f36d4b0818a400aff21572ac4015333cd196c2fc5df49b58","id":"physical-gap:1696:284:56f3590d4b57954a4c0754855f3621000af0fad13cd3b3243461217e754c9549"}],"measured_fragment_area_sum_m2":4329.78864929728,"measured_fragment_count":1,"positive_area_input_overlap":false,"touches_blocked_tile":false,"touches_domain_boundary":false,"touches_reference_shore":false,"unmeasured_fragment_ids":[],"water_status":"unverified"},"type":"Feature"},{"geometry":{"coordinates":[[[21.9735,56.378],[21.973457446808514,56.377986170212765],[21.974439999999948,56.379459999999916],[21.9735,56.378]]],"type":"Polygon"},"id":"physical-component:b3a2cc30d91e76ce3dedaa850d8382a882f76db28d279f8bb50d3f77777c1577","properties":{"administrative_assignment":null,"dateline_connected":false,"diagnostic_nearby_locations":[],"fragment_bindings":[{"feature_sha256":"9bac2592ce706089183ab182543024f7353fff4a622dd20b2bb3d870ca04fc73","id":"physical-gap:1696:291:f31044dd91c4ef12bd540f0aa876c5e38f6429aba3748c93e0870d525f7ef1c1"}],"measured_fragment_area_sum_m2":168.982079205264,"measured_fragment_count":1,"positive_area_input_overlap":false,"touches_blocked_tile":false,"touches_domain_boundary":false,"touches_reference_shore":false,"unmeasured_fragment_ids":[],"water_status":"unverified"},"type":"Feature"},{"geometry":{"coordinates":[[[21.7244,56.3136],[21.72152818897646,56.31386645669291],[21.72444790541229,56.31372647028845],[21.7244,56.3136]]],"type":"Polygon"},"id":"physical-component:b4fd86a506640456d483a8f82a945463e084a45a73582b1010f2fea2f8967ca1","properties":{"administrative_assignment":null,"dateline_connected":false,"diagnostic_nearby_locations":[],"fragment_bindings":[{"feature_sha256":"df7384c88010452ced6a54f59272476b6e57a0ef5e12e550d4d4e5206334d974","id":"physical-gap:1696:286:50d18d0117de7350c91f4431c8b3f6db34ded4cf4aeae5ba5e9eb46d7ba068ed"}],"measured_fragment_area_sum_m2":1295.3626398194153,"measured_fragment_count":1,"positive_area_input_overlap":false,"touches_blocked_tile":false,"touches_domain_boundary":false,"touches_reference_shore":false,"unmeasured_fragment_ids":[],"water_status":"unverified"},"type":"Feature"},{"geometry":{"coordinates":[[[21.389889285714446,56.231297857142906],[21.4056,56.2361],[21.4172,56.242],[21.4058,56.2361],[21.389889285714446,56.231297857142906]]],"type":"Polygon"},"id":"physical-component:bc256ccd31a291bf847cee3b7dc1f1f37a9fa12e708f978d9dc452880d912e08","properties":{"administrative_assignment":null,"dateline_connected":false,"diagnostic_nearby_locations":[],"fragment_bindings":[{"feature_sha256":"f4b79de37bd59d9af1af4888f6c35cfe1be38555ea08609d50438b65c2c88a0d","id":"physical-gap:1696:268:2c93b568dd3691b2599b3357b35aed7d41d42decbfe92491170c0fd46c57a890"}],"measured_fragment_area_sum_m2":7389.524531336239,"measured_fragment_count":1,"positive_area_input_overlap":false,"touches_blocked_tile":false,"touches_domain_boundary":false,"touches_reference_shore":false,"unmeasured_fragment_ids":[],"water_status":"unverified"},"type":"Feature"},{"geometry":{"coordinates":[[[21.5556,56.3078],[21.557184025157245,56.308640503144666],[21.5559,56.3076],[21.5575,56.3048],[21.557372987721692,56.30474652114597],[21.5556,56.3078]]],"type":"Polygon"},"id":"physical-component:c167b7699ddfa22945201526da32448b3ecb1a33ac810ba5457693fb837e901a","properties":{"administrative_assignment":null,"dateline_connected":false,"diagnostic_nearby_locations":[],"fragment_bindings":[{"feature_sha256":"8b28a86642c948937da3bf3b9e7f6a7514050d97936c992b81dc82acdeac774c","id":"physical-gap:1696:276:cacb5192dcec4b977f88baced2f3bbc00663ef002aed6882f3e43f0391cb64e4"}],"measured_fragment_area_sum_m2":5415.834929904162,"measured_fragment_count":1,"positive_area_input_overlap":false,"touches_blocked_tile":false,"touches_domain_boundary":false,"touches_reference_shore":false,"unmeasured_fragment_ids":[],"water_status":"unverified"},"type":"Feature"},{"geometry":{"coordinates":[[[21.6519,56.3174],[21.6458,56.3208],[21.65194947613504,56.31742770663562],[21.6519,56.3174]]],"type":"Polygon"},"id":"physical-component:e33456f199bc7c1cb595c3211a28fe42231252d4c0348acd321621878fe60eba","properties":{"administrative_assignment":null,"dateline_connected":false,"diagnostic_nearby_locations":[],"fragment_bindings":[{"feature_sha256":"bfbd6693a08085d20e511fad95e842f7babf7f635f12042d0b869a2ad1d8e832","id":"physical-gap:1696:283:89afed4c2a38997e3953861541519aec07655cb5ab056c8111f5104f697e6e68"}],"measured_fragment_area_sum_m2":1161.7609648621622,"measured_fragment_count":1,"positive_area_input_overlap":false,"touches_blocked_tile":false,"touches_domain_boundary":false,"touches_reference_shore":false,"unmeasured_fragment_ids":[],"water_status":"unverified"},"type":"Feature"},{"geometry":{"coordinates":[[[21.329604651162782,56.21847441860465],[21.329108239277662,56.21829390519188],[21.3294,56.2185],[21.329604651162782,56.21847441860465]]],"type":"Polygon"},"id":"physical-component:eaa5da8229b82a55de103a841fcc4ebb73c7f468f3dcffdb5c0e7171485b345f","properties":{"administrative_assignment":null,"dateline_connected":false,"diagnostic_nearby_locations":[],"fragment_bindings":[{"feature_sha256":"b9a8b0bdf4f8735c7201e88622cf82b157db43ac73845f8df32d8355ed7cd01a","id":"physical-gap:1696:265:43c5b8e24845594a1e0b2ee6f4a645e14a29bf982fd60185db623cf3a4c37866"}],"measured_fragment_area_sum_m2":171.45917731263,"measured_fragment_count":1,"positive_area_input_overlap":false,"touches_blocked_tile":false,"touches_domain_boundary":false,"touches_reference_shore":false,"unmeasured_fragment_ids":[],"water_status":"unverified"},"type":"Feature"},{"geometry":{"coordinates":[[[21.55339599999982,56.30307199999992],[21.548267187500002,56.3009125],[21.5483,56.301],[21.55339599999982,56.30307199999992]]],"type":"Polygon"},"id":"physical-component:ee9bc61cd9e2a907faa1f59362c07e036c2d4a5e499583f33f64c8f7887175e3","properties":{"administrative_assignment":null,"dateline_connected":false,"diagnostic_nearby_locations":[],"fragment_bindings":[{"feature_sha256":"199cd15615e5e73a4c6cf388d464e6ec93ecb060fdebd5025ff6875a3601c8c0","id":"physical-gap:1696:275:5c5645218670f0f9cc17f974a316c0ae465fa490473804cd74a7720934ebbcb3"}],"measured_fragment_area_sum_m2":1302.4859166889742,"measured_fragment_count":1,"positive_area_input_overlap":false,"touches_blocked_tile":false,"touches_domain_boundary":false,"touches_reference_shore":false,"unmeasured_fragment_ids":[],"water_status":"unverified"},"type":"Feature"},{"geometry":{"coordinates":[[[21.1806,56.075],[21.180599210822997,56.075009470124016],[21.181209677419353,56.075067741935484],[21.1806,56.075]]],"type":"Polygon"},"id":"physical-component:f79b07eb63959b23c1477e235d7ecd86ff4a59f0b80fd1555e22c4a0ce723083","properties":{"administrative_assignment":null,"dateline_connected":false,"diagnostic_nearby_locations":[],"fragment_bindings":[{"feature_sha256":"898f65d8522b971a58e1c8032565de610be403c7db0a10d3b0b6d745ef030662","id":"physical-gap:1696:254:ec8ca47f15670a1d948193fd2c8adc5e8f4b4c9394ed67fbe4b759aeabd70d83"}],"measured_fragment_area_sum_m2":20.201514775446245,"measured_fragment_count":1,"positive_area_input_overlap":false,"touches_blocked_tile":false,"touches_domain_boundary":false,"touches_reference_shore":false,"unmeasured_fragment_ids":[],"water_status":"unverified"},"type":"Feature"}]}