{"type":"FeatureCollection","features":[{"type":"Feature","geometry":{"type":"Polygon","coordinates":[[[21.9582,56.3816],[21.9619,56.3779],[21.9695,56.3767],[21.9735,56.378],[21.9782,56.3853],[21.9802,56.3791],[21.9709,56.3486],[21.9399,56.3509],[21.9321,56.3189],[21.9806,56.3151],[21.9687,56.2687],[21.9914,56.2486],[21.9996,56.2231],[22.0179,56.2121],[22.0133,56.1963],[21.9633,56.2],[21.9574,56.1754],[21.941,56.159],[21.9346,56.1327],[21.9165,56.1135],[21.8995,56.1197],[21.8301,56.1226],[21.8276,56.0981],[21.7736,56.1088],[21.7466,56.1076],[21.7229,56.0731],[21.7002,56.0699],[21.6257,56.0857],[21.6226,56.102],[21.5932,56.1078],[21.5237,56.1062],[21.4644,56.1197],[21.4719,56.1306],[21.4126,56.141],[21.4084,56.1347],[21.3228,56.1521],[21.3082,56.1303],[21.2648,56.1384],[21.2371,56.1367],[21.2424,56.1432],[21.2279,56.1466],[21.23,56.1506],[21.2257,56.1565],[21.2308,56.1623],[21.2468,56.164],[21.2487,56.1662],[21.2553,56.1653],[21.2596,56.1676],[21.2645,56.1681],[21.2676,56.1691],[21.2687,56.1719],[21.2744,56.172],[21.2793,56.1745],[21.2782,56.1799],[21.2831,56.1795],[21.2826,56.1849],[21.2984,56.1917],[21.3059,56.2019],[21.3283,56.218],[21.3305,56.2188],[21.3336,56.2184],[21.3336,56.2171],[21.3382,56.2174],[21.3538,56.2247],[21.3783,56.2278],[21.4058,56.2361],[21.4172,56.242],[21.4315,56.2407],[21.4521,56.2485],[21.4652,56.2605],[21.4671,56.2707],[21.4909,56.288],[21.4916,56.2911],[21.4961,56.2925],[21.496192307692315,56.29256634615385],[21.4963,56.2926],[21.5,56.2919],[21.499415254237288,56.29482372881356],[21.502100000000038,56.29537647058824],[21.502724233983287,56.29548662952646],[21.5027,56.2955],[21.5056,56.2939],[21.5141,56.2915],[21.534,56.2933],[21.5421,56.2982],[21.53416578543407,56.293400289953944],[21.5342,56.2934],[21.542128648261027,56.29819634277519],[21.5468,56.2976],[21.548,56.3008],[21.5575,56.3048],[21.5559,56.3076],[21.557184025157245,56.308640503144666],[21.5605,56.3104],[21.5653,56.3169],[21.568,56.3153],[21.5717,56.3161],[21.571735294117655,56.31609480968858],[21.5765,56.3146],[21.5785,56.3151],[21.5854,56.3202],[21.586840366972474,56.322696636085624],[21.592285714285577,56.322242857142875],[21.5927,56.3222],[21.592726530612246,56.32220612244898],[21.5928,56.3222],[21.6031,56.3245],[21.6077,56.3232],[21.608,56.3248],[21.612575609756092,56.32485447154472],[21.6224,56.3227],[21.62342617801048,56.32291989528796],[21.6274,56.3218],[21.635,56.322],[21.638554838709677,56.32022258064516],[21.6386,56.3201],[21.6458,56.3208],[21.6519,56.3174],[21.6544,56.3188],[21.6598,56.3186],[21.6732,56.3113],[21.6807,56.3138],[21.6923,56.3115],[21.7008,56.3141],[21.7049,56.313],[21.7104,56.3144],[21.7135,56.3133],[21.7147,56.3145],[21.7244,56.3136],[21.7269,56.3202],[21.7332,56.321],[21.7404,56.3298],[21.741027217419187,56.33008338136409],[21.7876,56.3437],[21.8357,56.3716],[21.8665,56.3661],[21.8688,56.3626],[21.873,56.3615],[21.882,56.3641],[21.9181,56.3681],[21.9451,56.3749],[21.9462,56.3775],[21.9542,56.3816],[21.9582,56.3816]],[[21.225739183524695,56.15644623655914],[21.226615912573955,56.15748077683727],[21.2266969774241,56.1576338174627],[21.2257,56.1565],[21.225739183524695,56.15644623655914]],[[21.54688345864662,56.297822556390976],[21.5471,56.2978],[21.548267187500002,56.3009125],[21.548,56.3008],[21.54688345864662,56.297822556390976]],[[21.65194947613504,56.31742770663562],[21.652,56.3174],[21.6544,56.3188],[21.65194947613504,56.31742770663562]],[[21.894170253856448,56.365036173373575],[21.89689760806446,56.36575070449467],[21.882,56.3641],[21.894170253856448,56.365036173373575]],[[21.95085958167165,56.37988803560672],[21.951096748961085,56.37995017033374],[21.9542,56.3816],[21.95085958167165,56.37988803560672]],[[21.557372987721692,56.30474652114597],[21.55339599999982,56.30307199999992],[21.5574,56.3047],[21.557372987721692,56.30474652114597]],[[21.680810126582255,56.313778164556965],[21.6861,56.3117],[21.690095007802572,56.311571128780564],[21.690890353341505,56.311779498906425],[21.680810126582255,56.313778164556965]],[[21.871823778071327,56.361808058124176],[21.870308534850643,56.362204907539116],[21.8709,56.3616],[21.871823778071327,56.361808058124176]]]},"properties":{"id":"gb:LTU:ADM2:59024439B19575014620111","name":"Skuodo rajono savivaldyb\u0117","parent_id":"framework:province:klaipeda-county:29302c4b1eca","reference_owner":"Lithuania","metadata":{"source_id":"gb:LTU:ADM2","source_name":"geoBoundaries gbOpen","source_url":"https://github.com/wmgeolab/geoBoundaries/raw/9469f09/releaseData/gbOpen/LTU/ADM2/geoBoundaries-LTU-ADM2.geojson","license":"Open Data Commons Open Database License 1.0","reference_year":"2017","administrative_level":"ADM2","parent_source_level":"ADM1","granularity_version":3,"source_role":"Municipality","selection_reason":"Named local administrative territories at the reviewed country-specific district tier; subordinate wards, villages and electoral divisions are not substituted based on area.","parent_match":"Named source administrative unit grouped within this geographic area","original_id":"59024439B19575014620111","representative_point":[21.682318529411766,56.22625],"hierarchy_version":4,"hierarchy_source":"gb:LTU:ADM1","hierarchy_overlap":0.995221,"topology_version":1,"topology_reconciled":true,"topology_conflicts":1,"topology_note":"Shared display coverage reconciled against Natural Earth reference borders, then finer source geometry. Original source boundaries may differ.","original_geometry_sha256":"1de97a4d864b0e33e1a49586341ced3db9627f89dbb208022e6af3ef81a60971","reference_version":3,"geographic_area_code":"BLT","geographic_region_code":14,"geographic_match":"largest source overlap","geographic_overlap":1.0,"coverage_version":1,"semantic_version":1,"remote_version":1,"framework_reference":"Modern geographic framework; historical attributes require dated evidence","framework_match":{"source":"Natural Earth","id":"LTU-935","overlap":0.895971},"regional_match":{"reference_iso":"LTU","source_id":"LTU-935","overlap":0.895971,"method":"reference-territory-constrained overlap"},"reference_owner_id":"owner:Q37","reference_polity":"Lithuania","reference_polity_status":"reference","reference_polity_evidence":{"source":"Natural Earth pinned administrative and sovereignty reference; dates vary","source_url":"https://github.com/nvkelso/natural-earth-vector/tree/ca96624a56bd078437bca8184e78163e5039ad19","reference_territory":"Lithuania","classification":"Sovereign country","note":null,"uncertainty":false},"semantic_review":{"status":"open","continent":"Europe","decision_index":485,"evidence_file":"geographic-decisions"}}},"id":"gb:LTU:ADM2:59024439B19575014620111"},{"type":"Feature","geometry":{"type":"Polygon","coordinates":[[[21.1715,56.0811],[21.1744,56.0813],[21.1739,56.0802],[21.1804,56.0774],[21.1806,56.075],[21.2031,56.0775],[21.213,56.0908],[21.2099,56.0928],[21.2115,56.0958],[21.2179,56.0995],[21.2174,56.1009],[21.2251,56.1034],[21.2355,56.1158],[21.2333,56.1194],[21.2386,56.1234],[21.2387,56.1303],[21.233,56.1418],[21.2289,56.1424],[21.2308,56.1435],[21.2279,56.1466],[21.2424,56.1432],[21.2371,56.1367],[21.2648,56.1384],[21.3082,56.1303],[21.3228,56.1521],[21.4084,56.1347],[21.4126,56.141],[21.4719,56.1306],[21.4644,56.1197],[21.5237,56.1062],[21.5932,56.1078],[21.6226,56.102],[21.6257,56.0857],[21.7002,56.0699],[21.6776,56.0391],[21.6662,56.0392],[21.6378,56.0029],[21.625,55.9962],[21.5866,56.0017],[21.5719,55.9802],[21.6001,55.9742],[21.5815,55.9441],[21.593,55.939],[21.5935,55.9166],[21.6185,55.8968],[21.6191,55.8809],[21.5863,55.876],[21.5862,55.8596],[21.5583,55.8622],[21.5407,55.8503],[21.5119,55.8089],[21.4998,55.7876],[21.4843,55.7859],[21.4513,55.804],[21.448,55.8173],[21.4226,55.8228],[21.412,55.8063],[21.3684,55.8156],[21.354,55.8132],[21.3123,55.8222],[21.2953,55.8398],[21.2445,55.821],[21.2251,55.8263],[21.2206,55.8502],[21.2032,55.867],[21.1614,55.8643],[21.1172,55.881],[21.1008,55.8924],[21.1172,55.9288],[21.1272,55.9375],[21.1221,55.9591],[21.1278,55.9978],[21.1123,56.0116],[21.1192,56.0327],[21.1357,56.0329],[21.139,56.0449],[21.1185,56.0466],[21.1226,56.0772],[21.1433,56.08],[21.1474,56.0826],[21.147476059850376,56.08262244389027],[21.1475,56.0826],[21.161486467236465,56.08614451566952],[21.16243130227001,56.08611672640382],[21.1621,56.0863],[21.1715,56.0811]],[[21.129092820928648,56.07807825597102],[21.129322029878416,56.078079362884054],[21.1433,56.08],[21.129092820928648,56.07807825597102]]]},"properties":{"id":"gb:LTU:ADM2:59024439B52033520810825","name":"Kretinga District Municipality","parent_id":"framework:province:klaipeda-county:29302c4b1eca","reference_owner":"Lithuania","metadata":{"source_id":"gb:LTU:ADM2","source_name":"geoBoundaries gbOpen","source_url":"https://github.com/wmgeolab/geoBoundaries/raw/9469f09/releaseData/gbOpen/LTU/ADM2/geoBoundaries-LTU-ADM2.geojson","license":"Open Data Commons Open Database License 1.0","reference_year":"2017","administrative_level":"ADM2","parent_source_level":"ADM1","granularity_version":3,"source_role":"Municipality","selection_reason":"Named local administrative territories at the reviewed country-specific district tier; subordinate wards, villages and electoral divisions are not substituted based on area.","parent_match":"Named source administrative unit grouped within this geographic area","original_id":"59024439B52033520810825","representative_point":[21.35932328349945,55.96665],"hierarchy_version":4,"hierarchy_source":"gb:LTU:ADM1","hierarchy_overlap":0.99602,"topology_version":1,"topology_reconciled":true,"topology_conflicts":1,"topology_note":"Shared display coverage reconciled against Natural Earth reference borders, then finer source geometry. Original source boundaries may differ.","original_geometry_sha256":"0d96e638780b0c2ee1bec16ab3e04be85bcaf4626df894dd02b1f0536174980a","reference_version":3,"geographic_area_code":"BLT","geographic_region_code":14,"geographic_match":"largest source overlap","geographic_overlap":1.0,"coverage_version":1,"semantic_version":1,"remote_version":1,"framework_reference":"Modern geographic framework; historical attributes require dated evidence","framework_match":{"source":"Natural Earth","id":"LTU-935","overlap":0.987815},"regional_match":{"reference_iso":"LTU","source_id":"LTU-935","overlap":0.987815,"method":"reference-territory-constrained overlap"},"reference_owner_id":"owner:Q37","reference_polity":"Lithuania","reference_polity_status":"reference","reference_polity_evidence":{"source":"Natural Earth pinned administrative and sovereignty reference; dates vary","source_url":"https://github.com/nvkelso/natural-earth-vector/tree/ca96624a56bd078437bca8184e78163e5039ad19","reference_territory":"Lithuania","classification":"Sovereign country","note":null,"uncertainty":false},"semantic_review":{"status":"open","continent":"Europe","decision_index":485,"evidence_file":"geographic-decisions"}}},"id":"gb:LTU:ADM2:59024439B52033520810825"},{"type":"Feature","geometry":{"type":"Polygon","coordinates":[[[21.4868,56.9119],[21.4754,56.8903],[21.4765,56.8733],[21.5113,56.8654],[21.5058,56.8518],[21.5197,56.8377],[21.5985,56.8447],[21.6057,56.8265],[21.6446,56.7896],[21.6926,56.7913],[21.7357,56.7714],[21.7656,56.7497],[21.7565,56.7303],[21.7787,56.7297],[21.7799,56.7111],[21.796,56.6961],[21.8232,56.686],[21.8133,56.6692],[21.8347,56.649],[21.8164,56.6256],[21.7844,56.6215],[21.8004,56.5746],[21.7907,56.5494],[21.8039,56.5346],[21.8421,56.5227],[21.9033,56.5262],[21.9075,56.5078],[21.9651,56.5078],[21.9449,56.4931],[21.9516,56.4733],[21.9673,56.4618],[22.0116,56.4448],[22.0078,56.4317],[21.9528,56.4264],[21.9641,56.3981],[21.9711,56.3956],[21.9804,56.3955],[21.9775,56.3935],[21.978185243328102,56.38527708006279],[21.974439999999948,56.379459999999916],[21.973457446808514,56.377986170212765],[21.9695,56.3767],[21.9619,56.3779],[21.9582,56.3816],[21.9542,56.3816],[21.951096748961085,56.37995017033374],[21.95085958167165,56.37988803560672],[21.9462,56.3775],[21.9451,56.3749],[21.9194,56.3685],[21.915502233250628,56.36781215880893],[21.89689760806446,56.36575070449467],[21.894170253856448,56.365036173373575],[21.882,56.3641],[21.8709,56.3616],[21.8665,56.3661],[21.8357,56.3716],[21.7876,56.3437],[21.7404,56.3299],[21.7332,56.321],[21.7269,56.3202],[21.72444790541229,56.31372647028845],[21.72152818897646,56.31386645669291],[21.7147,56.3145],[21.714407843137252,56.314207843137254],[21.7104,56.3144],[21.7049,56.313],[21.7008,56.3141],[21.6923,56.3115],[21.690890353341505,56.311779498906425],[21.690095007802572,56.311571128780564],[21.6861,56.3117],[21.680810126582255,56.313778164556965],[21.6805,56.3139],[21.6732,56.3113],[21.6598,56.3186],[21.6544,56.3188],[21.652,56.3174],[21.6458,56.3208],[21.6386,56.3201],[21.6379,56.322],[21.6358,56.3237],[21.6274,56.3218],[21.6164,56.3249],[21.608,56.3248],[21.6077,56.3232],[21.6031,56.3245],[21.5928,56.3222],[21.5868,56.3227],[21.5854,56.3202],[21.579,56.3197],[21.5785,56.3151],[21.5717,56.3161],[21.568,56.3153],[21.5653,56.3169],[21.5605,56.3104],[21.5556,56.3078],[21.5574,56.3047],[21.5483,56.301],[21.5471,56.2978],[21.5423,56.2983],[21.5342,56.2934],[21.5224,56.2935],[21.5136,56.2918],[21.5055,56.2941],[21.5028,56.2955],[21.4994,56.2949],[21.5,56.2919],[21.4963,56.2926],[21.4915,56.2911],[21.4909,56.288],[21.4671,56.2708],[21.4652,56.2605],[21.4523,56.2487],[21.4405,56.2463],[21.4315,56.2407],[21.4172,56.242],[21.4056,56.2361],[21.389889285714446,56.231297857142906],[21.378859353901372,56.227968823177505],[21.3544,56.2248],[21.354327082697576,56.22476669209642],[21.3538,56.2247],[21.3382,56.2174],[21.3336,56.217974999999996],[21.3336,56.2184],[21.3305,56.2188],[21.329604651162782,56.21847441860465],[21.3294,56.2185],[21.329108239277662,56.21829390519188],[21.3283,56.218],[21.3059,56.2019],[21.298532575757577,56.1918803030303],[21.2936,56.1913],[21.2825,56.1849],[21.2781,56.1801],[21.2793,56.1745],[21.2746,56.1747],[21.2743,56.172],[21.2684,56.1719],[21.268426751592358,56.17120445859873],[21.2676,56.1691],[21.26467392739272,56.16815610561056],[21.263496385542282,56.16799759036146],[21.259835435435434,56.16762402402402],[21.2602,56.1689],[21.2578,56.1688],[21.2553,56.1654],[21.2487,56.1662],[21.2468,56.164],[21.230964222873894,56.162317448680355],[21.2307,56.1623],[21.228039449541328,56.159160550458765],[21.2266969774241,56.1576338174627],[21.226615912573955,56.15748077683727],[21.225739183524695,56.15644623655914],[21.2257,56.1564],[21.2299,56.1507],[21.2268,56.1459],[21.230716939890705,56.14345191256831],[21.2289,56.1424],[21.232879250334676,56.141817670682734],[21.2286,56.1389],[21.2352,56.1356],[21.235,56.1283],[21.2385604477612,56.12337014925373],[21.237590476190483,56.122638095238095],[21.2354,56.1222],[21.2333,56.1194],[21.2355,56.1158],[21.226,56.1136],[21.2226,56.104],[21.2177,56.1011],[21.2154,56.1022],[21.2178,56.0996],[21.212249549549426,56.09623333333326],[21.2115,56.0958],[21.2099,56.0928],[21.212881882704522,56.09087620470676],[21.2042,56.08],[21.2006,56.0795],[21.202257446808513,56.07740638297872],[21.181209677419353,56.075067741935484],[21.180599210822997,56.075009470124016],[21.1804,56.0774],[21.1739,56.0802],[21.1744,56.0813],[21.1715,56.0811],[21.163,56.0861],[21.1596,56.0862],[21.1474,56.0826],[21.1433,56.08],[21.129322029878416,56.078079362884054],[21.129092820928648,56.07807825597102],[21.1226,56.0772],[21.064694200292234,56.06921299314376],[21.0389,56.127],[20.9864,56.21],[20.9804,56.2521],[20.9854,56.2885],[20.9713,56.3449],[20.974,56.3756],[20.9956,56.4338],[20.9994,56.4653],[21.0111,56.4788],[21.052,56.4829],[21.051,56.5127],[21.0773,56.5312],[21.1017,56.5348],[21.1057,56.5614],[21.0636,56.5677],[21.0586,56.5902],[21.0677,56.6048],[21.0262,56.6091],[21.0395,56.6363],[21.0577,56.7002],[21.0599,56.7549],[21.052,56.8213],[21.0588,56.8375],[21.1186,56.869],[21.2414,56.9166],[21.2895,56.9541],[21.3338,56.9756],[21.3923,56.9565],[21.3947,56.9388],[21.4164,56.9201],[21.4868,56.9119]]]},"properties":{"id":"gb:LVA:ADM1:71098776B71258051821866","name":"Dienvidkurzemes novads","parent_id":"framework:province:dienvidkurzemes-novads:e16926ea310b","reference_owner":"Latvia","metadata":{"source_id":"gb:LVA:ADM1","source_name":"geoBoundaries gbOpen","source_url":"https://github.com/wmgeolab/geoBoundaries/raw/9469f09/releaseData/gbOpen/LVA/ADM1/geoBoundaries-LVA-ADM1.geojson","license":"Creative Commons Attribution 4.0 International (CC BY 4.0)","reference_year":"2021","administrative_level":"ADM1","parent_source_level":"ADM1","granularity_version":3,"source_role":"Administrat\u012bv\u0101s teritorijas","selection_reason":"Named Administrat\u012bv\u0101s teritorijas territories at the reviewed country-specific district tier; subordinate wards, villages and electoral divisions are not substituted based on area.","parent_match":"Named source administrative unit grouped within this geographic area","original_id":"71098776B71258051821866","representative_point":[21.48167416274971,56.517700000000005],"hierarchy_version":4,"hierarchy_source":"gb:LVA:ADM1","hierarchy_overlap":0.99526,"topology_version":1,"topology_reconciled":true,"topology_conflicts":4,"topology_note":"Shared display coverage reconciled against Natural Earth reference borders, then finer source geometry. Original source boundaries may differ.","original_geometry_sha256":"9a65233e82d1edc03c602affcdab912bfe23be2dda669aeed8e83d46bfef2524","reference_version":3,"geographic_area_code":"BLT","geographic_region_code":14,"geographic_match":"largest source overlap","geographic_overlap":0.99749,"coverage_version":1,"semantic_version":1,"remote_version":1,"framework_reference":"Modern geographic framework; historical attributes require dated evidence","framework_match":{"source":"Natural Earth","id":"LVA-5714","overlap":0.170221},"regional_match":{"reference_iso":"LVA","source_id":null,"overlap":0.170221,"method":"reference-territory-constrained overlap"},"reference_owner_id":"owner:Q211","reference_polity":"Latvia","reference_polity_status":"reference","reference_polity_evidence":{"source":"Natural Earth pinned administrative and sovereignty reference; dates vary","source_url":"https://github.com/nvkelso/natural-earth-vector/tree/ca96624a56bd078437bca8184e78163e5039ad19","reference_territory":"Latvia","classification":"Sovereign country","note":null,"uncertainty":false},"semantic_review":{"status":"open","continent":"Europe","decision_index":501,"evidence_file":"geographic-decisions"}}},"id":"gb:LVA:ADM1:71098776B71258051821866"}]}