{
  "features": [
    {
      "geometry": {
        "coordinates": [
          [
            [
              150.85695471574326,
              -2.775708366559472
            ],
            [
              150.8571,
              -2.7753
            ],
            [
              150.86223385825036,
              -2.7747295713055147
            ],
            [
              150.85695471574326,
              -2.775708366559472
            ]
          ]
        ],
        "type": "Polygon"
      },
      "id": "physical-component:a68af90226372a2ffe141464812466f3ce7c4cb2d82332b73736e879e9cfa4e0",
      "properties": {
        "administrative_assignment": null,
        "dateline_connected": false,
        "diagnostic_nearby_locations": [],
        "fragment_bindings": [
          {
            "feature_sha256": "4f2c781048cf9a6c33001b1d4bdd815b2fac9ea103e6a38c4ea751dcc1008642",
            "id": "physical-gap:858:37:b0ddc428b0cf7d29ac7edab0f68403dc27d093957c09d1f3ce3054c97878cf71"
          }
        ],
        "measured_fragment_area_sum_m2": 12378.760960391332,
        "measured_fragment_count": 1,
        "positive_area_input_overlap": false,
        "touches_blocked_tile": false,
        "touches_domain_boundary": false,
        "touches_reference_shore": false,
        "unmeasured_fragment_ids": [],
        "water_status": "unverified"
      },
      "type": "Feature"
    },
    {
      "geometry": {
        "coordinates": [
          [
            [
              140.91693937397034,
              -6.818491762767704
            ],
            [
              140.91334849699402,
              -6.811732464929909
            ],
            [
              140.9171,
              -6.8165
            ],
            [
              140.91693937397034,
              -6.818491762767704
            ]
          ]
        ],
        "type": "Polygon"
      },
      "id": "physical-component:b680fa0be6bb8caf76ed123e423cbc7e7de33d87865cb48bc5d11d416156f45d",
      "properties": {
        "administrative_assignment": null,
        "dateline_connected": false,
        "diagnostic_nearby_locations": [],
        "fragment_bindings": [
          {
            "feature_sha256": "e29b0f161070d9b51a014595f8c42ef2e9818cb8c67909ace78c1845ca0dcbc9",
            "id": "physical-gap:784:98:5aea571dc986e602adb906f7bcad2ad46c2c9cddc3760ffa22d75d59b5f2e9be"
          }
        ],
        "measured_fragment_area_sum_m2": 50351.62548700436,
        "measured_fragment_count": 1,
        "positive_area_input_overlap": false,
        "touches_blocked_tile": false,
        "touches_domain_boundary": false,
        "touches_reference_shore": false,
        "unmeasured_fragment_ids": [],
        "water_status": "unverified"
      },
      "type": "Feature"
    },
    {
      "geometry": {
        "coordinates": [
          [
            [
              159.08585482783747,
              -8.089515842369805
            ],
            [
              159.0859,
              -8.0895
            ],
            [
              159.08590223852897,
              -8.089524064186277
            ],
            [
              159.08585482783747,
              -8.089515842369805
            ]
          ]
        ],
        "type": "Polygon"
      },
      "id": "physical-component:2b39965dae96675fca4577dd52a5bfe9cc7e430f79dfa7089c919bd4ed616af8",
      "properties": {
        "administrative_assignment": null,
        "dateline_connected": false,
        "diagnostic_nearby_locations": [],
        "fragment_bindings": [
          {
            "feature_sha256": "e88f0649d05604d89615188f54199f7f0b35d20c57e921c9158c1d73fb080200",
            "id": "physical-gap:787:308:498f18acf99514a6246f6d62110a11014a2f60c82caa2480d711b49bf3b1c604"
          }
        ],
        "measured_fragment_area_sum_m2": 6.841506418841418,
        "measured_fragment_count": 1,
        "positive_area_input_overlap": false,
        "touches_blocked_tile": false,
        "touches_domain_boundary": false,
        "touches_reference_shore": false,
        "unmeasured_fragment_ids": [],
        "water_status": "unverified"
      },
      "type": "Feature"
    },
    {
      "geometry": {
        "coordinates": [
          [
            [
              159.2716627890526,
              -7.95498531332966
            ],
            [
              159.2559,
              -7.9666
            ],
            [
              159.255879460512,
              -7.9665600621066694
            ],
            [
              159.2716627890526,
              -7.95498531332966
            ]
          ]
        ],
        "type": "Polygon"
      },
      "id": "physical-component:7deb1a01865ea8f87256a5442ca03a55613d4187137d49c1342fdfe33573cb15",
      "properties": {
        "administrative_assignment": null,
        "dateline_connected": false,
        "diagnostic_nearby_locations": [],
        "fragment_bindings": [
          {
            "feature_sha256": "aeeefc6082b6cd58dd59cb79c6bfc356deb7807f68238c51e4c45280c250f4d5",
            "id": "physical-gap:787:339:b7e8b4aaff3cd33d451d16015e5204cf3077c134b48741d9b6c900f5018879a5"
          }
        ],
        "measured_fragment_area_sum_m2": 5292.553020290883,
        "measured_fragment_count": 1,
        "positive_area_input_overlap": false,
        "touches_blocked_tile": false,
        "touches_domain_boundary": false,
        "touches_reference_shore": false,
        "unmeasured_fragment_ids": [],
        "water_status": "unverified"
      },
      "type": "Feature"
    },
    {
      "geometry": {
        "coordinates": [
          [
            [
              134.29724010233247,
              -6.322073998971158
            ],
            [
              134.2975,
              -6.3202
            ],
            [
              134.29867319334616,
              -6.318610512240697
            ],
            [
              134.29724010233247,
              -6.322073998971158
            ]
          ]
        ],
        "type": "Polygon"
      },
      "id": "physical-component:b53c0913a174ea07e07accae42dfcdfe5e9e67810dfaa598398401a8cbd6b890",
      "properties": {
        "administrative_assignment": null,
        "dateline_connected": false,
        "diagnostic_nearby_locations": [],
        "fragment_bindings": [
          {
            "feature_sha256": "a9808263c8a6d506b8e450ad2954d0827e2476d3babd9e253b62309e72b00a85",
            "id": "physical-gap:782:125:69afd56f427b11ca7ea76a1264b85688ec53062a80b1c02086f68aac21959f75"
          }
        ],
        "measured_fragment_area_sum_m2": 10923.655032274628,
        "measured_fragment_count": 1,
        "positive_area_input_overlap": false,
        "touches_blocked_tile": false,
        "touches_domain_boundary": false,
        "touches_reference_shore": false,
        "unmeasured_fragment_ids": [],
        "water_status": "unverified"
      },
      "type": "Feature"
    },
    {
      "geometry": {
        "coordinates": [
          [
            [
              144.31033945215552,
              -7.49945441676622
            ],
            [
              144.3103,
              -7.4994
            ],
            [
              144.31031871312166,
              -7.499126580500271
            ],
            [
              144.31033945215552,
              -7.49945441676622
            ]
          ]
        ],
        "type": "Polygon"
      },
      "id": "physical-component:9ef68049be5faeccccd1b62178bfd939de8c3226ddbb591070b41b0041a988b8",
      "properties": {
        "administrative_assignment": null,
        "dateline_connected": false,
        "diagnostic_nearby_locations": [],
        "fragment_bindings": [
          {
            "feature_sha256": "e3ed6c59a2f76944596ecfdc6d947114e7427823bc8dfa8515a7100dcaa34748",
            "id": "physical-gap:784:111:fa9bad8f1d90f2048286d765c951eb68a94d4e6a112ddc15152d825b69626dbc"
          }
        ],
        "measured_fragment_area_sum_m2": 72.05108040219741,
        "measured_fragment_count": 1,
        "positive_area_input_overlap": false,
        "touches_blocked_tile": false,
        "touches_domain_boundary": false,
        "touches_reference_shore": false,
        "unmeasured_fragment_ids": [],
        "water_status": "unverified"
      },
      "type": "Feature"
    },
    {
      "geometry": {
        "coordinates": [
          [
            [
              152.40384736052684,
              -10.68591670949533
            ],
            [
              152.399,
              -10.6831
            ],
            [
              152.39836887761967,
              -10.681815480331833
            ],
            [
              152.40384736052684,
              -10.68591670949533
            ]
          ]
        ],
        "type": "Polygon"
      },
      "id": "physical-component:91794cfc8c91cd5beafb07cb141172995d941c93eb46c7de72885de9025edfcd",
      "properties": {
        "administrative_assignment": null,
        "dateline_connected": false,
        "diagnostic_nearby_locations": [],
        "fragment_bindings": [
          {
            "feature_sha256": "371cd3ebd14dc7118c9f9f3523ba448983f04ec6c86d6e1a80a52a0283e2652b",
            "id": "physical-gap:714:115:6c14e40ffdbcb1722a0336d952134b3530c1f4a23a2cbb0cfa5563c5cd99b971"
          }
        ],
        "measured_fragment_area_sum_m2": 26918.322155683654,
        "measured_fragment_count": 1,
        "positive_area_input_overlap": false,
        "touches_blocked_tile": false,
        "touches_domain_boundary": false,
        "touches_reference_shore": false,
        "unmeasured_fragment_ids": [],
        "water_status": "unverified"
      },
      "type": "Feature"
    },
    {
      "geometry": {
        "coordinates": [
          [
            [
              132.62101143298142,
              -2.231840241970046
            ],
            [
              132.6254,
              -2.2421
            ],
            [
              132.62464091802443,
              -2.2474825812814108
            ],
            [
              132.62101143298142,
              -2.231840241970046
            ]
          ]
        ],
        "type": "Polygon"
      },
      "id": "physical-component:56489c721bac1766a590d84e12f293bf574fc3d33180dceeb87a09100632e11e",
      "properties": {
        "administrative_assignment": null,
        "dateline_connected": false,
        "diagnostic_nearby_locations": [],
        "fragment_bindings": [
          {
            "feature_sha256": "2b854d94abc92676d6ef2585c8cb6dd49ca8261111cd2c2021c9f7142f8926e6",
            "id": "physical-gap:854:187:f81b8b65d6cd9ac8b544ff2724ea5940f08ca94284681354e89df11e30465177"
          }
        ],
        "measured_fragment_area_sum_m2": 193169.01933738106,
        "measured_fragment_count": 1,
        "positive_area_input_overlap": false,
        "touches_blocked_tile": false,
        "touches_domain_boundary": false,
        "touches_reference_shore": false,
        "unmeasured_fragment_ids": [],
        "water_status": "unverified"
      },
      "type": "Feature"
    },
    {
      "geometry": {
        "coordinates": [
          [
            [
              131.16164961394534,
              -1.4681250077210934
            ],
            [
              131.1629,
              -1.4681
            ],
            [
              131.1640074953746,
              -1.4691140921502162
            ],
            [
              131.16164961394534,
              -1.4681250077210934
            ]
          ]
        ],
        "type": "Polygon"
      },
      "id": "physical-component:76f7f6996c0990c4de8bbb3ec27f8a151316532801d32a49d89c603c5f12fe1a",
      "properties": {
        "administrative_assignment": null,
        "dateline_connected": false,
        "diagnostic_nearby_locations": [],
        "fragment_bindings": [
          {
            "feature_sha256": "6f2256dfc78da69df6b641dc45052138dc8ff63f91b7e5b5776104534c108087",
            "id": "physical-gap:854:212:0a9a744c980e01f4c4175233d74df9311c8b6001e5d2296a044315e444f558d6"
          }
        ],
        "measured_fragment_area_sum_m2": 7971.899660517574,
        "measured_fragment_count": 1,
        "positive_area_input_overlap": false,
        "touches_blocked_tile": false,
        "touches_domain_boundary": false,
        "touches_reference_shore": false,
        "unmeasured_fragment_ids": [],
        "water_status": "unverified"
      },
      "type": "Feature"
    },
    {
      "geometry": {
        "coordinates": [
          [
            [
              133.9048316460549,
              -3.789739071979586
            ],
            [
              133.9037,
              -3.7874
            ],
            [
              133.903453407538,
              -3.7837011130702733
            ],
            [
              133.9048316460549,
              -3.789739071979586
            ]
          ]
        ],
        "type": "Polygon"
      },
      "id": "physical-component:7b36dfaf63316a134de006b09d006d21fb57632d7359bb0e5b34572738897829",
      "properties": {
        "administrative_assignment": null,
        "dateline_connected": false,
        "diagnostic_nearby_locations": [],
        "fragment_bindings": [
          {
            "feature_sha256": "0cd2f078210f8a57332004c149f158dc9addf6e01946d5ca702b5879bb9db977",
            "id": "physical-gap:854:375:bda38b1abcd191b0917eb1d697807e13f2ce61960b55a9ef22561b7d57374c0c"
          }
        ],
        "measured_fragment_area_sum_m2": 22164.721063942885,
        "measured_fragment_count": 1,
        "positive_area_input_overlap": false,
        "touches_blocked_tile": false,
        "touches_domain_boundary": false,
        "touches_reference_shore": false,
        "unmeasured_fragment_ids": [],
        "water_status": "unverified"
      },
      "type": "Feature"
    },
    {
      "geometry": {
        "coordinates": [
          [
            [
              131.30312208607037,
              -0.8014423863488105
            ],
            [
              131.2941,
              -0.8057
            ],
            [
              131.28985828129814,
              -0.805411727855213
            ],
            [
              131.30312208607037,
              -0.8014423863488105
            ]
          ]
        ],
        "type": "Polygon"
      },
      "id": "physical-component:b45afebcdd32d0f95edb57e8136f432d323c19483ca63fb861b288a959c214d3",
      "properties": {
        "administrative_assignment": null,
        "dateline_connected": false,
        "diagnostic_nearby_locations": [],
        "fragment_bindings": [
          {
            "feature_sha256": "3f0c36978a7c5c976a0ab75c809c8cd00086c6fea1d8055de8b291f5e3a46882",
            "id": "physical-gap:854:224:98e56797a087b868da287128a2cb98fe3ca5a4234e94233e57ad33fbc3451c26"
          }
        ],
        "measured_fragment_area_sum_m2": 127143.08282413,
        "measured_fragment_count": 1,
        "positive_area_input_overlap": false,
        "touches_blocked_tile": false,
        "touches_domain_boundary": false,
        "touches_reference_shore": false,
        "unmeasured_fragment_ids": [],
        "water_status": "unverified"
      },
      "type": "Feature"
    },
    {
      "geometry": {
        "coordinates": [
          [
            [
              134.88277748557175,
              -3.930809139432629
            ],
            [
              134.883,
              -3.9304
            ],
            [
              134.8846086447405,
              -3.9308427462588496
            ],
            [
              134.88277748557175,
              -3.930809139432629
            ]
          ]
        ],
        "type": "Polygon"
      },
      "id": "physical-component:e5eefaf8efe7bce6215613325f8a1173ccbb8ee73f4f0e223c6a7ce4d4ef6abe",
      "properties": {
        "administrative_assignment": null,
        "dateline_connected": false,
        "diagnostic_nearby_locations": [],
        "fragment_bindings": [
          {
            "feature_sha256": "bb7d9633d80cc7a3f91d70d9f12a7be597fb37eedcf382a5f5a8e6e722e812d1",
            "id": "physical-gap:854:96:ce2634622d35f2f086595a87cefc83c4775baa5ab70227afd79509d945be0929"
          }
        ],
        "measured_fragment_area_sum_m2": 4646.336206347675,
        "measured_fragment_count": 1,
        "positive_area_input_overlap": false,
        "touches_blocked_tile": false,
        "touches_domain_boundary": false,
        "touches_reference_shore": false,
        "unmeasured_fragment_ids": [],
        "water_status": "unverified"
      },
      "type": "Feature"
    },
    {
      "geometry": {
        "coordinates": [
          [
            [
              166.3678712205082,
              -22.202142774998084
            ],
            [
              166.3679,
              -22.2021
            ],
            [
              166.36791463724168,
              -22.202097908965474
            ],
            [
              166.3678712205082,
              -22.202142774998084
            ]
          ]
        ],
        "type": "Polygon"
      },
      "id": "physical-component:1c0757a8b6119db62215af58de5bf454137c634b347fe48a6a09d44a153fdb94",
      "properties": {
        "administrative_assignment": null,
        "dateline_connected": false,
        "diagnostic_nearby_locations": [],
        "fragment_bindings": [
          {
            "feature_sha256": "d4cd63429e888fef07873166dcd2a76af470ce734c3b265b3cd22e89139afc27",
            "id": "physical-gap:573:41:56b08967bbc812199d0afa3c17e536e0dbde061c9d278fdd0410771ded9ffd16"
          }
        ],
        "measured_fragment_area_sum_m2": 3.2309612073339795,
        "measured_fragment_count": 1,
        "positive_area_input_overlap": false,
        "touches_blocked_tile": false,
        "touches_domain_boundary": false,
        "touches_reference_shore": false,
        "unmeasured_fragment_ids": [],
        "water_status": "unverified"
      },
      "type": "Feature"
    },
    {
      "geometry": {
        "coordinates": [
          [
            [
              166.5656714696834,
              -22.250681405614547
            ],
            [
              166.5657,
              -22.2507
            ],
            [
              166.5655080123787,
              -22.250895415971673
            ],
            [
              166.5656714696834,
              -22.250681405614547
            ]
          ]
        ],
        "type": "Polygon"
      },
      "id": "physical-component:f81af9bb2943222d5554fb978efb394f4c24e1bfec12cb4e022c2b58d49fe6d3",
      "properties": {
        "administrative_assignment": null,
        "dateline_connected": false,
        "diagnostic_nearby_locations": [],
        "fragment_bindings": [
          {
            "feature_sha256": "36cb3e94a06c97760c1d8de5eb18021ad6da960481f2e9c43213076502be64f3",
            "id": "physical-gap:573:31:0a3515658cb6bd426465ce4a8b7f09332a71f85c4756d0adbe9430f94f8dc088"
          }
        ],
        "measured_fragment_area_sum_m2": 52.19325397492739,
        "measured_fragment_count": 1,
        "positive_area_input_overlap": false,
        "touches_blocked_tile": false,
        "touches_domain_boundary": false,
        "touches_reference_shore": false,
        "unmeasured_fragment_ids": [],
        "water_status": "unverified"
      },
      "type": "Feature"
    },
    {
      "geometry": {
        "coordinates": [
          [
            [
              167.18462171070186,
              -20.82281547712402
            ],
            [
              167.1812,
              -20.8298
            ],
            [
              167.18117051752876,
              -20.829832714768756
            ],
            [
              167.18462171070186,
              -20.82281547712402
            ]
          ]
        ],
        "type": "Polygon"
      },
      "id": "physical-component:d4b45985f5e76f82c8f4317b6b0453941c4ae25c72a999cdd20d8ec7ce6e3b23",
      "properties": {
        "administrative_assignment": null,
        "dateline_connected": false,
        "diagnostic_nearby_locations": [],
        "fragment_bindings": [
          {
            "feature_sha256": "77895bbe264d47a2c0d241b8919e0e58d23e39ccc09daef906ca65931776b2d9",
            "id": "physical-gap:573:176:c5e194099f79e6c86841e02b78162d11906d410f9306ed64b858f3e8e427bdf2"
          }
        ],
        "measured_fragment_area_sum_m2": 541.5268649751399,
        "measured_fragment_count": 1,
        "positive_area_input_overlap": false,
        "touches_blocked_tile": false,
        "touches_domain_boundary": false,
        "touches_reference_shore": false,
        "unmeasured_fragment_ids": [],
        "water_status": "unverified"
      },
      "type": "Feature"
    },
    {
      "geometry": {
        "coordinates": [
          [
            [
              134.8419037142379,
              -1.0867815570424884
            ],
            [
              134.8421,
              -1.0868
            ],
            [
              134.8420166031723,
              -1.0870369528913526
            ],
            [
              134.8419037142379,
              -1.0867815570424884
            ]
          ]
        ],
        "type": "Polygon"
      },
      "id": "physical-component:47375cf5710ddd0ab39b65b283b919cc9a2244d5d9e294fa8f305442c1a67435",
      "properties": {
        "administrative_assignment": null,
        "dateline_connected": false,
        "diagnostic_nearby_locations": [],
        "fragment_bindings": [
          {
            "feature_sha256": "6ab8ba0944a147591e7234ce185646c982957b1ad3d7dacbc57ac53dae7f6021",
            "id": "physical-gap:854:397:0ed000bc47206db302bcd511971bd4c98c900d955f5ae214bc6341e213213e45"
          }
        ],
        "measured_fragment_area_sum_m2": 295.6648328988418,
        "measured_fragment_count": 1,
        "positive_area_input_overlap": false,
        "touches_blocked_tile": false,
        "touches_domain_boundary": false,
        "touches_reference_shore": false,
        "unmeasured_fragment_ids": [],
        "water_status": "unverified"
      },
      "type": "Feature"
    },
    {
      "geometry": {
        "coordinates": [
          [
            [
              136.19615960715586,
              -1.8622065498758182
            ],
            [
              136.1971,
              -1.8603
            ],
            [
              136.21384447737728,
              -1.8720619743528117
            ],
            [
              136.19615960715586,
              -1.8622065498758182
            ]
          ]
        ],
        "type": "Polygon"
      },
      "id": "physical-component:7fd5b82562720e9d1c4e9786704f5467b6883759c94beda5bd0fd77854592550",
      "properties": {
        "administrative_assignment": null,
        "dateline_connected": false,
        "diagnostic_nearby_locations": [],
        "fragment_bindings": [
          {
            "feature_sha256": "0fb07401d1d48da7b562c375843ac04270cb9934846cc59e19c1370317e486ec",
            "id": "physical-gap:855:15:3dbbb63f330c8b849a8f3366ccf6b3499c1785fcbfceffd94e861982d9141f5a"
          }
        ],
        "measured_fragment_area_sum_m2": 264416.7193366855,
        "measured_fragment_count": 1,
        "positive_area_input_overlap": false,
        "touches_blocked_tile": false,
        "touches_domain_boundary": false,
        "touches_reference_shore": false,
        "unmeasured_fragment_ids": [],
        "water_status": "unverified"
      },
      "type": "Feature"
    },
    {
      "geometry": {
        "coordinates": [
          [
            [
              140.9218401746725,
              -6.461509606986851
            ],
            [
              140.9216,
              -6.4608
            ],
            [
              140.92163791982665,
              -6.460678114842897
            ],
            [
              140.9218401746725,
              -6.461509606986851
            ]
          ]
        ],
        "type": "Polygon"
      },
      "id": "physical-component:b152ead109470c412b34e7eabbd9a56db95b0c8dc3bc027413bf7952c75740f5",
      "properties": {
        "administrative_assignment": null,
        "dateline_connected": false,
        "diagnostic_nearby_locations": [],
        "fragment_bindings": [
          {
            "feature_sha256": "ee67007f9f6328ba1d7d01e9a76214687f5c6f7a94bd775a49a5041c9913bf8e",
            "id": "physical-gap:784:104:f41a60058fb1def63b0a28eed0c85c735bdbb2921b80d310a0faa1f371043286"
          }
        ],
        "measured_fragment_area_sum_m2": 343.63567776456694,
        "measured_fragment_count": 1,
        "positive_area_input_overlap": false,
        "touches_blocked_tile": false,
        "touches_domain_boundary": false,
        "touches_reference_shore": false,
        "unmeasured_fragment_ids": [],
        "water_status": "unverified"
      },
      "type": "Feature"
    },
    {
      "geometry": {
        "coordinates": [
          [
            [
              140.908,
              -6.5838
            ],
            [
              140.9076974587606,
              -6.584037895675409
            ],
            [
              140.90823434343432,
              -6.582792323232425
            ],
            [
              140.908,
              -6.5838
            ]
          ]
        ],
        "type": "Polygon"
      },
      "id": "physical-component:f2e4208cce53c8a178c2a4d457f9dad9a085261cb01e32dbb0c8ac99070bd285",
      "properties": {
        "administrative_assignment": null,
        "dateline_connected": false,
        "diagnostic_nearby_locations": [],
        "fragment_bindings": [
          {
            "feature_sha256": "0ef0a3f30add411e4a276cdd66c8466d70fc516c9152d5f791b6a83c07a9ec07",
            "id": "physical-gap:784:110:3d0bedf424196c247294004f3f59b1a82006f0600124a387f75e7f8face7658a"
          }
        ],
        "measured_fragment_area_sum_m2": 1523.341968905611,
        "measured_fragment_count": 1,
        "positive_area_input_overlap": false,
        "touches_blocked_tile": false,
        "touches_domain_boundary": false,
        "touches_reference_shore": false,
        "unmeasured_fragment_ids": [],
        "water_status": "unverified"
      },
      "type": "Feature"
    },
    {
      "geometry": {
        "coordinates": [
          [
            [
              157.3081462236779,
              -7.339848988089598
            ],
            [
              157.3084,
              -7.3396
            ],
            [
              157.30840405432065,
              -7.339644147047059
            ],
            [
              157.3081462236779,
              -7.339848988089598
            ]
          ]
        ],
        "type": "Polygon"
      },
      "id": "physical-component:10f89b3868b4e895d2339368b755f073a626d439640301111352521c9bc24b4b",
      "properties": {
        "administrative_assignment": null,
        "dateline_connected": false,
        "diagnostic_nearby_locations": [],
        "fragment_bindings": [
          {
            "feature_sha256": "5eedcb55b8683486ba2a3385656199b682e709805dd272b2a4a4920aac302a8a",
            "id": "physical-gap:787:155:2e61809078a03facb19b2ef193e19ed760527f67138119678fb66d6a6547d5d0"
          }
        ],
        "measured_fragment_area_sum_m2": 74.56546065909643,
        "measured_fragment_count": 1,
        "positive_area_input_overlap": false,
        "touches_blocked_tile": false,
        "touches_domain_boundary": false,
        "touches_reference_shore": false,
        "unmeasured_fragment_ids": [],
        "water_status": "unverified"
      },
      "type": "Feature"
    },
    {
      "geometry": {
        "coordinates": [
          [
            [
              156.0637315852283,
              -6.859629790613065
            ],
            [
              156.0637,
              -6.8596
            ],
            [
              156.0637969140433,
              -6.859271527975375
            ],
            [
              156.0637315852283,
              -6.859629790613065
            ]
          ]
        ],
        "type": "Polygon"
      },
      "id": "physical-component:721838ee1e1d6c3acde27742d49376d80aeea2a3818aff8ef006e4d407827ebb",
      "properties": {
        "administrative_assignment": null,
        "dateline_connected": false,
        "diagnostic_nearby_locations": [],
        "fragment_bindings": [
          {
            "feature_sha256": "4fab590965cdeb7fce3def30957ee5ccdbca251687a7f1a023fc21e36f17aeaf",
            "id": "physical-gap:787:200:2ba5660eeeb5d8c07fd2c8e3ae6933bef80924954e7e67df5e3c7ed93de44043"
          }
        ],
        "measured_fragment_area_sum_m2": 81.05264596532209,
        "measured_fragment_count": 1,
        "positive_area_input_overlap": false,
        "touches_blocked_tile": false,
        "touches_domain_boundary": false,
        "touches_reference_shore": false,
        "unmeasured_fragment_ids": [],
        "water_status": "unverified"
      },
      "type": "Feature"
    },
    {
      "geometry": {
        "coordinates": [
          [
            [
              157.8861580471067,
              -8.467520586473892
            ],
            [
              157.8861,
              -8.4675
            ],
            [
              157.88609379723792,
              -8.467473561997751
            ],
            [
              157.8861580471067,
              -8.467520586473892
            ]
          ]
        ],
        "type": "Polygon"
      },
      "id": "physical-component:854f216abedb0bc31b01c6cfa93a441c7aed86924b3331c0b61c72c2936733d3",
      "properties": {
        "administrative_assignment": null,
        "dateline_connected": false,
        "diagnostic_nearby_locations": [],
        "fragment_bindings": [
          {
            "feature_sha256": "3d416f1667103ccbf764e4993623965d2b0d24e9c676b2b239baaa18dcb68170",
            "id": "physical-gap:787:58:7d2600caf688dbc433f7eb55250f9c48501f67fd62fb85c61011f948b396d985"
          }
        ],
        "measured_fragment_area_sum_m2": 8.56726280226518,
        "measured_fragment_count": 1,
        "positive_area_input_overlap": false,
        "touches_blocked_tile": false,
        "touches_domain_boundary": false,
        "touches_reference_shore": false,
        "unmeasured_fragment_ids": [],
        "water_status": "unverified"
      },
      "type": "Feature"
    },
    {
      "geometry": {
        "coordinates": [
          [
            [
              160.2766080039378,
              -9.147891528299597
            ],
            [
              160.2766,
              -9.1479
            ],
            [
              160.2765842479564,
              -9.147907700999092
            ],
            [
              160.2766080039378,
              -9.147891528299597
            ]
          ]
        ],
        "type": "Polygon"
      },
      "id": "physical-component:8bce0affeeb72b155c7df58ba9138fd9cb40ed5134eb25332ef4fcb6c0335d78",
      "properties": {
        "administrative_assignment": null,
        "dateline_connected": false,
        "diagnostic_nearby_locations": [],
        "fragment_bindings": [
          {
            "feature_sha256": "04c75e6589690d17203796baafd6ebf4f61501099d5ea3ce11e4f854d980c858",
            "id": "physical-gap:788:36:5f8382470b096724a6b4225d0a7a1d37c87575d70540654f79b3cc9744a46820"
          }
        ],
        "measured_fragment_area_sum_m2": 0.43647330563370634,
        "measured_fragment_count": 1,
        "positive_area_input_overlap": false,
        "touches_blocked_tile": false,
        "touches_domain_boundary": false,
        "touches_reference_shore": false,
        "unmeasured_fragment_ids": [],
        "water_status": "unverified"
      },
      "type": "Feature"
    },
    {
      "geometry": {
        "coordinates": [
          [
            [
              161.06713307364083,
              -8.903487828900177
            ],
            [
              161.0671,
              -8.9035
            ],
            [
              161.06702383842276,
              -8.90342492644528
            ],
            [
              161.06713307364083,
              -8.903487828900177
            ]
          ]
        ],
        "type": "Polygon"
      },
      "id": "physical-component:959db9b804312cdfcb293ce59f411d2cb1a279c8e200934290f3937c540a2c85",
      "properties": {
        "administrative_assignment": null,
        "dateline_connected": false,
        "diagnostic_nearby_locations": [],
        "fragment_bindings": [
          {
            "feature_sha256": "2fd85c4cb103eb40e4e60a4b3f9ffe2d62c46a076e9da40066b734d46f16906a",
            "id": "physical-gap:788:117:2260cfbf627d4de71ebd081f05a640e428abb066204fe3c9f9618893e2b91220"
          }
        ],
        "measured_fragment_area_sum_m2": 20.740286082502372,
        "measured_fragment_count": 1,
        "positive_area_input_overlap": false,
        "touches_blocked_tile": false,
        "touches_domain_boundary": false,
        "touches_reference_shore": false,
        "unmeasured_fragment_ids": [],
        "water_status": "unverified"
      },
      "type": "Feature"
    },
    {
      "geometry": {
        "coordinates": [
          [
            [
              161.24432537410803,
              -9.205418750825542
            ],
            [
              161.2443,
              -9.2053
            ],
            [
              161.24431677274026,
              -9.205294918603322
            ],
            [
              161.24432537410803,
              -9.205418750825542
            ]
          ]
        ],
        "type": "Polygon"
      },
      "id": "physical-component:a4fddec8ce3ce8a75de023b0b23b966be9de4c9d02f68c579a25e60dda89c68f",
      "properties": {
        "administrative_assignment": null,
        "dateline_connected": false,
        "diagnostic_nearby_locations": [],
        "fragment_bindings": [
          {
            "feature_sha256": "2bcc814d7399083143e63bc12c312da298ec79ac96554298a7148a7705c87cf8",
            "id": "physical-gap:788:132:fde62e8db8f111905f0e98da33d208e2e294731f49868ddf8d235f7f33a4031b"
          }
        ],
        "measured_fragment_area_sum_m2": 12.888326185917187,
        "measured_fragment_count": 1,
        "positive_area_input_overlap": false,
        "touches_blocked_tile": false,
        "touches_domain_boundary": false,
        "touches_reference_shore": false,
        "unmeasured_fragment_ids": [],
        "water_status": "unverified"
      },
      "type": "Feature"
    }
  ],
  "type": "FeatureCollection"
}
