{"features":[{"geometry":{"coordinates":[[[[-16.109,11.0664],[-16.1361,11.0485],[-16.1097,11.0451],[-16.1126,11.0325],[-16.1005,11.0233],[-16.0695,11.0292],[-16.0544,11.0439],[-16.0701,11.0575],[-16.103,11.0592],[-16.109,11.0664]]],[[[-16.0119,11.1999],[-16.0255,11.193],[-16.0343,11.1772],[-16.0548,11.1612],[-16.036,11.1372],[-16.0245,11.135],[-16.0157,11.1487],[-16.0155,11.1654],[-16.006,11.1737],[-16.0009,11.1944],[-16.0119,11.1999]]],[[[-16.1166,11.2055],[-16.1069,11.1851],[-16.13,11.1791],[-16.1483,11.1683],[-16.1718,11.1659],[-16.1736,11.1275],[-16.2013,11.1052],[-16.2061,11.0923],[-16.2265,11.0837],[-16.2334,11.1018],[-16.2462,11.0873],[-16.2262,11.0649],[-16.1969,11.0486],[-16.1793,11.0276],[-16.1501,11.0214],[-16.1423,11.0266],[-16.1439,11.0503],[-16.1526,11.0663],[-16.1407,11.0823],[-16.1431,11.1006],[-16.1159,11.0914],[-16.0671,11.0887],[-16.07,11.0983],[-16.088,11.0972],[-16.0938,11.1085],[-16.0837,11.1343],[-16.0733,11.1372],[-16.0718,11.1526],[-16.0893,11.16],[-16.0865,11.1759],[-16.0711,11.1681],[-16.0559,11.1882],[-16.0847,11.2005],[-16.1025,11.1972],[-16.1166,11.2055]]],[[[-16.2253,11.3107],[-16.2373,11.2907],[-16.2604,11.2849],[-16.2642,11.261],[-16.2834,11.2458],[-16.2853,11.2366],[-16.2618,11.2315],[-16.2483,11.2129],[-16.2181,11.2201],[-16.198,11.2164],[-16.184,11.2218],[-16.1717,11.2401],[-16.1543,11.2484],[-16.149,11.2685],[-16.165,11.288],[-16.1805,11.2982],[-16.2025,11.289],[-16.2078,11.3075],[-16.2253,11.3107]]],[[[-16.1219,11.3431],[-16.1128,11.3212],[-16.1288,11.3133],[-16.1077,11.2922],[-16.0763,11.3107],[-16.071,11.3214],[-16.0836,11.3311],[-16.1219,11.3431]]],[[[-16.0323,11.3564],[-16.0361,11.3477],[-16.0562,11.3502],[-16.0628,11.3362],[-16.0344,11.3395],[-16.0323,11.3564]]]],"type":"MultiPolygon"},"id":"gb:GNB:ADM2:13655514B44985576134462","properties":{"id":"gb:GNB:ADM2:13655514B44985576134462","metadata":{"administrative_level":"ADM2","coverage_version":1,"framework_match":{"id":"GNB-770","overlap":0.858499,"source":"Natural Earth"},"framework_reference":"Modern geographic framework; historical attributes require dated evidence","geographic_area_code":"GNB","geographic_match":"largest source overlap","geographic_overlap":0.6972,"geographic_region_code":22,"granularity_version":3,"hierarchy_overlap":0.906804,"hierarchy_source":"gb:GNB:ADM1","hierarchy_version":4,"license":"Open Data Commons Open Database License 1.0","original_id":"13655514B44985576134462","parent_match":"Named source administrative unit grouped within this geographic area","parent_source_level":"ADM1","reference_owner_id":"owner:Q1007","reference_polity":"Guinea-Bissau","reference_polity_evidence":{"classification":"Sovereign country","note":null,"reference_territory":"Guinea-Bissau","source":"Natural Earth pinned administrative and sovereignty reference; dates vary","source_url":"https://github.com/nvkelso/natural-earth-vector/tree/ca96624a56bd078437bca8184e78163e5039ad19","uncertainty":false},"reference_polity_status":"reference","reference_version":3,"reference_year":"2017","regional_match":{"method":"reference-territory-constrained overlap","overlap":0.858499,"reference_iso":"GNB","source_id":"GNB-770"},"remote_version":1,"representative_point":[-16.206796285830265,11.26475],"selection_reason":"Named local administrative territories at the reviewed country-specific district tier; subordinate wards, villages and electoral divisions are not substituted based on area.","semantic_review":{"continent":"Africa","decision_index":88,"evidence_file":"geographic-decisions","status":"open"},"semantic_version":1,"source_id":"gb:GNB:ADM2","source_name":"geoBoundaries gbOpen","source_role":"Sector","source_url":"https://github.com/wmgeolab/geoBoundaries/raw/9469f09/releaseData/gbOpen/GNB/ADM2/geoBoundaries-GNB-ADM2.geojson","topology_version":1},"name":"Setor de Uno","parent_id":"framework:province:bolama:08258e19a5c1","reference_owner":"Guinea-Bissau"},"type":"Feature"},{"geometry":{"coordinates":[[[[-16.4512,11.3153],[-16.475,11.3096],[-16.4764,11.2775],[-16.4454,11.2883],[-16.4174,11.2839],[-16.4175,11.2945],[-16.4347,11.2975],[-16.4512,11.3153]]],[[[-16.0915,11.4226],[-16.108,11.4179],[-16.1223,11.4019],[-16.1098,11.394],[-16.0915,11.4226]]],[[[-15.927,11.5167],[-15.9471,11.5035],[-15.9715,11.517],[-15.9939,11.5042],[-16.0078,11.5099],[-16.028,11.5031],[-16.0465,11.4722],[-16.0785,11.4592],[-16.0781,11.4456],[-16.0286,11.423],[-15.9852,11.4375],[-15.9623,11.4357],[-15.9597,11.4217],[-15.9192,11.4418],[-15.907,11.4599],[-15.9055,11.4848],[-15.9091,11.5117],[-15.927,11.5167]]],[[[-16.1644,11.5294],[-16.1881,11.52],[-16.2163,11.5185],[-16.2356,11.5084],[-16.2596,11.4887],[-16.2611,11.4771],[-16.2508,11.4583],[-16.2328,11.4543],[-16.2207,11.4791],[-16.2012,11.4682],[-16.2037,11.5061],[-16.188,11.4998],[-16.1698,11.5084],[-16.1644,11.5294]]],[[[-15.9829,11.5812],[-16.01,11.5368],[-16.007,11.5166],[-15.9834,11.5176],[-15.983,11.5287],[-15.9627,11.5478],[-15.9829,11.5812]]],[[[-16.2738,11.5935],[-16.2851,11.5924],[-16.3194,11.5529],[-16.3471,11.5423],[-16.3608,11.557],[-16.3864,11.5608],[-16.4015,11.5523],[-16.4165,11.531],[-16.4096,11.5037],[-16.3944,11.491],[-16.3851,11.5018],[-16.3528,11.4965],[-16.3396,11.5047],[-16.3087,11.4837],[-16.2933,11.4958],[-16.2715,11.5005],[-16.245,11.5534],[-16.2461,11.58],[-16.2738,11.5935]]],[[[-15.9484,11.6043],[-15.9595,11.6037],[-15.9761,11.5764],[-15.9614,11.5569],[-15.9421,11.5464],[-15.9461,11.5387],[-15.9312,11.5233],[-15.9078,11.5234],[-15.8953,11.5411],[-15.9059,11.5517],[-15.9056,11.582],[-15.9335,11.5799],[-15.9484,11.6043]]]],"type":"MultiPolygon"},"id":"gb:GNB:ADM2:13655514B59106895169358","properties":{"id":"gb:GNB:ADM2:13655514B59106895169358","metadata":{"administrative_level":"ADM2","coverage_version":1,"framework_match":{"id":"GNB-770","overlap":0.857803,"source":"Natural Earth"},"framework_reference":"Modern geographic framework; historical attributes require dated evidence","geographic_area_code":"GNB","geographic_match":"largest source overlap","geographic_overlap":0.59212,"geographic_region_code":22,"granularity_version":3,"hierarchy_overlap":0.941541,"hierarchy_source":"gb:GNB:ADM1","hierarchy_version":4,"license":"Open Data Commons Open Database License 1.0","original_id":"13655514B59106895169358","parent_match":"Named source administrative unit grouped within this geographic area","parent_source_level":"ADM1","reference_owner_id":"owner:Q1007","reference_polity":"Guinea-Bissau","reference_polity_evidence":{"classification":"Sovereign country","note":null,"reference_territory":"Guinea-Bissau","source":"Natural Earth pinned administrative and sovereignty reference; dates vary","source_url":"https://github.com/nvkelso/natural-earth-vector/tree/ca96624a56bd078437bca8184e78163e5039ad19","uncertainty":false},"reference_polity_status":"reference","reference_version":3,"reference_year":"2017","regional_match":{"method":"reference-territory-constrained overlap","overlap":0.857803,"reference_iso":"GNB","source_id":"GNB-770"},"remote_version":1,"representative_point":[-16.3329559792593,11.53665],"selection_reason":"Named local administrative territories at the reviewed country-specific district tier; subordinate wards, villages and electoral divisions are not substituted based on area.","semantic_review":{"continent":"Africa","decision_index":88,"evidence_file":"geographic-decisions","status":"open"},"semantic_version":1,"source_id":"gb:GNB:ADM2","source_name":"geoBoundaries gbOpen","source_role":"Sector","source_url":"https://github.com/wmgeolab/geoBoundaries/raw/9469f09/releaseData/gbOpen/GNB/ADM2/geoBoundaries-GNB-ADM2.geojson","topology_version":1},"name":"Setor de Caravela","parent_id":"framework:province:bolama:08258e19a5c1","reference_owner":"Guinea-Bissau"},"type":"Feature"},{"geometry":{"coordinates":[[[[-15.661,11.5025],[-15.6894,11.4907],[-15.6894,11.4757],[-15.7004,11.465],[-15.717,11.4686],[-15.7333,11.4529],[-15.7148,11.4343],[-15.6684,11.4439],[-15.6464,11.4592],[-15.6675,11.4839],[-15.661,11.5025]]],[[[-15.4694,11.638],[-15.484,11.6213],[-15.5088,11.6129],[-15.5218,11.6137],[-15.5501,11.5752],[-15.5712,11.5761],[-15.5899,11.5695],[-15.6073,11.5382],[-15.6276,11.5364],[-15.633,11.5268],[-15.602,11.5203],[-15.5742,11.5023],[-15.5463,11.502],[-15.5416,11.5153],[-15.5479,11.5417],[-15.5118,11.5508],[-15.5068,11.5661],[-15.4899,11.556],[-15.4699,11.555],[-15.4809,11.5924],[-15.4685,11.6094],[-15.4596,11.6333],[-15.4694,11.638]]],[[[-15.311,11.607],[-15.3164,11.6229],[-15.3191,11.6688],[-15.3326,11.6901],[-15.3493,11.6967],[-15.3828,11.6952],[-15.4106,11.6854],[-15.4239,11.6761],[-15.4514,11.6395],[-15.4469,11.6358],[-15.4569,11.6071],[-15.4571,11.5895],[-15.4362,11.55],[-15.4208,11.5301],[-15.3525,11.565],[-15.311,11.607]]]],"type":"MultiPolygon"},"id":"gb:GNB:ADM2:13655514B77006902429960","properties":{"id":"gb:GNB:ADM2:13655514B77006902429960","metadata":{"administrative_level":"ADM2","coverage_version":1,"framework_match":{"id":"GNB-770","overlap":0.586791,"source":"Natural Earth"},"framework_reference":"Modern geographic framework; historical attributes require dated evidence","geographic_area_code":"GNB","geographic_match":"largest source overlap","geographic_overlap":0.49713,"geographic_region_code":22,"granularity_version":3,"hierarchy_overlap":0.964073,"hierarchy_source":"gb:GNB:ADM1","hierarchy_version":4,"license":"Open Data Commons Open Database License 1.0","original_id":"13655514B77006902429960","parent_match":"Named source administrative unit grouped within this geographic area","parent_source_level":"ADM1","reference_owner_id":"owner:Q1007","reference_polity":"Guinea-Bissau","reference_polity_evidence":{"classification":"Sovereign country","note":null,"reference_territory":"Guinea-Bissau","source":"Natural Earth pinned administrative and sovereignty reference; dates vary","source_url":"https://github.com/nvkelso/natural-earth-vector/tree/ca96624a56bd078437bca8184e78163e5039ad19","uncertainty":false},"reference_polity_status":"reference","reference_version":3,"reference_year":"2017","regional_match":{"method":"reference-territory-constrained overlap","overlap":0.586791,"reference_iso":"GNB","source_id":"GNB-770"},"remote_version":1,"representative_point":[-15.383932183945829,11.615],"search_aliases":["Bolama"],"selection_reason":"Named local administrative territories at the reviewed country-specific district tier; subordinate wards, villages and electoral divisions are not substituted based on area.","semantic_review":{"continent":"Africa","decision_index":88,"evidence_file":"geographic-decisions","status":"open"},"semantic_version":1,"source_id":"gb:GNB:ADM2","source_name":"geoBoundaries gbOpen","source_role":"Sector","source_url":"https://github.com/wmgeolab/geoBoundaries/raw/9469f09/releaseData/gbOpen/GNB/ADM2/geoBoundaries-GNB-ADM2.geojson","topology_version":1},"name":"Setor de Bolama","parent_id":"framework:province:bolama:08258e19a5c1","reference_owner":"Guinea-Bissau"},"type":"Feature"},{"geometry":{"coordinates":[[[[-15.6321,11.057],[-15.6439,11.0524],[-15.6387,11.0272],[-15.6167,11.0382],[-15.609,11.0518],[-15.6321,11.057]]],[[[-15.9261,11.1297],[-15.9115,11.1068],[-15.9254,11.0864],[-15.9249,11.0724],[-15.9492,11.0671],[-15.9538,11.0514],[-15.9428,11.0458],[-15.9124,11.057],[-15.9069,11.0802],[-15.8979,11.0937],[-15.9162,11.1279],[-15.9261,11.1297]]],[[[-15.9976,11.1488],[-16.0291,11.1118],[-16.0241,11.1031],[-16.0252,11.0773],[-16.0112,11.0755],[-15.995,11.0846],[-16.0123,11.0954],[-15.9988,11.1163],[-15.9821,11.1181],[-15.9791,11.1357],[-15.9976,11.1488]]],[[[-15.9408,11.1917],[-15.9377,11.1794],[-15.9776,11.1661],[-15.9517,11.153],[-15.9123,11.167],[-15.9408,11.1917]]],[[[-15.6579,11.3047],[-15.6846,11.3045],[-15.7062,11.2931],[-15.7317,11.2673],[-15.7566,11.2701],[-15.7546,11.2562],[-15.7794,11.2254],[-15.7609,11.2208],[-15.7837,11.2025],[-15.7698,11.1837],[-15.7503,11.1724],[-15.7224,11.1702],[-15.7254,11.1841],[-15.7143,11.2284],[-15.6944,11.2228],[-15.6823,11.236],[-15.6837,11.255],[-15.6675,11.2628],[-15.6545,11.2894],[-15.6579,11.3047]]],[[[-15.8333,11.3029],[-15.8574,11.2988],[-15.8715,11.2829],[-15.8886,11.2537],[-15.8904,11.2295],[-15.9061,11.222],[-15.8749,11.1922],[-15.8631,11.2023],[-15.8627,11.2206],[-15.8713,11.2257],[-15.8521,11.2513],[-15.8508,11.268],[-15.8315,11.2676],[-15.8208,11.2885],[-15.8333,11.3029]]],[[[-15.7763,11.3736],[-15.8072,11.3667],[-15.8176,11.3555],[-15.8313,11.3072],[-15.8013,11.3129],[-15.8021,11.3237],[-15.8186,11.3341],[-15.7925,11.3469],[-15.7763,11.3736]]],[[[-15.8446,11.3807],[-15.8832,11.3525],[-15.8941,11.3254],[-15.8729,11.3352],[-15.8473,11.3572],[-15.8446,11.3807]]]],"type":"MultiPolygon"},"id":"gb:GNB:ADM2:13655514B98496568253651","properties":{"id":"gb:GNB:ADM2:13655514B98496568253651","metadata":{"administrative_level":"ADM2","coverage_version":1,"framework_match":{"id":"GNB-770","overlap":0.768464,"source":"Natural Earth"},"framework_reference":"Modern geographic framework; historical attributes require dated evidence","geographic_area_code":"GNB","geographic_match":"largest source overlap","geographic_overlap":0.61346,"geographic_region_code":22,"granularity_version":3,"hierarchy_overlap":0.831644,"hierarchy_source":"gb:GNB:ADM1","hierarchy_version":4,"license":"Open Data Commons Open Database License 1.0","original_id":"13655514B98496568253651","parent_match":"Named source administrative unit grouped within this geographic area","parent_source_level":"ADM1","reference_owner_id":"owner:Q1007","reference_polity":"Guinea-Bissau","reference_polity_evidence":{"classification":"Sovereign country","note":null,"reference_territory":"Guinea-Bissau","source":"Natural Earth pinned administrative and sovereignty reference; dates vary","source_url":"https://github.com/nvkelso/natural-earth-vector/tree/ca96624a56bd078437bca8184e78163e5039ad19","uncertainty":false},"reference_polity_status":"reference","reference_version":3,"reference_year":"2017","regional_match":{"method":"reference-territory-constrained overlap","overlap":0.768464,"reference_iso":"GNB","source_id":"GNB-770"},"remote_version":1,"representative_point":[-15.723107792207792,11.2455],"selection_reason":"Named local administrative territories at the reviewed country-specific district tier; subordinate wards, villages and electoral divisions are not substituted based on area.","semantic_review":{"continent":"Africa","decision_index":88,"evidence_file":"geographic-decisions","status":"open"},"semantic_version":1,"source_id":"gb:GNB:ADM2","source_name":"geoBoundaries gbOpen","source_role":"Sector","source_url":"https://github.com/wmgeolab/geoBoundaries/raw/9469f09/releaseData/gbOpen/GNB/ADM2/geoBoundaries-GNB-ADM2.geojson","topology_version":1},"name":"Setor de Bubaque","parent_id":"framework:province:bolama:08258e19a5c1","reference_owner":"Guinea-Bissau"},"type":"Feature"}],"type":"FeatureCollection"}
