{"features":[{"geometry":{"coordinates":[[[13.378917,-8.347101],[13.377918387515429,-8.344625863132919],[13.38,-8.3472],[13.378971284325857,-8.347354307351122],[13.378917,-8.347101]]],"type":"Polygon"},"id":"physical-component:088a5f9f663e1b2fb8e4f4539ed8a95dd287b0df4303fae24b383b28b70e46da","properties":{"administrative_assignment":null,"dateline_connected":false,"diagnostic_nearby_locations":[],"fragment_bindings":[{"feature_sha256":"071839450bdde5ed98bb5cac97bc8f9128c5d6a40199829a5b4db6928caa18de","id":"physical-gap:758:14:10b3ec995471da776beb59c6ccb0dfd70b20cfb8dfb0a9352dd640f9e19a4625"}],"measured_fragment_area_sum_m2":17363.617206969946,"measured_fragment_count":1,"positive_area_input_overlap":false,"touches_blocked_tile":false,"touches_domain_boundary":false,"touches_reference_shore":true,"unmeasured_fragment_ids":[],"water_status":"unverified"},"type":"Feature"},{"geometry":{"coordinates":[[[15.2094,-8.5514],[15.2079,-8.5485],[15.205,-8.5395],[15.2085,-8.5494],[15.2094,-8.5514]]],"type":"Polygon"},"id":"physical-component:21b8e9978be1f5b0ab479e6930d67a6d7662f0b8994434f773ad3479802fb809","properties":{"administrative_assignment":null,"dateline_connected":false,"diagnostic_nearby_locations":[],"fragment_bindings":[{"feature_sha256":"21b4ab8a260f1f6ec4b18f4d565df38f640315b55d6e0f612d1366a380e3340c","id":"physical-gap:759:17:adb6973d3bb71dded24d47b7c61448852bfd37857a1adca98963ddd247bb9908"}],"measured_fragment_area_sum_m2":19359.83003936203,"measured_fragment_count":1,"positive_area_input_overlap":false,"touches_blocked_tile":false,"touches_domain_boundary":false,"touches_reference_shore":false,"unmeasured_fragment_ids":[],"water_status":"unverified"},"type":"Feature"},{"geometry":{"coordinates":[[[14.8594,-13.5665],[14.858,-13.569],[14.8509,-13.5759],[14.8594,-13.5665]]],"type":"Polygon"},"id":"physical-component:21c1388e5d321eb74f7aa286b8443ee9bead27f51f4639e03208773d9f84b7bd","properties":{"administrative_assignment":null,"dateline_connected":false,"diagnostic_nearby_locations":[],"fragment_bindings":[{"feature_sha256":"4e8a076759e37653f4e1b82e3857d2425fa8b064992dca627b5735ac3a41dde8","id":"physical-gap:686:34:16f15a73cae79462d47641964782544ce3265730716876c5f0c20b59f4e57e09"}],"measured_fragment_area_sum_m2":48435.85492863082,"measured_fragment_count":1,"positive_area_input_overlap":false,"touches_blocked_tile":false,"touches_domain_boundary":false,"touches_reference_shore":false,"unmeasured_fragment_ids":[],"water_status":"unverified"},"type":"Feature"},{"geometry":{"coordinates":[[[14.0341,-8.9419],[14.0296,-8.9439],[14.0222,-8.9462],[14.0341,-8.9419]]],"type":"Polygon"},"id":"physical-component:283ebb44273537c2f2cf97dd490f0a779424c26520501385840ae0a93ec950fb","properties":{"administrative_assignment":null,"dateline_connected":false,"diagnostic_nearby_locations":[],"fragment_bindings":[{"feature_sha256":"c9c69b62e5a42ad482c59630033b854e7442af0929b32f5759edd412cd6d9c62","id":"physical-gap:758:34:acef99b4bdc9b4875945ce414c49c0f94e974c091f50108a111bb4c8b8498d39"}],"measured_fragment_area_sum_m2":27063.429496039764,"measured_fragment_count":1,"positive_area_input_overlap":false,"touches_blocked_tile":false,"touches_domain_boundary":false,"touches_reference_shore":false,"unmeasured_fragment_ids":[],"water_status":"unverified"},"type":"Feature"},{"geometry":{"coordinates":[[[16.41408974097699,-5.89200802135768],[16.414099077521648,-5.8920115341170565],[16.409,-5.9049],[16.41408974097699,-5.89200802135768]]],"type":"Polygon"},"id":"physical-component:7709c1b402d72450f93e9d1bb4c40a8f171da04a930fc0e8fa5d6e0c22e3f2e8","properties":{"administrative_assignment":null,"dateline_connected":false,"diagnostic_nearby_locations":[],"fragment_bindings":[{"feature_sha256":"4ba889169f0f6135454c4c24ed03781b517721f70e3fab9ca222f0172b42502a","id":"physical-gap:759:3:4e9b2df224512831373953faa636528491c24015693e8c10929cf8550b46ec0d"}],"measured_fragment_area_sum_m2":846.4555292828941,"measured_fragment_count":1,"positive_area_input_overlap":false,"touches_blocked_tile":false,"touches_domain_boundary":false,"touches_reference_shore":false,"unmeasured_fragment_ids":[],"water_status":"unverified"},"type":"Feature"},{"geometry":{"coordinates":[[[13.470904072754955,-17.020748688543904],[13.471520777988616,-17.022064326375713],[13.460976983797254,-17.013164977149977],[13.461363570750509,-17.013443578920757],[13.4706,-17.0201],[13.470904072754955,-17.020748688543904]]],"type":"Polygon"},"id":"physical-component:80bae5df8acecba76dfe59a18c1aaa0614a6ce32a538846c51c9400605221971","properties":{"administrative_assignment":null,"dateline_connected":false,"diagnostic_nearby_locations":[],"fragment_bindings":[{"feature_sha256":"b82172b1b99410618c7f5b26fe5190c8ec20d50402fb0dc699a0b1f286a71ec2","id":"physical-gap:614:35:615b482cf93cfce062b2c5486725bbfa7d399f46940e58ee529047c9befc4b38"}],"measured_fragment_area_sum_m2":73748.26424229737,"measured_fragment_count":1,"positive_area_input_overlap":false,"touches_blocked_tile":false,"touches_domain_boundary":false,"touches_reference_shore":false,"unmeasured_fragment_ids":[],"water_status":"unverified"},"type":"Feature"},{"geometry":{"coordinates":[[[13.4764,-16.2543],[13.48,-16.253],[13.485,-16.2502],[13.4778,-16.2543],[13.4764,-16.2543]]],"type":"Polygon"},"id":"physical-component:cdd621d5a3799921b0ac62e7ead65865fe07f44bd0685945b96dd6942e97e287","properties":{"administrative_assignment":null,"dateline_connected":false,"diagnostic_nearby_locations":[],"fragment_bindings":[{"feature_sha256":"f1ec1b888431a263b9e12a1d9b30b70b58d1a3e944897fe1cb5cde5b4833e5be","id":"physical-gap:614:47:d672287b275fb0ea4edf98ee109704178273b906db965fbd1f104dcf9b338978"}],"measured_fragment_area_sum_m2":12775.868107053953,"measured_fragment_count":1,"positive_area_input_overlap":false,"touches_blocked_tile":false,"touches_domain_boundary":false,"touches_reference_shore":false,"unmeasured_fragment_ids":[],"water_status":"unverified"},"type":"Feature"},{"geometry":{"coordinates":[[[15.0305,-9.0638],[15.0334,-9.0658],[15.032,-9.0653],[15.0274,-9.0612],[15.0305,-9.0638]]],"type":"Polygon"},"id":"physical-component:db2654ca9c0ce5407b79a6d96ecf33e92d2e98d6c4f71e4886d152d837edecb7","properties":{"administrative_assignment":null,"dateline_connected":false,"diagnostic_nearby_locations":[],"fragment_bindings":[{"feature_sha256":"f4b9293477b618050cec596c569d9ca0935514bba30d604279185b5f55816f97","id":"physical-gap:759:16:eb7456b462f3347b50cf8bb6b4e2a05fef58fe7b2746a9b634ec80c84aac89c0"}],"measured_fragment_area_sum_m2":12767.364472449952,"measured_fragment_count":1,"positive_area_input_overlap":false,"touches_blocked_tile":false,"touches_domain_boundary":false,"touches_reference_shore":false,"unmeasured_fragment_ids":[],"water_status":"unverified"},"type":"Feature"},{"geometry":{"coordinates":[[[18.3844,-12.4885],[18.3828,-12.4877],[18.386,-12.4885],[18.3844,-12.4885]]],"type":"Polygon"},"id":"physical-component:de109590de58e9c2ce5edf08e0b07dfc62641da0b53b97ca211643b91847f964","properties":{"administrative_assignment":null,"dateline_connected":false,"diagnostic_nearby_locations":[],"fragment_bindings":[{"feature_sha256":"8ccc4a6a05c41804d9d38f22e0da0c04f123e9616263893e5ebe0282b9f2a3f2","id":"physical-gap:687:0:00a8461d1e11c41cc97012b3279beb7b1ba0d43d6c893f2784e722e207da6279"}],"measured_fragment_area_sum_m2":7696.2381470553955,"measured_fragment_count":1,"positive_area_input_overlap":false,"touches_blocked_tile":false,"touches_domain_boundary":false,"touches_reference_shore":false,"unmeasured_fragment_ids":[],"water_status":"unverified"},"type":"Feature"},{"geometry":{"coordinates":[[[21.845081874716914,-17.946951015573287],[21.798810266485674,-17.955806465671216],[21.7985,-17.9541],[21.845081874716914,-17.946951015573287]]],"type":"Polygon"},"id":"physical-component:e0f3b70f90ae520239de9dd81175cef9427fc37989bd6e3cd68ceb7ee362e143","properties":{"administrative_assignment":null,"dateline_connected":false,"diagnostic_nearby_locations":[],"fragment_bindings":[{"feature_sha256":"606737350b84143a6d9c57da5e4a8e172a99add1ef2fb83b3a31e80173660877","id":"physical-gap:616:77:fa9c01241dcb686129df03f03090351892b2230b7062c024fc9fd35aa93cadb5"}],"measured_fragment_area_sum_m2":479003.40638165124,"measured_fragment_count":1,"positive_area_input_overlap":false,"touches_blocked_tile":false,"touches_domain_boundary":false,"touches_reference_shore":false,"unmeasured_fragment_ids":[],"water_status":"unverified"},"type":"Feature"}],"type":"FeatureCollection"}
