{"type":"FeatureCollection","features":[{"type":"Feature","geometry":{"type":"Polygon","coordinates":[[[-25.4894,37.7725],[-25.6078,37.7872],[-25.6379,37.7835],[-25.631,37.7377],[-25.5727,37.7346],[-25.5451,37.7138],[-25.4941,37.7248],[-25.4894,37.7725]]]},"properties":{"id":"gb:PRT:ADM2:2272694B11703437565908","name":"Lagoa","parent_id":"framework:province:regiao-auta3noma-dos-aaores:5bda02b962fe","reference_owner":"Portugal","metadata":{"source_id":"gb:PRT:ADM2","source_name":"geoBoundaries gbOpen","source_url":"https://github.com/wmgeolab/geoBoundaries/raw/90a1d52/releaseData/gbOpen/PRT/ADM2/geoBoundaries-PRT-ADM2.geojson","license":"CC0 1.0 Universal (CC0 1.0) Public Domain Dedication","reference_year":"2020","administrative_level":"ADM2","parent_source_level":"ADM1","granularity_version":3,"source_role":"Municipality","selection_reason":"Named gbOpen territories at the reviewed country-specific district tier; subordinate wards, villages and electoral divisions are not substituted based on area.","parent_match":"Named source administrative unit grouped within this geographic area","original_id":"2272694B11703437565908","representative_point":[-25.56236793139436,37.7551],"hierarchy_version":4,"hierarchy_source":"gb:PRT:ADM1","hierarchy_overlap":0.869637,"topology_version":1,"reference_version":3,"geographic_area_code":"AZO","geographic_region_code":21,"geographic_match":"largest source overlap","geographic_overlap":0.99161,"coverage_version":1,"semantic_version":1,"remote_version":1,"framework_reference":"Modern geographic framework; historical attributes require dated evidence","framework_match":{"source":"Natural Earth","id":"PRT-735","overlap":0.955652},"regional_match":{"reference_iso":"PRT","source_id":"PRT-735","overlap":0.955652,"method":"reference-territory-constrained overlap"},"reference_owner_id":"owner:Q45","reference_polity":"Portugal","reference_polity_status":"reference","reference_polity_evidence":{"source":"Natural Earth pinned administrative and sovereignty reference; dates vary","source_url":"https://github.com/nvkelso/natural-earth-vector/tree/ca96624a56bd078437bca8184e78163e5039ad19","reference_territory":"Portugal","classification":"Sovereign country","note":null,"uncertainty":false},"semantic_review":{"status":"open","continent":"Africa","decision_index":154,"evidence_file":"geographic-decisions"}}},"id":"gb:PRT:ADM2:2272694B11703437565908"},{"type":"Feature","geometry":{"type":"Polygon","coordinates":[[[-31.2735,39.4336],[-31.272,39.3969],[-31.2646,39.3809],[-31.2631,39.3556],[-31.2452,39.359],[-31.1992,39.3889],[-31.174,39.3992],[-31.1561,39.4141],[-31.1502,39.4348],[-31.2735,39.4336]]]},"properties":{"id":"gb:PRT:ADM2:2272694B14195441772590","name":"Lajes das Flores","parent_id":"framework:province:regiao-auta3noma-dos-aaores:5bda02b962fe","reference_owner":"Portugal","metadata":{"source_id":"gb:PRT:ADM2","source_name":"geoBoundaries gbOpen","source_url":"https://github.com/wmgeolab/geoBoundaries/raw/90a1d52/releaseData/gbOpen/PRT/ADM2/geoBoundaries-PRT-ADM2.geojson","license":"CC0 1.0 Universal (CC0 1.0) Public Domain Dedication","reference_year":"2020","administrative_level":"ADM2","parent_source_level":"ADM1","granularity_version":3,"source_role":"Municipality","selection_reason":"Named gbOpen territories at the reviewed country-specific district tier; subordinate wards, villages and electoral divisions are not substituted based on area.","parent_match":"Named source administrative unit grouped within this geographic area","original_id":"2272694B14195441772590","representative_point":[-31.229781796116505,39.3929],"hierarchy_version":4,"hierarchy_source":"gb:PRT:ADM1","hierarchy_overlap":0.796167,"topology_version":1,"reference_version":3,"geographic_area_code":"AZO","geographic_region_code":21,"geographic_match":"largest source overlap","geographic_overlap":0.88762,"coverage_version":1,"semantic_version":1,"remote_version":1,"framework_reference":"Modern geographic framework; historical attributes require dated evidence","framework_match":{"source":"Natural Earth","id":"PRT-735","overlap":0.994634},"regional_match":{"reference_iso":"PRT","source_id":"PRT-735","overlap":0.994634,"method":"reference-territory-constrained overlap"},"reference_owner_id":"owner:Q45","reference_polity":"Portugal","reference_polity_status":"reference","reference_polity_evidence":{"source":"Natural Earth pinned administrative and sovereignty reference; dates vary","source_url":"https://github.com/nvkelso/natural-earth-vector/tree/ca96624a56bd078437bca8184e78163e5039ad19","reference_territory":"Portugal","classification":"Sovereign country","note":null,"uncertainty":false},"semantic_review":{"status":"open","continent":"Africa","decision_index":154,"evidence_file":"geographic-decisions"}}},"id":"gb:PRT:ADM2:2272694B14195441772590"},{"type":"Feature","geometry":{"type":"Polygon","coordinates":[[[-25.3595,37.7762],[-25.3943,37.7964],[-25.4307,37.7742],[-25.4894,37.7725],[-25.4941,37.7248],[-25.4105,37.7175],[-25.3711,37.7175],[-25.3409,37.7211],[-25.3399,37.7556],[-25.3595,37.7762]]]},"properties":{"id":"gb:PRT:ADM2:2272694B14276851137333","name":"Vila Franca do Campo","parent_id":"framework:province:regiao-auta3noma-dos-aaores:5bda02b962fe","reference_owner":"Portugal","metadata":{"source_id":"gb:PRT:ADM2","source_name":"geoBoundaries gbOpen","source_url":"https://github.com/wmgeolab/geoBoundaries/raw/90a1d52/releaseData/gbOpen/PRT/ADM2/geoBoundaries-PRT-ADM2.geojson","license":"CC0 1.0 Universal (CC0 1.0) Public Domain Dedication","reference_year":"2020","administrative_level":"ADM2","parent_source_level":"ADM1","granularity_version":3,"source_role":"Municipality","selection_reason":"Named gbOpen territories at the reviewed country-specific district tier; subordinate wards, villages and electoral divisions are not substituted based on area.","parent_match":"Named source administrative unit grouped within this geographic area","original_id":"2272694B14276851137333","representative_point":[-25.419086202702978,37.76405],"hierarchy_version":4,"hierarchy_source":"gb:PRT:ADM1","hierarchy_overlap":0.991166,"topology_version":1,"reference_version":3,"geographic_area_code":"AZO","geographic_region_code":21,"geographic_match":"largest source overlap","geographic_overlap":0.82743,"coverage_version":1,"semantic_version":1,"remote_version":1,"framework_reference":"Modern geographic framework; historical attributes require dated evidence","framework_match":{"source":"Natural Earth","id":"PRT-735","overlap":0.994094},"regional_match":{"reference_iso":"PRT","source_id":"PRT-735","overlap":0.994094,"method":"reference-territory-constrained overlap"},"reference_owner_id":"owner:Q45","reference_polity":"Portugal","reference_polity_status":"reference","reference_polity_evidence":{"source":"Natural Earth pinned administrative and sovereignty reference; dates vary","source_url":"https://github.com/nvkelso/natural-earth-vector/tree/ca96624a56bd078437bca8184e78163e5039ad19","reference_territory":"Portugal","classification":"Sovereign country","note":null,"uncertainty":false},"semantic_review":{"status":"open","continent":"Africa","decision_index":153,"evidence_file":"geographic-decisions"}}},"id":"gb:PRT:ADM2:2272694B14276851137333"},{"type":"Feature","geometry":{"type":"Polygon","coordinates":[[[-28.1699,38.4553],[-28.2695,38.5353],[-28.3228,38.5343],[-28.3809,38.5643],[-28.4273,38.5589],[-28.4111,38.5335],[-28.4018,38.4971],[-28.3716,38.4735],[-28.1699,38.4553]]]},"properties":{"id":"gb:PRT:ADM2:2272694B19826937126659","name":"Sao Roque do Pico","parent_id":"framework:province:regiao-auta3noma-dos-aaores:5bda02b962fe","reference_owner":"Portugal","metadata":{"source_id":"gb:PRT:ADM2","source_name":"geoBoundaries gbOpen","source_url":"https://github.com/wmgeolab/geoBoundaries/raw/90a1d52/releaseData/gbOpen/PRT/ADM2/geoBoundaries-PRT-ADM2.geojson","license":"CC0 1.0 Universal (CC0 1.0) Public Domain Dedication","reference_year":"2020","administrative_level":"ADM2","parent_source_level":"ADM1","granularity_version":3,"source_role":"Municipality","selection_reason":"Named gbOpen territories at the reviewed country-specific district tier; subordinate wards, villages and electoral divisions are not substituted based on area.","parent_match":"Named source administrative unit grouped within this geographic area","original_id":"2272694B19826937126659","representative_point":[-28.325525,38.515299999999996],"hierarchy_version":4,"hierarchy_source":"gb:PRT:ADM1","hierarchy_overlap":0.782577,"topology_version":1,"reference_version":3,"geographic_area_code":"AZO","geographic_region_code":21,"geographic_match":"largest source overlap","geographic_overlap":0.09258,"coverage_version":1,"semantic_version":1,"remote_version":1,"framework_reference":"Modern geographic framework; historical attributes require dated evidence","framework_match":{"source":"Natural Earth","id":"PRT-735","overlap":0.73538},"regional_match":{"reference_iso":"PRT","source_id":"PRT-735","overlap":0.73538,"method":"reference-territory-constrained overlap"},"reference_owner_id":"owner:Q45","reference_polity":"Portugal","reference_polity_status":"reference","reference_polity_evidence":{"source":"Natural Earth pinned administrative and sovereignty reference; dates vary","source_url":"https://github.com/nvkelso/natural-earth-vector/tree/ca96624a56bd078437bca8184e78163e5039ad19","reference_territory":"Portugal","classification":"Sovereign country","note":null,"uncertainty":false},"semantic_review":{"status":"open","continent":"Africa","decision_index":154,"evidence_file":"geographic-decisions"}}},"id":"gb:PRT:ADM2:2272694B19826937126659"},{"type":"Feature","geometry":{"type":"Polygon","coordinates":[[[-28.3623,38.4117],[-28.3229,38.4117],[-28.244,38.3917],[-28.1952,38.3972],[-28.0467,38.4008],[-28.0189,38.4136],[-28.0166,38.4354],[-28.0351,38.4554],[-28.0908,38.4481],[-28.1699,38.4553],[-28.3716,38.4735],[-28.3716,38.4317],[-28.3623,38.4117]]]},"properties":{"id":"gb:PRT:ADM2:2272694B2981277827282","name":"Lajes do Pico","parent_id":"framework:province:regiao-auta3noma-dos-aaores:5bda02b962fe","reference_owner":"Portugal","metadata":{"source_id":"gb:PRT:ADM2","source_name":"geoBoundaries gbOpen","source_url":"https://github.com/wmgeolab/geoBoundaries/raw/90a1d52/releaseData/gbOpen/PRT/ADM2/geoBoundaries-PRT-ADM2.geojson","license":"CC0 1.0 Universal (CC0 1.0) Public Domain Dedication","reference_year":"2020","administrative_level":"ADM2","parent_source_level":"ADM1","granularity_version":3,"source_role":"Municipality","selection_reason":"Named gbOpen territories at the reviewed country-specific district tier; subordinate wards, villages and electoral divisions are not substituted based on area.","parent_match":"Named source administrative unit grouped within this geographic area","original_id":"2272694B2981277827282","representative_point":[-28.19419759174312,38.43355],"hierarchy_version":4,"hierarchy_source":"gb:PRT:ADM1","hierarchy_overlap":0.862012,"topology_version":1,"reference_version":3,"geographic_area_code":"AZO","geographic_region_code":21,"geographic_match":"largest source overlap","geographic_overlap":0.7871,"coverage_version":1,"semantic_version":1,"remote_version":1,"framework_reference":"Modern geographic framework; historical attributes require dated evidence","framework_match":{"source":"Natural Earth","id":"PRT-735","overlap":0.873273},"regional_match":{"reference_iso":"PRT","source_id":"PRT-735","overlap":0.873273,"method":"reference-territory-constrained overlap"},"reference_owner_id":"owner:Q45","reference_polity":"Portugal","reference_polity_status":"reference","reference_polity_evidence":{"source":"Natural Earth pinned administrative and sovereignty reference; dates vary","source_url":"https://github.com/nvkelso/natural-earth-vector/tree/ca96624a56bd078437bca8184e78163e5039ad19","reference_territory":"Portugal","classification":"Sovereign country","note":null,"uncertainty":false},"semantic_review":{"status":"open","continent":"Africa","decision_index":154,"evidence_file":"geographic-decisions"}}},"id":"gb:PRT:ADM2:2272694B2981277827282"},{"type":"Feature","geometry":{"type":"Polygon","coordinates":[[[-27.9933,38.6731],[-28.0258,38.6224],[-27.9744,38.6099],[-27.9678,38.5879],[-27.9237,38.5716],[-27.8489,38.5673],[-27.8077,38.5371],[-27.759,38.5371],[-27.7381,38.5734],[-27.7984,38.6024],[-27.8727,38.6205],[-27.94,38.6622],[-27.9933,38.6731]]]},"properties":{"id":"gb:PRT:ADM2:2272694B33325499022339","name":"Calheta","parent_id":"framework:province:regiao-auta3noma-dos-aaores:5bda02b962fe","reference_owner":"Portugal","metadata":{"source_id":"gb:PRT:ADM2","source_name":"geoBoundaries gbOpen","source_url":"https://github.com/wmgeolab/geoBoundaries/raw/90a1d52/releaseData/gbOpen/PRT/ADM2/geoBoundaries-PRT-ADM2.geojson","license":"CC0 1.0 Universal (CC0 1.0) Public Domain Dedication","reference_year":"2020","administrative_level":"ADM2","parent_source_level":"ADM1","granularity_version":3,"source_role":"Municipality","selection_reason":"Named gbOpen territories at the reviewed country-specific district tier; subordinate wards, villages and electoral divisions are not substituted based on area.","parent_match":"Named source administrative unit grouped within this geographic area","original_id":"2272694B33325499022339","representative_point":[-27.893534323204413,38.60615],"hierarchy_version":4,"hierarchy_source":"gb:PRT:ADM1","hierarchy_overlap":0.568473,"topology_version":1,"reference_version":3,"geographic_area_code":"AZO","geographic_region_code":21,"geographic_match":"nearest source coastline (source coverage gap)","geographic_overlap":0,"coverage_version":1,"semantic_version":1,"remote_version":1,"framework_reference":"Modern geographic framework; historical attributes require dated evidence","framework_match":{"source":"Natural Earth","id":"PRT-735","overlap":0.540062},"regional_match":{"reference_iso":"PRT","source_id":"PRT-735","overlap":0.540062,"method":"reference-territory-constrained overlap"},"reference_owner_id":"owner:Q45","reference_polity":"Portugal","reference_polity_status":"reference","reference_polity_evidence":{"source":"Natural Earth pinned administrative and sovereignty reference; dates vary","source_url":"https://github.com/nvkelso/natural-earth-vector/tree/ca96624a56bd078437bca8184e78163e5039ad19","reference_territory":"Portugal","classification":"Sovereign country","note":null,"uncertainty":false},"semantic_review":{"status":"open","continent":"Africa","decision_index":154,"evidence_file":"geographic-decisions"}}},"id":"gb:PRT:ADM2:2272694B33325499022339"},{"type":"Feature","geometry":{"type":"Polygon","coordinates":[[[-31.1502,39.4348],[-31.1443,39.4612],[-31.1725,39.5185],[-31.22,39.5288],[-31.2339,39.5041],[-31.2601,39.4956],[-31.2735,39.4336],[-31.1502,39.4348]]]},"properties":{"id":"gb:PRT:ADM2:2272694B34401883056370","name":"Santa Cruz das Flores","parent_id":"framework:province:regiao-auta3noma-dos-aaores:5bda02b962fe","reference_owner":"Portugal","metadata":{"source_id":"gb:PRT:ADM2","source_name":"geoBoundaries gbOpen","source_url":"https://github.com/wmgeolab/geoBoundaries/raw/90a1d52/releaseData/gbOpen/PRT/ADM2/geoBoundaries-PRT-ADM2.geojson","license":"CC0 1.0 Universal (CC0 1.0) Public Domain Dedication","reference_year":"2020","administrative_level":"ADM2","parent_source_level":"ADM1","granularity_version":3,"source_role":"Municipality","selection_reason":"Named gbOpen territories at the reviewed country-specific district tier; subordinate wards, villages and electoral divisions are not substituted based on area.","parent_match":"Named source administrative unit grouped within this geographic area","original_id":"2272694B34401883056370","representative_point":[-31.208291170410405,39.4784],"hierarchy_version":4,"hierarchy_source":"gb:PRT:ADM1","hierarchy_overlap":0.858812,"topology_version":1,"reference_version":3,"geographic_area_code":"AZO","geographic_region_code":21,"geographic_match":"largest source overlap","geographic_overlap":0.75128,"coverage_version":1,"semantic_version":1,"remote_version":1,"framework_reference":"Modern geographic framework; historical attributes require dated evidence","framework_match":{"source":"Natural Earth","id":"PRT-735","overlap":0.896265},"regional_match":{"reference_iso":"PRT","source_id":"PRT-735","overlap":0.896265,"method":"reference-territory-constrained overlap"},"reference_owner_id":"owner:Q45","reference_polity":"Portugal","reference_polity_status":"reference","reference_polity_evidence":{"source":"Natural Earth pinned administrative and sovereignty reference; dates vary","source_url":"https://github.com/nvkelso/natural-earth-vector/tree/ca96624a56bd078437bca8184e78163e5039ad19","reference_territory":"Portugal","classification":"Sovereign country","note":null,"uncertainty":false},"semantic_review":{"status":"open","continent":"Africa","decision_index":154,"evidence_file":"geographic-decisions"}}},"id":"gb:PRT:ADM2:2272694B34401883056370"},{"type":"Feature","geometry":{"type":"Polygon","coordinates":[[[-25.32,37.8642],[-25.2991,37.7945],[-25.2574,37.7964],[-25.2165,37.8218],[-25.1367,37.789],[-25.1297,37.8422],[-25.1599,37.8587],[-25.1854,37.8605],[-25.2318,37.8495],[-25.32,37.8642]]]},"properties":{"id":"gb:PRT:ADM2:2272694B40640066990777","name":"Nordeste","parent_id":"framework:province:regiao-auta3noma-dos-aaores:5bda02b962fe","reference_owner":"Portugal","metadata":{"source_id":"gb:PRT:ADM2","source_name":"geoBoundaries gbOpen","source_url":"https://github.com/wmgeolab/geoBoundaries/raw/90a1d52/releaseData/gbOpen/PRT/ADM2/geoBoundaries-PRT-ADM2.geojson","license":"CC0 1.0 Universal (CC0 1.0) Public Domain Dedication","reference_year":"2020","administrative_level":"ADM2","parent_source_level":"ADM1","granularity_version":3,"source_role":"Municipality","selection_reason":"Named gbOpen territories at the reviewed country-specific district tier; subordinate wards, villages and electoral divisions are not substituted based on area.","parent_match":"Named source administrative unit grouped within this geographic area","original_id":"2272694B40640066990777","representative_point":[-25.22069336253115,37.832],"hierarchy_version":4,"hierarchy_source":"gb:PRT:ADM1","hierarchy_overlap":0.927677,"topology_version":1,"reference_version":3,"geographic_area_code":"AZO","geographic_region_code":21,"geographic_match":"largest source overlap","geographic_overlap":0.58044,"coverage_version":1,"semantic_version":1,"remote_version":1,"framework_reference":"Modern geographic framework; historical attributes require dated evidence","framework_match":{"source":"Natural Earth","id":"PRT-735","overlap":0.93988},"regional_match":{"reference_iso":"PRT","source_id":"PRT-735","overlap":0.93988,"method":"reference-territory-constrained overlap"},"reference_owner_id":"owner:Q45","reference_polity":"Portugal","reference_polity_status":"reference","reference_polity_evidence":{"source":"Natural Earth pinned administrative and sovereignty reference; dates vary","source_url":"https://github.com/nvkelso/natural-earth-vector/tree/ca96624a56bd078437bca8184e78163e5039ad19","reference_territory":"Portugal","classification":"Sovereign country","note":null,"uncertainty":false},"semantic_review":{"status":"open","continent":"Africa","decision_index":154,"evidence_file":"geographic-decisions"}}},"id":"gb:PRT:ADM2:2272694B40640066990777"},{"type":"Feature","geometry":{"type":"Polygon","coordinates":[[[-25.1367,37.789],[-25.2165,37.8218],[-25.2574,37.7964],[-25.2991,37.7945],[-25.3595,37.7762],[-25.3399,37.7556],[-25.3131,37.7358],[-25.2063,37.7395],[-25.1437,37.7523],[-25.1367,37.789]]]},"properties":{"id":"gb:PRT:ADM2:2272694B4115863363061","name":"Povoacao","parent_id":"framework:province:regiao-auta3noma-dos-aaores:5bda02b962fe","reference_owner":"Portugal","metadata":{"source_id":"gb:PRT:ADM2","source_name":"geoBoundaries gbOpen","source_url":"https://github.com/wmgeolab/geoBoundaries/raw/90a1d52/releaseData/gbOpen/PRT/ADM2/geoBoundaries-PRT-ADM2.geojson","license":"CC0 1.0 Universal (CC0 1.0) Public Domain Dedication","reference_year":"2020","administrative_level":"ADM2","parent_source_level":"ADM1","granularity_version":3,"source_role":"Municipality","selection_reason":"Named gbOpen territories at the reviewed country-specific district tier; subordinate wards, villages and electoral divisions are not substituted based on area.","parent_match":"Named source administrative unit grouped within this geographic area","original_id":"2272694B4115863363061","representative_point":[-25.23814860558955,37.7826],"hierarchy_version":4,"hierarchy_source":"gb:PRT:ADM1","hierarchy_overlap":0.950844,"topology_version":1,"reference_version":3,"geographic_area_code":"AZO","geographic_region_code":21,"geographic_match":"largest source overlap","geographic_overlap":0.21159,"coverage_version":1,"semantic_version":1,"remote_version":1,"framework_reference":"Modern geographic framework; historical attributes require dated evidence","framework_match":{"source":"Natural Earth","id":"PRT-735","overlap":0.976775},"regional_match":{"reference_iso":"PRT","source_id":"PRT-735","overlap":0.976775,"method":"reference-territory-constrained overlap"},"reference_owner_id":"owner:Q45","reference_polity":"Portugal","reference_polity_status":"reference","reference_polity_evidence":{"source":"Natural Earth pinned administrative and sovereignty reference; dates vary","source_url":"https://github.com/nvkelso/natural-earth-vector/tree/ca96624a56bd078437bca8184e78163e5039ad19","reference_territory":"Portugal","classification":"Sovereign country","note":null,"uncertainty":false},"semantic_review":{"status":"open","continent":"Africa","decision_index":154,"evidence_file":"geographic-decisions"}}},"id":"gb:PRT:ADM2:2272694B4115863363061"},{"type":"Feature","geometry":{"type":"Polygon","coordinates":[[[-27.2392,38.7944],[-27.3552,38.7998],[-27.3784,38.7636],[-27.3621,38.7347],[-27.3389,38.7039],[-27.3018,38.6731],[-27.2415,38.664],[-27.1835,38.6459],[-27.0976,38.6387],[-27.0744,38.6713],[-27.1362,38.7175],[-27.1742,38.7129],[-27.1974,38.7202],[-27.2484,38.7455],[-27.2392,38.7944]]]},"properties":{"id":"gb:PRT:ADM2:2272694B41725550003559","name":"Angra do Heroismo","parent_id":"framework:province:regiao-auta3noma-dos-aaores:5bda02b962fe","reference_owner":"Portugal","metadata":{"source_id":"gb:PRT:ADM2","source_name":"geoBoundaries gbOpen","source_url":"https://github.com/wmgeolab/geoBoundaries/raw/90a1d52/releaseData/gbOpen/PRT/ADM2/geoBoundaries-PRT-ADM2.geojson","license":"CC0 1.0 Universal (CC0 1.0) Public Domain Dedication","reference_year":"2020","administrative_level":"ADM2","parent_source_level":"ADM1","granularity_version":3,"source_role":"Municipality","selection_reason":"Named gbOpen territories at the reviewed country-specific district tier; subordinate wards, villages and electoral divisions are not substituted based on area.","parent_match":"Named source administrative unit grouped within this geographic area","original_id":"2272694B41725550003559","representative_point":[-27.271635314001077,38.71885],"hierarchy_version":4,"hierarchy_source":"gb:PRT:ADM1","hierarchy_overlap":0.954303,"topology_version":1,"reference_version":3,"geographic_area_code":"AZO","geographic_region_code":21,"geographic_match":"largest source overlap","geographic_overlap":0.75907,"coverage_version":1,"semantic_version":1,"remote_version":1,"framework_reference":"Modern geographic framework; historical attributes require dated evidence","framework_match":{"source":"Natural Earth","id":"PRT-735","overlap":0.991776},"regional_match":{"reference_iso":"PRT","source_id":"PRT-735","overlap":0.991776,"method":"reference-territory-constrained overlap"},"reference_owner_id":"owner:Q45","reference_polity":"Portugal","reference_polity_status":"reference","reference_polity_evidence":{"source":"Natural Earth pinned administrative and sovereignty reference; dates vary","source_url":"https://github.com/nvkelso/natural-earth-vector/tree/ca96624a56bd078437bca8184e78163e5039ad19","reference_territory":"Portugal","classification":"Sovereign country","note":null,"uncertainty":false},"semantic_review":{"status":"open","continent":"Africa","decision_index":154,"evidence_file":"geographic-decisions"}}},"id":"gb:PRT:ADM2:2272694B41725550003559"},{"type":"Feature","geometry":{"type":"Polygon","coordinates":[[[-28.7406,38.6713],[-28.8218,38.6133],[-28.9216,38.6151],[-28.91,38.5915],[-28.8659,38.5698],[-28.8218,38.5516],[-28.794,38.5262],[-28.729,38.5262],[-28.6802,38.5335],[-28.6338,38.5353],[-28.6153,38.5552],[-28.6037,38.5897],[-28.6362,38.6169],[-28.7104,38.6387],[-28.7406,38.6713]]]},"properties":{"id":"gb:PRT:ADM2:2272694B4202330031635","name":"Horta","parent_id":"framework:province:regiao-auta3noma-dos-aaores:5bda02b962fe","reference_owner":"Portugal","metadata":{"source_id":"gb:PRT:ADM2","source_name":"geoBoundaries gbOpen","source_url":"https://github.com/wmgeolab/geoBoundaries/raw/90a1d52/releaseData/gbOpen/PRT/ADM2/geoBoundaries-PRT-ADM2.geojson","license":"CC0 1.0 Universal (CC0 1.0) Public Domain Dedication","reference_year":"2020","administrative_level":"ADM2","parent_source_level":"ADM1","granularity_version":3,"source_role":"Municipality","selection_reason":"Named gbOpen territories at the reviewed country-specific district tier; subordinate wards, villages and electoral divisions are not substituted based on area.","parent_match":"Named source administrative unit grouped within this geographic area","original_id":"2272694B4202330031635","representative_point":[-28.767116129735793,38.6024],"hierarchy_version":4,"hierarchy_source":"gb:PRT:ADM1","hierarchy_overlap":0.619056,"topology_version":1,"reference_version":3,"geographic_area_code":"AZO","geographic_region_code":21,"geographic_match":"nearest source coastline (source coverage gap)","geographic_overlap":0,"coverage_version":1,"semantic_version":1,"remote_version":1,"framework_reference":"Modern geographic framework; historical attributes require dated evidence","framework_match":{"source":"Natural Earth","id":"PRT-735","overlap":0.642714},"regional_match":{"reference_iso":"PRT","source_id":"PRT-735","overlap":0.642714,"method":"reference-territory-constrained overlap"},"reference_owner_id":"owner:Q45","reference_polity":"Portugal","reference_polity_status":"reference","reference_polity_evidence":{"source":"Natural Earth pinned administrative and sovereignty reference; dates vary","source_url":"https://github.com/nvkelso/natural-earth-vector/tree/ca96624a56bd078437bca8184e78163e5039ad19","reference_territory":"Portugal","classification":"Sovereign country","note":null,"uncertainty":false},"semantic_review":{"status":"open","continent":"Africa","decision_index":154,"evidence_file":"geographic-decisions"}}},"id":"gb:PRT:ADM2:2272694B4202330031635"},{"type":"Feature","geometry":{"type":"Polygon","coordinates":[[[-28.1047,39.0724],[-27.9887,39.0057],[-27.9469,39.0165],[-27.9516,39.058],[-28.0142,39.0886],[-28.0398,39.094],[-28.0862,39.0958],[-28.1047,39.0724]]]},"properties":{"id":"gb:PRT:ADM2:2272694B47980590419850","name":"Santa Cruz da Graciosa","parent_id":"framework:province:regiao-auta3noma-dos-aaores:5bda02b962fe","reference_owner":"Portugal","metadata":{"source_id":"gb:PRT:ADM2","source_name":"geoBoundaries gbOpen","source_url":"https://github.com/wmgeolab/geoBoundaries/raw/90a1d52/releaseData/gbOpen/PRT/ADM2/geoBoundaries-PRT-ADM2.geojson","license":"CC0 1.0 Universal (CC0 1.0) Public Domain Dedication","reference_year":"2020","administrative_level":"ADM2","parent_source_level":"ADM1","granularity_version":3,"source_role":"Municipality","selection_reason":"Named gbOpen territories at the reviewed country-specific district tier; subordinate wards, villages and electoral divisions are not substituted based on area.","parent_match":"Named source administrative unit grouped within this geographic area","original_id":"2272694B47980590419850","representative_point":[-27.996409782608694,39.03725],"hierarchy_version":4,"hierarchy_source":"gb:PRT:ADM1","hierarchy_overlap":0.730874,"topology_version":1,"reference_version":3,"geographic_area_code":"AZO","geographic_region_code":21,"geographic_match":"nearest source coastline (source coverage gap)","geographic_overlap":0,"coverage_version":1,"semantic_version":1,"remote_version":1,"framework_reference":"Modern geographic framework; historical attributes require dated evidence","framework_match":{"source":"Natural Earth","id":"PRT-735","overlap":0.820104},"regional_match":{"reference_iso":"PRT","source_id":"PRT-735","overlap":0.820104,"method":"reference-territory-constrained overlap"},"reference_owner_id":"owner:Q45","reference_polity":"Portugal","reference_polity_status":"reference","reference_polity_evidence":{"source":"Natural Earth pinned administrative and sovereignty reference; dates vary","source_url":"https://github.com/nvkelso/natural-earth-vector/tree/ca96624a56bd078437bca8184e78163e5039ad19","reference_territory":"Portugal","classification":"Sovereign country","note":null,"uncertainty":false},"semantic_review":{"status":"open","continent":"Africa","decision_index":154,"evidence_file":"geographic-decisions"}}},"id":"gb:PRT:ADM2:2272694B47980590419850"},{"type":"Feature","geometry":{"type":"Polygon","coordinates":[[[-25.6751,37.7872],[-25.6379,37.7835],[-25.631,37.7377],[-25.7099,37.7377],[-25.7795,37.7964],[-25.8166,37.8129],[-25.8723,37.8587],[-25.8561,37.8898],[-25.812,37.9026],[-25.7609,37.9118],[-25.735,37.8866],[-25.7377,37.8587],[-25.7079,37.8421],[-25.6751,37.8477],[-25.663509944410126,37.81732606121275],[-25.696,37.8129],[-25.6751,37.7872]]]},"properties":{"id":"gb:PRT:ADM2:2272694B7809713979732","name":"Ponta Delgada","parent_id":"framework:province:regiao-auta3noma-dos-aaores:5bda02b962fe","reference_owner":"Portugal","metadata":{"source_id":"gb:PRT:ADM2","source_name":"geoBoundaries gbOpen","source_url":"https://github.com/wmgeolab/geoBoundaries/raw/90a1d52/releaseData/gbOpen/PRT/ADM2/geoBoundaries-PRT-ADM2.geojson","license":"CC0 1.0 Universal (CC0 1.0) Public Domain Dedication","reference_year":"2020","administrative_level":"ADM2","parent_source_level":"ADM1","granularity_version":3,"source_role":"Municipality","selection_reason":"Named gbOpen territories at the reviewed country-specific district tier; subordinate wards, villages and electoral divisions are not substituted based on area.","parent_match":"Named source administrative unit grouped within this geographic area","original_id":"2272694B7809713979732","representative_point":[-25.75264191973315,37.82971303060638],"hierarchy_version":4,"hierarchy_source":"gb:PRT:ADM1","hierarchy_overlap":0.909418,"topology_version":1,"topology_reconciled":true,"topology_conflicts":1,"topology_note":"Shared display coverage reconciled against Natural Earth reference borders, then finer source geometry. Original source boundaries may differ.","original_geometry_sha256":"818ef9be8480b8cc6364f1f2d71c674a5c0c27f05d90a36c07bc0f458efba4e5","reference_version":3,"geographic_area_code":"AZO","geographic_region_code":21,"geographic_match":"largest source overlap","geographic_overlap":0.69696,"coverage_version":1,"semantic_version":1,"remote_version":1,"search_aliases":["Ponta Delgada"],"framework_reference":"Modern geographic framework; historical attributes require dated evidence","framework_match":{"source":"Natural Earth","id":"PRT-735","overlap":0.943664},"regional_match":{"reference_iso":"PRT","source_id":"PRT-735","overlap":0.943664,"method":"reference-territory-constrained overlap"},"reference_owner_id":"owner:Q45","reference_polity":"Portugal","reference_polity_status":"reference","reference_polity_evidence":{"source":"Natural Earth pinned administrative and sovereignty reference; dates vary","source_url":"https://github.com/nvkelso/natural-earth-vector/tree/ca96624a56bd078437bca8184e78163e5039ad19","reference_territory":"Portugal","classification":"Sovereign country","note":null,"uncertainty":false},"semantic_review":{"status":"open","continent":"Africa","decision_index":154,"evidence_file":"geographic-decisions"}}},"id":"gb:PRT:ADM2:2272694B7809713979732"},{"type":"Feature","geometry":{"type":"Polygon","coordinates":[[[-25.2991,37.7945],[-25.3595,37.7762],[-25.3943,37.7964],[-25.4307,37.7742],[-25.4894,37.7725],[-25.6078,37.7872],[-25.6379,37.7835],[-25.6751,37.7872],[-25.696,37.8129],[-25.4611,37.8449],[-25.4244,37.8275],[-25.32,37.8642],[-25.2991,37.7945]]]},"properties":{"id":"gb:PRT:ADM2:2272694B90158079900101","name":"Ribeira Grande","parent_id":"framework:province:regiao-auta3noma-dos-aaores:5bda02b962fe","reference_owner":"Portugal","metadata":{"source_id":"gb:PRT:ADM2","source_name":"geoBoundaries gbOpen","source_url":"https://github.com/wmgeolab/geoBoundaries/raw/90a1d52/releaseData/gbOpen/PRT/ADM2/geoBoundaries-PRT-ADM2.geojson","license":"CC0 1.0 Universal (CC0 1.0) Public Domain Dedication","reference_year":"2020","administrative_level":"ADM2","parent_source_level":"ADM1","granularity_version":3,"source_role":"Municipality","selection_reason":"Named gbOpen territories at the reviewed country-specific district tier; subordinate wards, villages and electoral divisions are not substituted based on area.","parent_match":"Named source administrative unit grouped within this geographic area","original_id":"2272694B90158079900101","representative_point":[-25.474609875134504,37.8202],"hierarchy_version":4,"hierarchy_source":"gb:PRT:ADM1","hierarchy_overlap":0.877046,"topology_version":1,"topology_reconciled":true,"topology_conflicts":1,"topology_note":"Shared display coverage reconciled against Natural Earth reference borders, then finer source geometry. Original source boundaries may differ.","original_geometry_sha256":"b1ba6e6f24c3d8907ad74ab305bfd313964216bf8ec11f9a3a85b59b404b867e","reference_version":3,"geographic_area_code":"AZO","geographic_region_code":21,"geographic_match":"largest source overlap","geographic_overlap":0.98668,"coverage_version":1,"semantic_version":1,"remote_version":1,"framework_reference":"Modern geographic framework; historical attributes require dated evidence","framework_match":{"source":"Natural Earth","id":"PRT-735","overlap":0.983395},"regional_match":{"reference_iso":"PRT","source_id":"PRT-735","overlap":0.983395,"method":"reference-territory-constrained overlap"},"reference_owner_id":"owner:Q45","reference_polity":"Portugal","reference_polity_status":"reference","reference_polity_evidence":{"source":"Natural Earth pinned administrative and sovereignty reference; dates vary","source_url":"https://github.com/nvkelso/natural-earth-vector/tree/ca96624a56bd078437bca8184e78163e5039ad19","reference_territory":"Portugal","classification":"Sovereign country","note":null,"uncertainty":false},"semantic_review":{"status":"open","continent":"Africa","decision_index":154,"evidence_file":"geographic-decisions"}}},"id":"gb:PRT:ADM2:2272694B90158079900101"},{"type":"Feature","geometry":{"type":"Polygon","coordinates":[[[-25.0624,37.0203],[-25.1715,37.0092],[-25.1831,36.9851],[-25.1715,36.961],[-25.1344,36.948],[-25.0926,36.948],[-25.0694,36.9202],[-25.0183,36.9221],[-25.0276,36.9499],[-25.0462,36.9777],[-25.0624,37.0203]]]},"properties":{"id":"gb:PRT:ADM2:2272694B91442542352830","name":"Vila do Porto","parent_id":"framework:province:regiao-auta3noma-dos-aaores:5bda02b962fe","reference_owner":"Portugal","metadata":{"source_id":"gb:PRT:ADM2","source_name":"geoBoundaries gbOpen","source_url":"https://github.com/wmgeolab/geoBoundaries/raw/90a1d52/releaseData/gbOpen/PRT/ADM2/geoBoundaries-PRT-ADM2.geojson","license":"CC0 1.0 Universal (CC0 1.0) Public Domain Dedication","reference_year":"2020","administrative_level":"ADM2","parent_source_level":"ADM1","granularity_version":3,"source_role":"Municipality","selection_reason":"Named gbOpen territories at the reviewed country-specific district tier; subordinate wards, villages and electoral divisions are not substituted based on area.","parent_match":"Named source administrative unit grouped within this geographic area","original_id":"2272694B91442542352830","representative_point":[-25.10806619824472,36.96935],"hierarchy_version":4,"hierarchy_source":"gb:PRT:ADM1","hierarchy_overlap":0.86166,"topology_version":1,"reference_version":3,"geographic_area_code":"AZO","geographic_region_code":21,"geographic_match":"largest source overlap","geographic_overlap":0.85274,"coverage_version":1,"semantic_version":1,"remote_version":1,"framework_reference":"Modern geographic framework; historical attributes require dated evidence","framework_match":{"source":"Natural Earth","id":"PRT-735","overlap":0.897089},"regional_match":{"reference_iso":"PRT","source_id":"PRT-735","overlap":0.897089,"method":"reference-territory-constrained overlap"},"reference_owner_id":"owner:Q45","reference_polity":"Portugal","reference_polity_status":"reference","reference_polity_evidence":{"source":"Natural Earth pinned administrative and sovereignty reference; dates vary","source_url":"https://github.com/nvkelso/natural-earth-vector/tree/ca96624a56bd078437bca8184e78163e5039ad19","reference_territory":"Portugal","classification":"Sovereign country","note":null,"uncertainty":false},"semantic_review":{"status":"open","continent":"Africa","decision_index":154,"evidence_file":"geographic-decisions"}}},"id":"gb:PRT:ADM2:2272694B91442542352830"},{"type":"Feature","geometry":{"type":"Polygon","coordinates":[[[-27.9933,38.6731],[-28.1117,38.7039],[-28.1511,38.7111],[-28.2092,38.7274],[-28.244,38.7492],[-28.2811,38.7654],[-28.3136,38.7546],[-28.2296,38.716],[-28.237,38.6876],[-28.1369,38.6567],[-28.0978,38.6205],[-28.0258,38.6224],[-27.9933,38.6731]]]},"properties":{"id":"gb:PRT:ADM2:2272694B94332722873813","name":"Velas","parent_id":"framework:province:regiao-auta3noma-dos-aaores:5bda02b962fe","reference_owner":"Portugal","metadata":{"source_id":"gb:PRT:ADM2","source_name":"geoBoundaries gbOpen","source_url":"https://github.com/wmgeolab/geoBoundaries/raw/90a1d52/releaseData/gbOpen/PRT/ADM2/geoBoundaries-PRT-ADM2.geojson","license":"CC0 1.0 Universal (CC0 1.0) Public Domain Dedication","reference_year":"2020","administrative_level":"ADM2","parent_source_level":"ADM1","granularity_version":3,"source_role":"Municipality","selection_reason":"Named gbOpen territories at the reviewed country-specific district tier; subordinate wards, villages and electoral divisions are not substituted based on area.","parent_match":"Named source administrative unit grouped within this geographic area","original_id":"2272694B94332722873813","representative_point":[-28.15762326916043,38.695750000000004],"hierarchy_version":4,"hierarchy_source":"gb:PRT:ADM1","hierarchy_overlap":0.765883,"topology_version":1,"reference_version":3,"geographic_area_code":"AZO","geographic_region_code":21,"geographic_match":"nearest source coastline (source coverage gap)","geographic_overlap":0,"coverage_version":1,"semantic_version":1,"remote_version":1,"framework_reference":"Modern geographic framework; historical attributes require dated evidence","framework_match":{"source":"Natural Earth","id":"PRT-735","overlap":0.677947},"regional_match":{"reference_iso":"PRT","source_id":"PRT-735","overlap":0.677947,"method":"reference-territory-constrained overlap"},"reference_owner_id":"owner:Q45","reference_polity":"Portugal","reference_polity_status":"reference","reference_polity_evidence":{"source":"Natural Earth pinned administrative and sovereignty reference; dates vary","source_url":"https://github.com/nvkelso/natural-earth-vector/tree/ca96624a56bd078437bca8184e78163e5039ad19","reference_territory":"Portugal","classification":"Sovereign country","note":null,"uncertainty":false},"semantic_review":{"status":"open","continent":"Africa","decision_index":154,"evidence_file":"geographic-decisions"}}},"id":"gb:PRT:ADM2:2272694B94332722873813"},{"type":"Feature","geometry":{"type":"Polygon","coordinates":[[[-27.2392,38.7944],[-27.2484,38.7455],[-27.1974,38.7202],[-27.1742,38.7129],[-27.1362,38.7175],[-27.0744,38.6713],[-27.0373,38.6948],[-27.028,38.7166],[-27.0257,38.7492],[-27.0373,38.7727],[-27.0651,38.789],[-27.1138,38.7926],[-27.1881,38.789],[-27.2392,38.7944]]]},"properties":{"id":"gb:PRT:ADM2:2272694B95713128960189","name":"Praia da Vitoria","parent_id":"framework:province:regiao-auta3noma-dos-aaores:5bda02b962fe","reference_owner":"Portugal","metadata":{"source_id":"gb:PRT:ADM2","source_name":"geoBoundaries gbOpen","source_url":"https://github.com/wmgeolab/geoBoundaries/raw/90a1d52/releaseData/gbOpen/PRT/ADM2/geoBoundaries-PRT-ADM2.geojson","license":"CC0 1.0 Universal (CC0 1.0) Public Domain Dedication","reference_year":"2020","administrative_level":"ADM2","parent_source_level":"ADM1","granularity_version":3,"source_role":"Municipality","selection_reason":"Named gbOpen territories at the reviewed country-specific district tier; subordinate wards, villages and electoral divisions are not substituted based on area.","parent_match":"Named source administrative unit grouped within this geographic area","original_id":"2272694B95713128960189","representative_point":[-27.12487676380368,38.73285],"hierarchy_version":4,"hierarchy_source":"gb:PRT:ADM1","hierarchy_overlap":0.81259,"topology_version":1,"reference_version":3,"geographic_area_code":"AZO","geographic_region_code":21,"geographic_match":"largest source overlap","geographic_overlap":0.43741,"coverage_version":1,"semantic_version":1,"remote_version":1,"framework_reference":"Modern geographic framework; historical attributes require dated evidence","framework_match":{"source":"Natural Earth","id":"PRT-735","overlap":0.866982},"regional_match":{"reference_iso":"PRT","source_id":"PRT-735","overlap":0.866982,"method":"reference-territory-constrained overlap"},"reference_owner_id":"owner:Q45","reference_polity":"Portugal","reference_polity_status":"reference","reference_polity_evidence":{"source":"Natural Earth pinned administrative and sovereignty reference; dates vary","source_url":"https://github.com/nvkelso/natural-earth-vector/tree/ca96624a56bd078437bca8184e78163e5039ad19","reference_territory":"Portugal","classification":"Sovereign country","note":null,"uncertainty":false},"semantic_review":{"status":"open","continent":"Africa","decision_index":154,"evidence_file":"geographic-decisions"}}},"id":"gb:PRT:ADM2:2272694B95713128960189"},{"type":"Feature","geometry":{"type":"Polygon","coordinates":[[[-31.1104,39.7227],[-31.1323,39.711],[-31.1246,39.6912],[-31.1086,39.6783],[-31.0933,39.6854],[-31.0895,39.7007],[-31.098,39.719],[-31.1104,39.7227]]]},"properties":{"id":"gb:PRT:ADM2:2272694B99137580342110","name":"Corvo","parent_id":"framework:province:regiao-auta3noma-dos-aaores:5bda02b962fe","reference_owner":"Portugal","metadata":{"source_id":"gb:PRT:ADM2","source_name":"geoBoundaries gbOpen","source_url":"https://github.com/wmgeolab/geoBoundaries/raw/90a1d52/releaseData/gbOpen/PRT/ADM2/geoBoundaries-PRT-ADM2.geojson","license":"CC0 1.0 Universal (CC0 1.0) Public Domain Dedication","reference_year":"2020","administrative_level":"ADM2","parent_source_level":"ADM1","granularity_version":3,"source_role":"Municipality","selection_reason":"Named gbOpen territories at the reviewed country-specific district tier; subordinate wards, villages and electoral divisions are not substituted based on area.","parent_match":"Named source administrative unit grouped within this geographic area","original_id":"2272694B99137580342110","representative_point":[-31.108563480392156,39.695949999999996],"hierarchy_version":4,"hierarchy_source":"gb:PRT:ADM1","hierarchy_overlap":0.956947,"topology_version":1,"reference_version":3,"geographic_area_code":"AZO","geographic_region_code":21,"geographic_match":"nearest source coastline (source coverage gap)","geographic_overlap":0,"coverage_version":1,"semantic_version":1,"remote_version":1,"framework_reference":"Modern geographic framework; historical attributes require dated evidence","framework_match":{"source":"Natural Earth","id":"PRT-735","overlap":1.0},"regional_match":{"reference_iso":"PRT","source_id":"PRT-735","overlap":1.0,"method":"reference-territory-constrained overlap"},"reference_owner_id":"owner:Q45","reference_polity":"Portugal","reference_polity_status":"reference","reference_polity_evidence":{"source":"Natural Earth pinned administrative and sovereignty reference; dates vary","source_url":"https://github.com/nvkelso/natural-earth-vector/tree/ca96624a56bd078437bca8184e78163e5039ad19","reference_territory":"Portugal","classification":"Sovereign country","note":null,"uncertainty":false},"semantic_review":{"status":"open","continent":"Africa","decision_index":154,"evidence_file":"geographic-decisions"}}},"id":"gb:PRT:ADM2:2272694B99137580342110"},{"type":"Feature","geometry":{"type":"Polygon","coordinates":[[[-28.3716,38.4735],[-28.4018,38.4971],[-28.4111,38.5335],[-28.4273,38.5589],[-28.5549,38.5389],[-28.5401,38.4985],[-28.5665,38.4844],[-28.541,38.4445],[-28.5248,38.4299],[-28.4691,38.4117],[-28.4412,38.4208],[-28.3623,38.4117],[-28.3716,38.4317],[-28.3716,38.4735]]]},"properties":{"id":"gb:PRT:ADM2:2272694B99472059069113","name":"Madalena","parent_id":"framework:province:regiao-auta3noma-dos-aaores:5bda02b962fe","reference_owner":"Portugal","metadata":{"source_id":"gb:PRT:ADM2","source_name":"geoBoundaries gbOpen","source_url":"https://github.com/wmgeolab/geoBoundaries/raw/90a1d52/releaseData/gbOpen/PRT/ADM2/geoBoundaries-PRT-ADM2.geojson","license":"CC0 1.0 Universal (CC0 1.0) Public Domain Dedication","reference_year":"2020","administrative_level":"ADM2","parent_source_level":"ADM1","granularity_version":3,"source_role":"Municipality","selection_reason":"Named gbOpen territories at the reviewed country-specific district tier; subordinate wards, villages and electoral divisions are not substituted based on area.","parent_match":"Named source administrative unit grouped within this geographic area","original_id":"2272694B99472059069113","representative_point":[-28.47414239542012,38.490750000000006],"hierarchy_version":4,"hierarchy_source":"gb:PRT:ADM1","hierarchy_overlap":0.816727,"topology_version":1,"reference_version":3,"geographic_area_code":"AZO","geographic_region_code":21,"geographic_match":"largest source overlap","geographic_overlap":0.57235,"coverage_version":1,"semantic_version":1,"remote_version":1,"framework_reference":"Modern geographic framework; historical attributes require dated evidence","framework_match":{"source":"Natural Earth","id":"PRT-735","overlap":0.910839},"regional_match":{"reference_iso":"PRT","source_id":"PRT-735","overlap":0.910839,"method":"reference-territory-constrained overlap"},"reference_owner_id":"owner:Q45","reference_polity":"Portugal","reference_polity_status":"reference","reference_polity_evidence":{"source":"Natural Earth pinned administrative and sovereignty reference; dates vary","source_url":"https://github.com/nvkelso/natural-earth-vector/tree/ca96624a56bd078437bca8184e78163e5039ad19","reference_territory":"Portugal","classification":"Sovereign country","note":null,"uncertainty":false},"semantic_review":{"status":"open","continent":"Africa","decision_index":154,"evidence_file":"geographic-decisions"}}},"id":"gb:PRT:ADM2:2272694B99472059069113"}]}
