{"type":"FeatureCollection","features":[{"type":"Feature","id":"islet_parks.1","geometry":{"type":"Point","coordinates":[57.7897018,-20.3802518]},"geometry_name":"the_geom","properties":{"fid":1,"name":"Rocher des Oiseaux","longitude":57.7897018,"latitude":-20.3802518,"altitude":0}},{"type":"Feature","id":"islet_parks.2","geometry":{"type":"Point","coordinates":[57.695,-20.0336111]},"geometry_name":"the_geom","properties":{"fid":2,"name":"Île d'Ambre","longitude":57.6949999999999,"latitude":-20.0336111,"altitude":0}},{"type":"Feature","id":"islet_parks.3","geometry":{"type":"Point","coordinates":[57.8172688,-20.3222841]},"geometry_name":"the_geom","properties":{"fid":3,"name":"Île aux Flamants","longitude":57.8172688,"latitude":-20.3222841,"altitude":0}},{"type":"Feature","id":"islet_parks.4","geometry":{"type":"Point","coordinates":[57.8142202,-20.3273594]},"geometry_name":"the_geom","properties":{"fid":4,"name":"Ile aux Oiseaux","longitude":57.8142202,"latitude":-20.3273594,"altitude":0}},{"type":"Feature","id":"islet_parks.5","geometry":{"type":"Point","coordinates":[57.7776885,-20.3953836]},"geometry_name":"the_geom","properties":{"fid":5,"name":"Île aux Fouquets","longitude":57.7776885000001,"latitude":-20.3953836,"altitude":0}},{"type":"Feature","id":"islet_parks.6","geometry":{"type":"Point","coordinates":[57.7878842,-20.3828876]},"geometry_name":"the_geom","properties":{"fid":6,"name":"Île aux Fous","longitude":57.7878842,"latitude":-20.3828876,"altitude":0}},{"type":"Feature","id":"islet_parks.7","geometry":{"type":"Point","coordinates":[57.770278,-20.397778]},"geometry_name":"the_geom","properties":{"fid":7,"name":"Île aux Vacoas","longitude":57.770278,"latitude":-20.397778,"altitude":0}},{"type":"Feature","id":"islet_parks.8","geometry":{"type":"Point","coordinates":[57.657187,-19.8627977]},"geometry_name":"the_geom","properties":{"fid":8,"name":"Pigeon House Rock","longitude":57.657187,"latitude":-19.8627977,"altitude":0}}],"totalFeatures":8,"numberMatched":8,"numberReturned":8,"timeStamp":"2026-10-08T10:05:06.676Z","crs":{"type":"name","properties":{"name":"urn:ogc:def:crs:EPSG::4326"}}}